"Longitude (x)","Latitude (y)","Station Name","Climate ID","Date/Time (LST)","Year","Month","Day","Time (LST)","Flag","Temp (°C)","Temp Flag","Dew Point Temp (°C)","Dew Point Temp Flag","Rel Hum (%)","Rel Hum Flag","Precip. Amount (mm)","Precip. Amount Flag","Wind Dir (10s deg)","Wind Dir Flag","Wind Spd (km/h)","Wind Spd Flag","Visibility (km)","Visibility Flag","Stn Press (kPa)","Stn Press Flag","Hmdx","Hmdx Flag","Wind Chill","Wind Chill Flag","Weather"
"-73.74","45.47","MONTREAL INTL A","7025251","2024-03-01 00:00","2024","03","01","00:00","","-11.4","","-21.5","","44","","","","30","","16","","24.1","","102.57","","","","-19","","NA"
"-73.74","45.47","MONTREAL INTL A","7025251","2024-03-01 01:00","2024","03","01","01:00","","-11.4","","-19.8","","50","","","","25","","13","","24.1","","102.62","","","","-18","","Clear"
"-73.74","45.47","MONTREAL INTL A","7025251","2024-03-01 02:00","2024","03","01","02:00","","-11.7","","-20.3","","49","","","","25","","9","","24.1","","102.64","","","","-17","","NA"
"-73.74","45.47","MONTREAL INTL A","7025251","2024-03-01 03:00","2024","03","01","03:00","","-11.8","","-19.9","","52","","","","24","","7","","24.1","","102.65","","","","-16","","NA"
"-73.74","45.47","MONTREAL INTL A","7025251","2024-03-01 04:00","2024","03","01","04:00","","-11.5","","-19.9","","50","","","","26","","9","","24.1","","102.70","","","","-17","","Clear"
"-73.74","45.47","MONTREAL INTL A","7025251","2024-03-01 05:00","2024","03","01","05:00","","-11.5","","-19.1","","54","","","","24","","7","","24.1","","102.71","","","","-16","","NA"
"-73.74","45.47","MONTREAL INTL A","7025251","2024-03-01 06:00","2024","03","01","06:00","","-11.6","","-18.7","","56","","","","26","","8","","24.1","","102.75","","","","-16","","NA"
"-73.74","45.47","MONTREAL INTL A","7025251","2024-03-01 07:00","2024","03","01","07:00","","-11.3","","-17.4","","61","","","","25","","5","","24.1","","102.79","","","","-14","","Clear"
"-73.74","45.47","MONTREAL INTL A","7025251","2024-03-01 08:00","2024","03","01","08:00","","-9.3","","-16.5","","57","","","","24","","5","","48.3","","102.84","","","","-12","","NA"
"-73.74","45.47","MONTREAL INTL A","7025251","2024-03-01 09:00","2024","03","01","09:00","","-6.5","","-16.1","","47","","","","22","","17","","48.3","","102.85","","","","-13","","NA"
"-73.74","45.47","MONTREAL INTL A","7025251","2024-03-01 10:00","2024","03","01","10:00","","-5.1","","-15.2","","45","","","","19","","10","","24.1","","102.85","","","","-9","","Mostly Cloudy"
"-73.74","45.47","MONTREAL INTL A","7025251","2024-03-01 11:00","2024","03","01","11:00","","-4.9","","-13.4","","52","","","","21","","18","","24.1","","102.85","","","","-11","","NA"
"-73.74","45.47","MONTREAL INTL A","7025251","2024-03-01 12:00","2024","03","01","12:00","","-4.1","","-13.1","","50","","","","23","","14","","24.1","","102.79","","","","-9","","NA"
"-73.74","45.47","MONTREAL INTL A","7025251","2024-03-01 13:00","2024","03","01","13:00","","-2.6","","-10.6","","55","","","","21","","17","","24.1","","102.71","","","","-8","","Cloudy"
"-73.74","45.47","MONTREAL INTL A","7025251","2024-03-01 14:00","2024","03","01","14:00","","-1.6","","-9.3","","56","","","","22","","19","","24.1","","102.62","","","","-7","","NA"
"-73.74","45.47","MONTREAL INTL A","7025251","2024-03-01 15:00","2024","03","01","15:00","","-1.4","","-8.6","","58","","","","20","","12","","24.1","","102.56","","","","-5","","NA"
"-73.74","45.47","MONTREAL INTL A","7025251","2024-03-01 16:00","2024","03","01","16:00","","-0.8","","-8.0","","58","","","","18","","11","","24.1","","102.51","","","","-5","","Mostly Cloudy"
"-73.74","45.47","MONTREAL INTL A","7025251","2024-03-01 17:00","2024","03","01","17:00","","-0.4","","-8.1","","56","","","","16","","8","","24.1","","102.50","","","","-3","","NA"
"-73.74","45.47","MONTREAL INTL A","7025251","2024-03-01 18:00","2024","03","01","18:00","","-1.1","","-7.7","","61","","","","10","","5","","24.1","","102.46","","","","-3","","NA"
"-73.74","45.47","MONTREAL INTL A","7025251","2024-03-01 19:00","2024","03","01","19:00","","-1.6","","-7.1","","66","","","","6","","5","","24.1","","102.45","","","","-3","","Clear"
"-73.74","45.47","MONTREAL INTL A","7025251","2024-03-01 20:00","2024","03","01","20:00","","-2.0","","-6.7","","70","","","","9","","4","","24.1","","102.40","","","","-3","","NA"
"-73.74","45.47","MONTREAL INTL A","7025251","2024-03-01 21:00","2024","03","01","21:00","","-1.4","","-6.5","","68","","","","11","","4","","24.1","","102.35","","","","-3","","NA"
"-73.74","45.47","MONTREAL INTL A","7025251","2024-03-01 22:00","2024","03","01","22:00","","-1.0","","-6.2","","68","","","","3","","4","","24.1","","102.26","","","","-2","","Clear"
"-73.74","45.47","MONTREAL INTL A","7025251","2024-03-01 23:00","2024","03","01","23:00","","-4.0","","-6.8","","81","","","","33","","4","","24.1","","102.29","","","","-6","","NA"
"-73.74","45.47","MONTREAL INTL A","7025251","2024-03-02 00:00","2024","03","02","00:00","","-3.8","","-6.5","","81","","","","1","","6","","24.1","","102.27","","","","-6","","NA"
"-73.74","45.47","MONTREAL INTL A","7025251","2024-03-02 01:00","2024","03","02","01:00","","-4.1","","-7.2","","79","","","","","","0","","24.1","","102.25","","","","","","Clear"
"-73.74","45.47","MONTREAL INTL A","7025251","2024-03-02 02:00","2024","03","02","02:00","","-3.7","","-6.5","","81","","","","36","","3","","24.1","","102.22","","","","-5","","NA"
"-73.74","45.47","MONTREAL INTL A","7025251","2024-03-02 03:00","2024","03","02","03:00","","-2.9","","-6.7","","75","","","","","","0","","24.1","","102.18","","","","","","NA"
"-73.74","45.47","MONTREAL INTL A","7025251","2024-03-02 04:00","2024","03","02","04:00","","-2.0","","-6.5","","72","","","","16","","3","","24.1","","102.21","","","","-3","","Clear"
"-73.74","45.47","MONTREAL INTL A","7025251","2024-03-02 05:00","2024","03","02","05:00","","-5.2","","-7.5","","84","","","","1","","6","","24.1","","102.21","","","","-8","","NA"
"-73.74","45.47","MONTREAL INTL A","7025251","2024-03-02 06:00","2024","03","02","06:00","","-6.0","","-7.8","","87","","","","1","","5","","24.1","","102.21","","","","-8","","NA"
"-73.74","45.47","MONTREAL INTL A","7025251","2024-03-02 07:00","2024","03","02","07:00","","-5.1","","-7.0","","87","","","","3","","6","","24.1","","102.19","","","","-8","","Mostly Cloudy"
"-73.74","45.47","MONTREAL INTL A","7025251","2024-03-02 08:00","2024","03","02","08:00","","-2.5","","-5.3","","82","","","","35","","5","","24.1","","102.18","","","","-4","","NA"
"-73.74","45.47","MONTREAL INTL A","7025251","2024-03-02 09:00","2024","03","02","09:00","","-1.2","","-4.6","","78","","","","36","","7","","24.1","","102.18","","","","-4","","NA"
"-73.74","45.47","MONTREAL INTL A","7025251","2024-03-02 10:00","2024","03","02","10:00","","0.9","","-3.5","","73","","","","2","","7","","24.1","","102.13","","","","","","Mostly Cloudy"
"-73.74","45.47","MONTREAL INTL A","7025251","2024-03-02 11:00","2024","03","02","11:00","","4.0","","-3.5","","58","","","","14","","14","","24.1","","102.08","","","","","","Rain"
"-73.74","45.47","MONTREAL INTL A","7025251","2024-03-02 12:00","2024","03","02","12:00","","3.6","","-1.4","","70","","","","15","","8","","24.1","","102.08","","","","","","Rain"
"-73.74","45.47","MONTREAL INTL A","7025251","2024-03-02 13:00","2024","03","02","13:00","","3.6","","-0.2","","76","","","","15","","9","","24.1","","102.02","","","","","","Rain"
"-73.74","45.47","MONTREAL INTL A","7025251","2024-03-02 14:00","2024","03","02","14:00","","3.4","","1.2","","86","","","","13","","9","","3.2","","101.99","","","","","","Drizzle,Fog"
"-73.74","45.47","MONTREAL INTL A","7025251","2024-03-02 15:00","2024","03","02","15:00","","3.0","","2.0","","93","","","","14","","10","","2.8","","101.98","","","","","","Drizzle,Fog"
"-73.74","45.47","MONTREAL INTL A","7025251","2024-03-02 16:00","2024","03","02","16:00","","3.2","","2.5","","95","","","","11","","6","","4.0","","101.95","","","","","","Drizzle,Fog"
"-73.74","45.47","MONTREAL INTL A","7025251","2024-03-02 17:00","2024","03","02","17:00","","3.3","","2.4","","93","","","","8","","5","","4.8","","101.93","","","","","","Rain,Fog"
"-73.74","45.47","MONTREAL INTL A","7025251","2024-03-02 18:00","2024","03","02","18:00","","3.5","","2.4","","93","","","","5","","5","","8.1","","101.95","","","","","","Rain,Fog"
"-73.74","45.47","MONTREAL INTL A","7025251","2024-03-02 19:00","2024","03","02","19:00","","3.7","","2.7","","93","","","","9","","7","","8.1","","101.91","","","","","","Rain,Fog"
"-73.74","45.47","MONTREAL INTL A","7025251","2024-03-02 20:00","2024","03","02","20:00","","3.8","","3.0","","94","","","","13","","5","","8.1","","101.89","","","","","","Rain,Fog"
"-73.74","45.47","MONTREAL INTL A","7025251","2024-03-02 21:00","2024","03","02","21:00","","3.4","","2.6","","95","","","","2","","6","","4.8","","101.91","","","","","","Rain,Fog"
"-73.74","45.47","MONTREAL INTL A","7025251","2024-03-02 22:00","2024","03","02","22:00","","2.7","","2.1","","96","","","","4","","10","","4.0","","101.89","","","","","","Drizzle,Fog"
"-73.74","45.47","MONTREAL INTL A","7025251","2024-03-02 23:00","2024","03","02","23:00","","2.2","","1.7","","96","","","","1","","16","","4.8","","101.88","","","","","","Drizzle,Fog"
"-73.74","45.47","MONTREAL INTL A","7025251","2024-03-03 00:00","2024","03","03","00:00","","2.0","","1.6","","97","","","","3","","11","","4.8","","101.85","","","","","","Drizzle,Fog"
"-73.74","45.47","MONTREAL INTL A","7025251","2024-03-03 01:00","2024","03","03","01:00","","2.0","","1.6","","97","","","","1","","11","","4.8","","101.88","","","","","","Drizzle,Fog"
"-73.74","45.47","MONTREAL INTL A","7025251","2024-03-03 02:00","2024","03","03","02:00","","1.7","","1.2","","97","","","","2","","14","","9.7","","101.82","","","","","","Drizzle,Fog"
"-73.74","45.47","MONTREAL INTL A","7025251","2024-03-03 03:00","2024","03","03","03:00","","1.7","","1.2","","97","","","","1","","12","","4.8","","101.84","","","","","","Drizzle,Fog"
"-73.74","45.47","MONTREAL INTL A","7025251","2024-03-03 04:00","2024","03","03","04:00","","1.8","","1.4","","97","","","","1","","12","","1.6","","101.87","","","","","","Drizzle,Fog"
"-73.74","45.47","MONTREAL INTL A","7025251","2024-03-03 05:00","2024","03","03","05:00","","2.0","","1.6","","97","","","","2","","15","","4.8","","101.89","","","","","","Drizzle,Fog"
"-73.74","45.47","MONTREAL INTL A","7025251","2024-03-03 06:00","2024","03","03","06:00","","2.1","","1.7","","97","","","","36","","12","","4.8","","101.95","","","","","","Fog"
"-73.74","45.47","MONTREAL INTL A","7025251","2024-03-03 07:00","2024","03","03","07:00","","2.1","","1.7","","97","","","","36","","10","","4.8","","102.00","","","","","","Fog"
"-73.74","45.47","MONTREAL INTL A","7025251","2024-03-03 08:00","2024","03","03","08:00","","2.5","","2.1","","97","","","","3","","11","","3.2","","102.04","","","","","","Fog"
"-73.74","45.47","MONTREAL INTL A","7025251","2024-03-03 09:00","2024","03","03","09:00","","3.2","","2.8","","97","","","","2","","15","","4.0","","102.07","","","","","","Fog"
"-73.74","45.47","MONTREAL INTL A","7025251","2024-03-03 10:00","2024","03","03","10:00","","4.3","","3.9","","97","","","","3","","14","","4.8","","102.09","","","","","","Fog"
"-73.74","45.47","MONTREAL INTL A","7025251","2024-03-03 11:00","2024","03","03","11:00","","5.1","","4.2","","94","","","","2","","15","","6.4","","102.13","","","","","","Fog"
"-73.74","45.47","MONTREAL INTL A","7025251","2024-03-03 12:00","2024","03","03","12:00","","6.2","","3.6","","83","","","","1","","13","","24.1","","102.16","","","","","","NA"
"-73.74","45.47","MONTREAL INTL A","7025251","2024-03-03 13:00","2024","03","03","13:00","","6.7","","2.6","","75","","","","35","","12","","24.1","","102.13","","","","","","Cloudy"
"-73.74","45.47","MONTREAL INTL A","7025251","2024-03-03 14:00","2024","03","03","14:00","","7.3","","2.4","","71","","","","2","","9","","24.1","","102.05","","","","","","NA"
"-73.74","45.47","MONTREAL INTL A","7025251","2024-03-03 15:00","2024","03","03","15:00","","8.5","","2.2","","65","","","","1","","6","","24.1","","102.05","","","","","","NA"
"-73.74","45.47","MONTREAL INTL A","7025251","2024-03-03 16:00","2024","03","03","16:00","","9.2","","1.9","","60","","","","34","","5","","48.3","","102.03","","","","","","Mainly Clear"
"-73.74","45.47","MONTREAL INTL A","7025251","2024-03-03 17:00","2024","03","03","17:00","","9.0","","1.4","","59","","","","1","","7","","48.3","","102.04","","","","","","NA"
"-73.74","45.47","MONTREAL INTL A","7025251","2024-03-03 18:00","2024","03","03","18:00","","6.8","","1.6","","69","","","","20","","7","","24.1","","102.11","","","","","","NA"
"-73.74","45.47","MONTREAL INTL A","7025251","2024-03-03 19:00","2024","03","03","19:00","","4.8","","1.8","","81","","","","16","","5","","24.1","","102.14","","","","","","Clear"
"-73.74","45.47","MONTREAL INTL A","7025251","2024-03-03 20:00","2024","03","03","20:00","","3.8","","1.9","","87","","","","36","","3","","24.1","","102.16","","","","","","NA"
"-73.74","45.47","MONTREAL INTL A","7025251","2024-03-03 21:00","2024","03","03","21:00","","2.0","","0.8","","92","","","","21","","5","","19.3","","102.21","","","","","","NA"
"-73.74","45.47","MONTREAL INTL A","7025251","2024-03-03 22:00","2024","03","03","22:00","","1.0","","0.2","","95","","","","23","","8","","1.2","","102.24","","","","","","Fog"
"-73.74","45.47","MONTREAL INTL A","7025251","2024-03-03 23:00","2024","03","03","23:00","","0.6","","0.1","","96","","","","21","","7","","1.2","","102.26","","","","","","Fog"
"-73.74","45.47","MONTREAL INTL A","7025251","2024-03-04 00:00","2024","03","04","00:00","","0.7","","0.2","","97","","","","15","","6","","0.8","","102.27","","","","","","Fog"
"-73.74","45.47","MONTREAL INTL A","7025251","2024-03-04 01:00","2024","03","04","01:00","","0.6","","0.1","","97","","","","10","","5","","1.2","","102.31","","","","","","Fog"
"-73.74","45.47","MONTREAL INTL A","7025251","2024-03-04 02:00","2024","03","04","02:00","","0.4","","0.0","","97","","","","3","","9","","4.8","","102.31","","","","","","Fog"
"-73.74","45.47","MONTREAL INTL A","7025251","2024-03-04 03:00","2024","03","04","03:00","","0.7","","0.3","","97","","","","3","","3","","16.1","","102.31","","","","","","NA"
"-73.74","45.47","MONTREAL INTL A","7025251","2024-03-04 04:00","2024","03","04","04:00","","1.0","","0.6","","97","","","","33","","7","","24.1","","102.33","","","","","","Cloudy"
"-73.74","45.47","MONTREAL INTL A","7025251","2024-03-04 05:00","2024","03","04","05:00","","1.3","","0.9","","97","","","","2","","9","","24.1","","102.39","","","","","","NA"
"-73.74","45.47","MONTREAL INTL A","7025251","2024-03-04 06:00","2024","03","04","06:00"
"-73.74","45.47","MONTREAL INTL A","7025251","2024-03-04 07:00","2024","03","04","07:00","","1.8","","1.4","","97","","","","3","","12","","9.7","","102.40","","","","","","Fog"
"-73.74","45.47","MONTREAL INTL A","7025251","2024-03-04 08:00","2024","03","04","08:00","","2.9","","2.5","","97","","","","1","","11","","6.4","","102.46","","","","","","Fog"
"-73.74","45.47","MONTREAL INTL A","7025251","2024-03-04 09:00","2024","03","04","09:00","","3.4","","3.0","","97","","","","5","","12","","8.1","","102.40","","","","","","Drizzle,Fog"
"-73.74","45.47","MONTREAL INTL A","7025251","2024-03-04 10:00","2024","03","04","10:00","","6.0","","5.6","","97","","","","7","","10","","4.8","","102.34","","","","","","Fog"
"-73.74","45.47","MONTREAL INTL A","7025251","2024-03-04 11:00","2024","03","04","11:00","","6.7","","5.5","","92","","","","10","","9","","19.3","","102.33","","","","","","NA"
"-73.74","45.47","MONTREAL INTL A","7025251","2024-03-04 12:00","2024","03","04","12:00","","7.6","","5.6","","87","","","","7","","14","","24.1","","102.25","","","","","","NA"
"-73.74","45.47","MONTREAL INTL A","7025251","2024-03-04 13:00","2024","03","04","13:00","","7.4","","4.6","","82","","","","2","","17","","48.3","","102.19","","","","","","Cloudy"
"-73.74","45.47","MONTREAL INTL A","7025251","2024-03-04 14:00","2024","03","04","14:00","","7.4","","4.1","","79","","","","3","","20","","48.3","","102.13","","","","","","NA"
"-73.74","45.47","MONTREAL INTL A","7025251","2024-03-04 15:00","2024","03","04","15:00","","8.7","","4.6","","76","","","","3","","22","","48.3","","102.05","","","","","","NA"
"-73.74","45.47","MONTREAL INTL A","7025251","2024-03-04 16:00","2024","03","04","16:00","","8.8","","4.2","","73","","","","4","","23","","48.3","","101.97","","","","","","Mostly Cloudy"
"-73.74","45.47","MONTREAL INTL A","7025251","2024-03-04 17:00","2024","03","04","17:00","","8.3","","3.4","","71","","","","3","","20","","48.3","","101.93","","","","","","NA"
"-73.74","45.47","MONTREAL INTL A","7025251","2024-03-04 18:00","2024","03","04","18:00","","5.2","","2.0","","79","","","","4","","19","","48.3","","101.93","","","","","","NA"
"-73.74","45.47","MONTREAL INTL A","7025251","2024-03-04 19:00","2024","03","04","19:00","","4.3","","1.3","","81","","","","4","","18","","24.1","","101.95","","","","","","Mainly Clear"
"-73.74","45.47","MONTREAL INTL A","7025251","2024-03-04 20:00","2024","03","04","20:00","","4.3","","2.2","","86","","","","7","","7","","24.1","","101.93","","","","","","NA"
"-73.74","45.47","MONTREAL INTL A","7025251","2024-03-04 21:00","2024","03","04","21:00","","4.2","","1.2","","81","","","","4","","13","","24.1","","101.96","","","","","","NA"
"-73.74","45.47","MONTREAL INTL A","7025251","2024-03-04 22:00","2024","03","04","22:00","","5.6","","3.1","","83","","","","36","","3","","24.1","","101.95","","","","","","Mostly Cloudy"
"-73.74","45.47","MONTREAL INTL A","7025251","2024-03-04 23:00","2024","03","04","23:00","","8.7","","5.7","","82","","","","14","","18","","24.1","","101.89","","","","","","NA"
"-73.74","45.47","MONTREAL INTL A","7025251","2024-03-05 00:00","2024","03","05","00:00","","8.4","","5.3","","81","","","","10","","11","","24.1","","101.87","","","","","","NA"
"-73.74","45.47","MONTREAL INTL A","7025251","2024-03-05 01:00","2024","03","05","01:00","","4.7","","2.5","","85","","","","1","","4","","24.1","","101.85","","","","","","Mainly Clear"
"-73.74","45.47","MONTREAL INTL A","7025251","2024-03-05 02:00","2024","03","05","02:00","","4.2","","2.1","","86","","","","","","0","","24.1","","101.77","","","","","","NA"
"-73.74","45.47","MONTREAL INTL A","7025251","2024-03-05 03:00","2024","03","05","03:00","","4.9","","3.0","","88","","","","","","0","","24.1","","101.71","","","","","","NA"
"-73.74","45.47","MONTREAL INTL A","7025251","2024-03-05 04:00","2024","03","05","04:00","","0.8","","-0.5","","91","","","","","","0","","24.1","","101.69","","","","","","Mainly Clear"
"-73.74","45.47","MONTREAL INTL A","7025251","2024-03-05 05:00","2024","03","05","05:00","","0.3","","-0.9","","92","","","","","","0","","24.1","","101.67","","","","","","NA"
"-73.74","45.47","MONTREAL INTL A","7025251","2024-03-05 06:00","2024","03","05","06:00","","5.4","","3.9","","90","","","","13","","18","","48.3","","101.65","","","","","","NA"
"-73.74","45.47","MONTREAL INTL A","7025251","2024-03-05 07:00","2024","03","05","07:00","","5.6","","3.7","","88","","","","13","","19","","48.3","","101.66","","","","","","Mostly Cloudy"
"-73.74","45.47","MONTREAL INTL A","7025251","2024-03-05 08:00","2024","03","05","08:00","","7.3","","4.6","","83","","","","14","","13","","48.3","","101.68","","","","","","NA"
"-73.74","45.47","MONTREAL INTL A","7025251","2024-03-05 09:00","2024","03","05","09:00","","9.3","","5.3","","76","","","","14","","16","","48.3","","101.62","","","","","","NA"
"-73.74","45.47","MONTREAL INTL A","7025251","2024-03-05 10:00","2024","03","05","10:00","","10.6","","6.1","","74","","","","14","","13","","48.3","","101.54","","","","","","Mostly Cloudy"
"-73.74","45.47","MONTREAL INTL A","7025251","2024-03-05 11:00","2024","03","05","11:00","","11.6","","6.2","","69","","","","15","","17","","48.3","","101.42","","","","","","NA"
"-73.74","45.47","MONTREAL INTL A","7025251","2024-03-05 12:00","2024","03","05","12:00","","12.7","","6.7","","67","","","","14","","19","","48.3","","101.33","","","","","","NA"
"-73.74","45.47","MONTREAL INTL A","7025251","2024-03-05 13:00","2024","03","05","13:00","","13.3","","7.0","","65","","","","13","","18","","48.3","","101.24","","","","","","Mostly Cloudy"
"-73.74","45.47","MONTREAL INTL A","7025251","2024-03-05 14:00","2024","03","05","14:00","","13.0","","6.4","","64","","","","12","","21","","48.3","","101.11","","","","","","NA"
"-73.74","45.47","MONTREAL INTL A","7025251","2024-03-05 15:00","2024","03","05","15:00","","11.9","","5.8","","66","","","","13","","23","","48.3","","101.04","","","","","","NA"
"-73.74","45.47","MONTREAL INTL A","7025251","2024-03-05 16:00","2024","03","05","16:00","","11.2","","5.3","","67","","","","13","","17","","48.3","","101.01","","","","","","Mostly Cloudy"
"-73.74","45.47","MONTREAL INTL A","7025251","2024-03-05 17:00","2024","03","05","17:00","","9.9","","5.4","","73","","","","13","","16","","48.3","","100.97","","","","","","NA"
"-73.74","45.47","MONTREAL INTL A","7025251","2024-03-05 18:00","2024","03","05","18:00","","8.8","","5.4","","79","","","","12","","9","","24.1","","100.97","","","","","","NA"
"-73.74","45.47","MONTREAL INTL A","7025251","2024-03-05 19:00","2024","03","05","19:00","","8.2","","5.3","","82","","","","12","","10","","24.1","","100.91","","","","","","Mainly Clear"
"-73.74","45.47","MONTREAL INTL A","7025251","2024-03-05 20:00","2024","03","05","20:00","","7.8","","5.7","","87","","","","14","","8","","24.1","","100.89","","","","","","NA"
"-73.74","45.47","MONTREAL INTL A","7025251","2024-03-05 21:00","2024","03","05","21:00","","7.4","","5.8","","90","","","","11","","7","","24.1","","100.90","","","","","","NA"
"-73.74","45.47","MONTREAL INTL A","7025251","2024-03-05 22:00","2024","03","05","22:00","","6.8","","5.8","","93","","","","4","","7","","24.1","","100.94","","","","","","Mostly Cloudy"
"-73.74","45.47","MONTREAL INTL A","7025251","2024-03-05 23:00","2024","03","05","23:00","","7.2","","6.0","","92","","","","3","","9","","24.1","","100.93","","","","","","NA"
"-73.74","45.47","MONTREAL INTL A","7025251","2024-03-06 00:00","2024","03","06","00:00","","7.0","","5.8","","92","","","","2","","10","","12.9","","100.94","","","","","","Rain"
"-73.74","45.47","MONTREAL INTL A","7025251","2024-03-06 01:00","2024","03","06","01:00","","6.7","","5.9","","95","","","","1","","7","","24.1","","100.97","","","","","","Rain"
"-73.74","45.47","MONTREAL INTL A","7025251","2024-03-06 02:00","2024","03","06","02:00","","6.3","","5.7","","96","","","","35","","9","","16.1","","100.98","","","","","","Rain"
"-73.74","45.47","MONTREAL INTL A","7025251","2024-03-06 03:00","2024","03","06","03:00","","6.1","","5.5","","96","","","","2","","12","","16.1","","101.01","","","","","","Rain"
"-73.74","45.47","MONTREAL INTL A","7025251","2024-03-06 04:00","2024","03","06","04:00","","5.8","","5.3","","96","","","","1","","18","","16.1","","101.07","","","","","","Rain"
"-73.74","45.47","MONTREAL INTL A","7025251","2024-03-06 05:00","2024","03","06","05:00","","5.7","","5.2","","96","","","","2","","22","","16.1","","101.14","","","","","","Rain"
"-73.74","45.47","MONTREAL INTL A","7025251","2024-03-06 06:00","2024","03","06","06:00","","5.3","","4.7","","96","","","","3","","29","","24.1","","101.19","","","","","","Rain"
"-73.74","45.47","MONTREAL INTL A","7025251","2024-03-06 07:00","2024","03","06","07:00","","4.9","","3.7","","92","","","","4","","26","","24.1","","101.30","","","","","","Rain"
"-73.74","45.47","MONTREAL INTL A","7025251","2024-03-06 08:00","2024","03","06","08:00","","4.8","","3.4","","90","","","","3","","26","","24.1","","101.37","","","","","","Rain"
"-73.74","45.47","MONTREAL INTL A","7025251","2024-03-06 09:00","2024","03","06","09:00","","4.8","","3.0","","88","","","","3","","27","","24.1","","101.42","","","","","","Rain"
"-73.74","45.47","MONTREAL INTL A","7025251","2024-03-06 10:00","2024","03","06","10:00","","4.9","","3.1","","88","","","","3","","25","","24.1","","101.43","","","","","","Rain"
"-73.74","45.47","MONTREAL INTL A","7025251","2024-03-06 11:00","2024","03","06","11:00","","4.8","","3.0","","88","","","","3","","25","","24.1","","101.45","","","","","","Drizzle"
"-73.74","45.47","MONTREAL INTL A","7025251","2024-03-06 12:00","2024","03","06","12:00","","4.6","","3.1","","90","","","","3","","28","","24.1","","101.46","","","","","","Drizzle"
"-73.74","45.47","MONTREAL INTL A","7025251","2024-03-06 13:00","2024","03","06","13:00","","4.7","","3.2","","90","","","","3","","29","","24.1","","101.42","","","","","","Rain"
"-73.74","45.47","MONTREAL INTL A","7025251","2024-03-06 14:00","2024","03","06","14:00","","4.2","","2.9","","91","","","","2","","27","","12.9","","101.42","","","","","","Rain"
"-73.74","45.47","MONTREAL INTL A","7025251","2024-03-06 15:00","2024","03","06","15:00","","4.0","","2.8","","92","","","","2","","23","","16.1","","101.46","","","","","","Rain"
"-73.74","45.47","MONTREAL INTL A","7025251","2024-03-06 16:00","2024","03","06","16:00","","3.7","","2.3","","91","","","","3","","27","","12.9","","101.49","","","","","","Drizzle"
"-73.74","45.47","MONTREAL INTL A","7025251","2024-03-06 17:00","2024","03","06","17:00","","3.6","","2.2","","90","","","","2","","30","","12.9","","101.48","","","","","","Drizzle"
"-73.74","45.47","MONTREAL INTL A","7025251","2024-03-06 18:00","2024","03","06","18:00","","4.0","","1.9","","86","","","","2","","26","","24.1","","101.49","","","","","","NA"
"-73.74","45.47","MONTREAL INTL A","7025251","2024-03-06 19:00","2024","03","06","19:00","","4.3","","1.1","","80","","","","2","","26","","24.1","","101.50","","","","","","Cloudy"
"-73.74","45.47","MONTREAL INTL A","7025251","2024-03-06 20:00","2024","03","06","20:00","","4.4","","0.3","","75","","","","2","","22","","24.1","","101.55","","","","","","NA"
"-73.74","45.47","MONTREAL INTL A","7025251","2024-03-06 21:00","2024","03","06","21:00","","4.3","","-0.2","","72","","","","2","","27","","24.1","","101.54","","","","","","NA"
"-73.74","45.47","MONTREAL INTL A","7025251","2024-03-06 22:00","2024","03","06","22:00","","4.3","","-1.5","","66","","","","2","","25","","24.1","","101.54","","","","","","Cloudy"
"-73.74","45.47","MONTREAL INTL A","7025251","2024-03-06 23:00","2024","03","06","23:00","","4.2","","-2.6","","61","","","","2","","29","","24.1","","101.51","","","","","","NA"
"-73.74","45.47","MONTREAL INTL A","7025251","2024-03-07 00:00","2024","03","07","00:00","","4.1","","-3.0","","60","","","","3","","26","","24.1","","101.46","","","","","","NA"
"-73.74","45.47","MONTREAL INTL A","7025251","2024-03-07 01:00","2024","03","07","01:00","","4.0","","-3.2","","59","","","","3","","35","","24.1","","101.41","","","","","","Mostly Cloudy"
"-73.74","45.47","MONTREAL INTL A","7025251","2024-03-07 02:00","2024","03","07","02:00","","3.7","","-3.3","","60","","","","3","","36","","24.1","","101.37","","","","","","NA"
"-73.74","45.47","MONTREAL INTL A","7025251","2024-03-07 03:00","2024","03","07","03:00","","3.2","","-3.9","","60","","","","3","","36","","24.1","","101.38","","","","","","NA"
"-73.74","45.47","MONTREAL INTL A","7025251","2024-03-07 04:00","2024","03","07","04:00","","3.2","","-4.4","","58","","","","3","","40","","24.1","","101.40","","","","","","Cloudy"
"-73.74","45.47","MONTREAL INTL A","7025251","2024-03-07 05:00","2024","03","07","05:00","","3.0","","-4.7","","57","","","","2","","31","","24.1","","101.44","","","","","","NA"
"-73.74","45.47","MONTREAL INTL A","7025251","2024-03-07 06:00","2024","03","07","06:00","","2.7","","-4.9","","57","","","","2","","31","","24.1","","101.55","","","","","","NA"
"-73.74","45.47","MONTREAL INTL A","7025251","2024-03-07 07:00","2024","03","07","07:00","","2.7","","-5.5","","55","","","","2","","26","","48.3","","101.62","","","","","","Cloudy"
"-73.74","45.47","MONTREAL INTL A","7025251","2024-03-07 08:00","2024","03","07","08:00","","3.0","","-5.8","","52","","","","3","","33","","48.3","","101.64","","","","","","NA"
"-73.74","45.47","MONTREAL INTL A","7025251","2024-03-07 09:00","2024","03","07","09:00","","3.5","","-5.5","","52","","","","3","","32","","48.3","","101.69","","","","","","NA"
"-73.74","45.47","MONTREAL INTL A","7025251","2024-03-07 10:00","2024","03","07","10:00","","4.2","","-5.5","","49","","","","2","","33","","48.3","","101.71","","","","","","Cloudy"
"-73.74","45.47","MONTREAL INTL A","7025251","2024-03-07 11:00","2024","03","07","11:00","","4.8","","-5.2","","48","","","","3","","33","","48.3","","101.77","","","","","","NA"
"-73.74","45.47","MONTREAL INTL A","7025251","2024-03-07 12:00","2024","03","07","12:00","","6.2","","-3.9","","48","","","","3","","30","","48.3","","101.81","","","","","","NA"
"-73.74","45.47","MONTREAL INTL A","7025251","2024-03-07 13:00","2024","03","07","13:00","","6.7","","-3.1","","50","","","","3","","28","","48.3","","101.80","","","","","","Mostly Cloudy"
"-73.74","45.47","MONTREAL INTL A","7025251","2024-03-07 14:00","2024","03","07","14:00","","7.4","","-2.8","","48","","","","3","","25","","48.3","","101.79","","","","","","NA"
"-73.74","45.47","MONTREAL INTL A","7025251","2024-03-07 15:00","2024","03","07","15:00","","8.1","","-2.6","","47","","","","3","","32","","48.3","","101.84","","","","","","NA"
"-73.74","45.47","MONTREAL INTL A","7025251","2024-03-07 16:00","2024","03","07","16:00","","8.3","","-4.1","","41","","","","1","","22","","48.3","","101.87","","","","","","Mainly Clear"
"-73.74","45.47","MONTREAL INTL A","7025251","2024-03-07 17:00","2024","03","07","17:00","","7.0","","-3.8","","46","","","","5","","15","","48.3","","101.88","","","","","","NA"
"-73.74","45.47","MONTREAL INTL A","7025251","2024-03-07 18:00","2024","03","07","18:00","","5.8","","-5.1","","45","","","","7","","18","","48.3","","101.92","","","","","","NA"
"-73.74","45.47","MONTREAL INTL A","7025251","2024-03-07 19:00","2024","03","07","19:00","","4.8","","-6.4","","44","","","","6","","12","","24.1","","102.01","","","","","","Clear"
"-73.74","45.47","MONTREAL INTL A","7025251","2024-03-07 20:00","2024","03","07","20:00","","3.4","","-6.2","","49","","","","3","","11","","24.1","","102.06","","","","","","NA"
"-73.74","45.47","MONTREAL INTL A","7025251","2024-03-07 21:00","2024","03","07","21:00","","2.2","","-7.2","","50","","","","3","","6","","24.1","","102.15","","","","","","NA"
"-73.74","45.47","MONTREAL INTL A","7025251","2024-03-07 22:00","2024","03","07","22:00","","1.8","","-7.1","","52","","","","3","","15","","24.1","","102.19","","","","","","Clear"
"-73.74","45.47","MONTREAL INTL A","7025251","2024-03-07 23:00","2024","03","07","23:00","","1.7","","-8.8","","46","","","","3","","22","","24.1","","102.20","","","","","","NA"
"-73.74","45.47","MONTREAL INTL A","7025251","2024-03-08 00:00","2024","03","08","00:00","","1.3","","-9.2","","46","","","","2","","22","","24.1","","102.23","","","","","","NA"
"-73.74","45.47","MONTREAL INTL A","7025251","2024-03-08 01:00","2024","03","08","01:00","","0.5","","-9.4","","47","","","","2","","19","","24.1","","102.27","","","","","","Clear"
"-73.74","45.47","MONTREAL INTL A","7025251","2024-03-08 02:00","2024","03","08","02:00","","-0.1","","-9.8","","48","","","","2","","23","","24.1","","102.29","","","","-6","","NA"
"-73.74","45.47","MONTREAL INTL A","7025251","2024-03-08 03:00","2024","03","08","03:00","","-0.9","","-10.1","","50","","","","3","","23","","24.1","","102.25","","","","-7","","NA"
"-73.74","45.47","MONTREAL INTL A","7025251","2024-03-08 04:00","2024","03","08","04:00"
"-73.74","45.47","MONTREAL INTL A","7025251","2024-03-08 05:00","2024","03","08","05:00","","-1.8","","-8.2","","62","","","","4","","14","","24.1","","102.33","","","","-6","","NA"
"-73.74","45.47","MONTREAL INTL A","7025251","2024-03-08 06:00","2024","03","08","06:00","","-1.7","","-7.5","","65","","","","3","","19","","24.1","","102.38","","","","-7","","NA"
"-73.74","45.47","MONTREAL INTL A","7025251","2024-03-08 07:00","2024","03","08","07:00","","-1.5","","-7.3","","65","","","","2","","18","","24.1","","102.43","","","","-7","","Clear"
"-73.74","45.47","MONTREAL INTL A","7025251","2024-03-08 08:00","2024","03","08","08:00","","-0.3","","-6.6","","63","","","","5","","20","","24.1","","102.46","","","","-6","","NA"
"-73.74","45.47","MONTREAL INTL A","7025251","2024-03-08 09:00","2024","03","08","09:00","","0.8","","-5.9","","61","","","","3","","16","","24.1","","102.48","","","","","","NA"
"-73.74","45.47","MONTREAL INTL A","7025251","2024-03-08 10:00","2024","03","08","10:00","","2.1","","-6.1","","55","","","","3","","11","","48.3","","102.50","","","","","","Clear"
"-73.74","45.47","MONTREAL INTL A","7025251","2024-03-08 11:00","2024","03","08","11:00","","3.4","","-5.7","","51","","","","4","","16","","48.3","","102.46","","","","","","NA"
"-73.74","45.47","MONTREAL INTL A","7025251","2024-03-08 12:00","2024","03","08","12:00","","4.7","","-4.9","","50","","","","5","","13","","48.3","","102.42","","","","","","NA"
"-73.74","45.47","MONTREAL INTL A","7025251","2024-03-08 13:00","2024","03","08","13:00","","5.1","","-5.5","","46","","","","4","","12","","48.3","","102.34","","","","","","Mainly Clear"
"-73.74","45.47","MONTREAL INTL A","7025251","2024-03-08 14:00","2024","03","08","14:00","","6.3","","-4.7","","45","","","","5","","19","","48.3","","102.28","","","","","","NA"
"-73.74","45.47","MONTREAL INTL A","7025251","2024-03-08 15:00","2024","03","08","15:00","","5.9","","-4.2","","48","","","","3","","19","","48.3","","102.21","","","","","","NA"
"-73.74","45.47","MONTREAL INTL A","7025251","2024-03-08 16:00","2024","03","08","16:00","","6.3","","-4.2","","47","","","","6","","21","","48.3","","102.14","","","","","","Mainly Clear"
"-73.74","45.47","MONTREAL INTL A","7025251","2024-03-08 17:00","2024","03","08","17:00","","5.6","","-3.0","","54","","","","5","","17","","48.3","","102.10","","","","","","NA"
"-73.74","45.47","MONTREAL INTL A","7025251","2024-03-08 18:00","2024","03","08","18:00","","3.8","","-3.2","","60","","","","4","","21","","48.3","","102.07","","","","","","NA"
"-73.74","45.47","MONTREAL INTL A","7025251","2024-03-08 19:00","2024","03","08","19:00","","3.4","","-3.0","","63","","","","5","","18","","24.1","","102.08","","","","","","Mainly Clear"
"-73.74","45.47","MONTREAL INTL A","7025251","2024-03-08 20:00","2024","03","08","20:00","","2.8","","-3.7","","63","","","","5","","19","","24.1","","102.03","","","","","","NA"
"-73.74","45.47","MONTREAL INTL A","7025251","2024-03-08 21:00","2024","03","08","21:00","","2.5","","-4.4","","60","","","","5","","23","","24.1","","101.93","","","","","","NA"
"-73.74","45.47","MONTREAL INTL A","7025251","2024-03-08 22:00","2024","03","08","22:00","","1.6","","-4.4","","65","","","","4","","21","","24.1","","101.85","","","","","","Mainly Clear"
"-73.74","45.47","MONTREAL INTL A","7025251","2024-03-08 23:00","2024","03","08","23:00","","0.9","","-4.1","","69","","","","4","","18","","24.1","","101.86","","","","","","NA"
"-73.74","45.47","MONTREAL INTL A","7025251","2024-03-09 00:00","2024","03","09","00:00","","1.1","","-3.8","","70","","","","4","","17","","24.1","","101.83","","","","","","NA"
"-73.74","45.47","MONTREAL INTL A","7025251","2024-03-09 01:00","2024","03","09","01:00","","1.0","","-3.9","","70","","","","5","","16","","24.1","","101.75","","","","","","Mostly Cloudy"
"-73.74","45.47","MONTREAL INTL A","7025251","2024-03-09 02:00","2024","03","09","02:00","","0.8","","-3.6","","73","","","","4","","16","","24.1","","101.64","","","","","","NA"
"-73.74","45.47","MONTREAL INTL A","7025251","2024-03-09 03:00","2024","03","09","03:00","","0.5","","-3.5","","75","","","","5","","20","","24.1","","101.50","","","","","","NA"
"-73.74","45.47","MONTREAL INTL A","7025251","2024-03-09 04:00","2024","03","09","04:00","","0.1","","-3.6","","76","","","","5","","18","","24.1","","101.43","","","","","","Mostly Cloudy"
"-73.74","45.47","MONTREAL INTL A","7025251","2024-03-09 05:00","2024","03","09","05:00","","0.0","","-3.5","","77","","","","3","","18","","24.1","","101.39","","","","-5","","NA"
"-73.74","45.47","MONTREAL INTL A","7025251","2024-03-09 06:00","2024","03","09","06:00","","3.7","","-3.1","","61","","","","13","","26","","24.1","","101.29","","","","","","NA"
"-73.74","45.47","MONTREAL INTL A","7025251","2024-03-09 07:00","2024","03","09","07:00","","4.2","","-3.8","","56","","","","15","","27","","24.1","","101.27","","","","","","Cloudy"
"-73.74","45.47","MONTREAL INTL A","7025251","2024-03-09 08:00","2024","03","09","08:00","","4.9","","-4.3","","51","","","","14","","34","","24.1","","101.19","","","","","","NA"
"-73.74","45.47","MONTREAL INTL A","7025251","2024-03-09 09:00","2024","03","09","09:00","","5.8","","-4.4","","48","","","","14","","42","","24.1","","101.13","","","","","","NA"
"-73.74","45.47","MONTREAL INTL A","7025251","2024-03-09 10:00","2024","03","09","10:00","","6.3","","-4.1","","47","","","","14","","45","","48.3","","101.06","","","","","","Cloudy"
"-73.74","45.47","MONTREAL INTL A","7025251","2024-03-09 11:00","2024","03","09","11:00","","7.1","","-4.6","","43","","","","14","","48","","48.3","","101.02","","","","","","NA"
"-73.74","45.47","MONTREAL INTL A","7025251","2024-03-09 12:00","2024","03","09","12:00","","7.3","","-5.4","","40","","","","15","","41","","48.3","","100.94","","","","","","NA"
"-73.74","45.47","MONTREAL INTL A","7025251","2024-03-09 13:00","2024","03","09","13:00","","5.2","","-2.5","","57","","","","14","","34","","24.1","","100.81","","","","","","Rain,Ice Pellets"
"-73.74","45.47","MONTREAL INTL A","7025251","2024-03-09 14:00","2024","03","09","14:00","","5.2","","-2.3","","59","","","","12","","30","","24.1","","100.61","","","","","","Rain"
"-73.74","45.47","MONTREAL INTL A","7025251","2024-03-09 15:00","2024","03","09","15:00","","5.1","","-1.0","","64","","","","14","","22","","24.1","","100.53","","","","","","Rain"
"-73.74","45.47","MONTREAL INTL A","7025251","2024-03-09 16:00","2024","03","09","16:00","","6.2","","-1.3","","59","","","","14","","31","","24.1","","100.45","","","","","","Rain"
"-73.74","45.47","MONTREAL INTL A","7025251","2024-03-09 17:00","2024","03","09","17:00","","5.0","","-0.1","","70","","","","15","","40","","19.3","","100.44","","","","","","Rain"
"-73.74","45.47","MONTREAL INTL A","7025251","2024-03-09 18:00","2024","03","09","18:00","","4.1","","1.6","","83","","","","14","","21","","16.1","","100.42","","","","","","Rain"
"-73.74","45.47","MONTREAL INTL A","7025251","2024-03-09 19:00","2024","03","09","19:00","","4.0","","1.9","","86","","","","16","","27","","9.7","","100.39","","","","","","Rain,Fog"
"-73.74","45.47","MONTREAL INTL A","7025251","2024-03-09 20:00","2024","03","09","20:00","","3.6","","1.8","","88","","","","14","","34","","8.1","","100.28","","","","","","Rain,Fog"
"-73.74","45.47","MONTREAL INTL A","7025251","2024-03-09 21:00","2024","03","09","21:00","","3.3","","1.7","","89","","","","14","","34","","8.1","","100.26","","","","","","Rain,Fog"
"-73.74","45.47","MONTREAL INTL A","7025251","2024-03-09 22:00","2024","03","09","22:00","","3.1","","1.7","","90","","","","14","","29","","9.7","","100.15","","","","","","Rain,Fog"
"-73.74","45.47","MONTREAL INTL A","7025251","2024-03-09 23:00","2024","03","09","23:00","","3.1","","1.7","","90","","","","14","","33","","9.7","","100.06","","","","","","Rain,Fog"
"-73.74","45.47","MONTREAL INTL A","7025251","2024-03-10 00:00","2024","03","10","00:00","","3.1","","1.7","","91","","","","12","","28","","8.1","","99.93","","","","","","Rain,Fog"
"-73.74","45.47","MONTREAL INTL A","7025251","2024-03-10 01:00","2024","03","10","01:00","","2.7","","1.4","","91","","","","12","","26","","8.1","","99.81","","","","","","Rain,Fog"
"-73.74","45.47","MONTREAL INTL A","7025251","2024-03-10 02:00","2024","03","10","02:00","","2.6","","1.5","","92","","","","12","","24","","9.7","","99.72","","","","","","Rain,Fog"
"-73.74","45.47","MONTREAL INTL A","7025251","2024-03-10 03:00","2024","03","10","03:00","","0.8","","-0.2","","93","","","","10","","12","","9.7","","99.65","","","","","","Rain,Fog"
"-73.74","45.47","MONTREAL INTL A","7025251","2024-03-10 04:00","2024","03","10","04:00","","0.3","","-0.5","","95","","","","6","","9","","2.8","","99.58","","","","","","Snow,Fog"
"-73.74","45.47","MONTREAL INTL A","7025251","2024-03-10 05:00","2024","03","10","05:00","","0.1","","-0.5","","96","","","","4","","14","","4.0","","99.44","","","","","","Snow,Fog"
"-73.74","45.47","MONTREAL INTL A","7025251","2024-03-10 06:00","2024","03","10","06:00","","0.2","","-0.3","","96","","","","5","","15","","4.0","","99.32","","","","","","Snow,Fog"
"-73.74","45.47","MONTREAL INTL A","7025251","2024-03-10 07:00","2024","03","10","07:00","","0.4","","-0.1","","96","","","","5","","13","","3.2","","99.24","","","","","","Snow"
"-73.74","45.47","MONTREAL INTL A","7025251","2024-03-10 08:00","2024","03","10","08:00","","0.4","","-0.1","","96","","","","5","","14","","4.0","","99.13","","","","","","Snow"
"-73.74","45.47","MONTREAL INTL A","7025251","2024-03-10 09:00","2024","03","10","09:00","","0.4","","-0.2","","96","","","","2","","11","","3.2","","99.03","","","","","","Snow"
"-73.74","45.47","MONTREAL INTL A","7025251","2024-03-10 10:00","2024","03","10","10:00","","1.0","","0.4","","96","","","","2","","9","","2.8","","98.95","","","","","","Snow,Fog"
"-73.74","45.47","MONTREAL INTL A","7025251","2024-03-10 11:00","2024","03","10","11:00","","1.5","","0.7","","94","","","","35","","9","","4.8","","98.88","","","","","","Snow,Fog"
"-73.74","45.47","MONTREAL INTL A","7025251","2024-03-10 12:00","2024","03","10","12:00","","1.9","","0.8","","93","","","","34","","5","","9.7","","98.83","","","","","","Snow,Fog"
"-73.74","45.47","MONTREAL INTL A","7025251","2024-03-10 13:00","2024","03","10","13:00","","2.3","","0.9","","91","","","","29","","11","","12.9","","98.76","","","","","","Rain"
"-73.74","45.47","MONTREAL INTL A","7025251","2024-03-10 14:00","2024","03","10","14:00","","2.5","","1.4","","92","","","","28","","16","","6.4","","98.73","","","","","","Drizzle,Fog"
"-73.74","45.47","MONTREAL INTL A","7025251","2024-03-10 15:00","2024","03","10","15:00","","2.7","","1.4","","91","","","","27","","18","","9.7","","98.71","","","","","","Drizzle,Fog"
"-73.74","45.47","MONTREAL INTL A","7025251","2024-03-10 16:00","2024","03","10","16:00","","1.8","","0.3","","90","","","","26","","28","","6.4","","98.71","","","","","","Drizzle,Snow,Fog"
"-73.74","45.47","MONTREAL INTL A","7025251","2024-03-10 17:00","2024","03","10","17:00","","0.6","","-0.6","","91","","","","26","","31","","1.6","","98.75","","","","","","Snow,Fog"
"-73.74","45.47","MONTREAL INTL A","7025251","2024-03-10 18:00","2024","03","10","18:00","","0.0","","-1.1","","92","","","","26","","32","","3.2","","98.81","","","","-7","","Snow,Fog"
"-73.74","45.47","MONTREAL INTL A","7025251","2024-03-10 19:00","2024","03","10","19:00","","-0.8","","-2.1","","91","","","","25","","34","","2.4","","98.88","","","","-8","","Snow,Fog"
"-73.74","45.47","MONTREAL INTL A","7025251","2024-03-10 20:00","2024","03","10","20:00","","-1.3","","-2.5","","91","","","","26","","32","","3.6","","98.90","","","","-8","","Snow,Fog"
"-73.74","45.47","MONTREAL INTL A","7025251","2024-03-10 21:00","2024","03","10","21:00","","-1.8","","-3.2","","90","","","","26","","28","","4.0","","98.95","","","","-9","","Rain,Snow,Fog"
"-73.74","45.47","MONTREAL INTL A","7025251","2024-03-10 22:00","2024","03","10","22:00","","-2.0","","-4.1","","86","","","","27","","29","","6.4","","98.96","","","","-9","","Snow,Fog"
"-73.74","45.47","MONTREAL INTL A","7025251","2024-03-10 23:00","2024","03","10","23:00","","-2.4","","-4.7","","84","","","","27","","31","","6.4","","98.98","","","","-10","","Snow,Fog"
"-73.74","45.47","MONTREAL INTL A","7025251","2024-03-11 00:00","2024","03","11","00:00","","-3.0","","-5.5","","83","","","","27","","26","","2.4","","99.02","","","","-10","","Snow,Fog"
"-73.74","45.47","MONTREAL INTL A","7025251","2024-03-11 01:00","2024","03","11","01:00","","-3.2","","-6.1","","80","","","","28","","29","","3.2","","99.03","","","","-11","","Snow,Fog"
"-73.74","45.47","MONTREAL INTL A","7025251","2024-03-11 02:00","2024","03","11","02:00","","-3.0","","-7.3","","72","","","","27","","30","","9.7","","99.06","","","","-10","","Snow,Fog"
"-73.74","45.47","MONTREAL INTL A","7025251","2024-03-11 03:00","2024","03","11","03:00","","-3.1","","-7.7","","71","","","","27","","30","","24.1","","99.09","","","","-11","","NA"
"-73.74","45.47","MONTREAL INTL A","7025251","2024-03-11 04:00","2024","03","11","04:00","","-3.2","","-8.1","","69","","","","28","","28","","24.1","","99.13","","","","-10","","Mostly Cloudy"
"-73.74","45.47","MONTREAL INTL A","7025251","2024-03-11 05:00","2024","03","11","05:00","","-3.2","","-8.3","","68","","","","29","","35","","24.1","","99.21","","","","-11","","NA"
"-73.74","45.47","MONTREAL INTL A","7025251","2024-03-11 06:00","2024","03","11","06:00","","-3.1","","-8.2","","68","","","","29","","31","","24.1","","99.30","","","","-11","","NA"
"-73.74","45.47","MONTREAL INTL A","7025251","2024-03-11 07:00","2024","03","11","07:00","","-2.7","","-7.9","","68","","","","30","","18","","24.1","","99.40","","","","-8","","Cloudy"
"-73.74","45.47","MONTREAL INTL A","7025251","2024-03-11 08:00","2024","03","11","08:00","","-2.0","","-7.5","","66","","","","30","","28","","24.1","","99.44","","","","-9","","NA"
"-73.74","45.47","MONTREAL INTL A","7025251","2024-03-11 09:00","2024","03","11","09:00","","-1.2","","-7.2","","64","","","","29","","34","","24.1","","99.49","","","","-8","","Blowing Snow"
"-73.74","45.47","MONTREAL INTL A","7025251","2024-03-11 10:00","2024","03","11","10:00","","-0.6","","-6.3","","65","","","","30","","28","","24.1","","99.55","","","","-7","","Mostly Cloudy"
"-73.74","45.47","MONTREAL INTL A","7025251","2024-03-11 11:00","2024","03","11","11:00","","-0.9","","-6.6","","66","","","","29","","44","","24.1","","99.64","","","","-9","","Blowing Snow"
"-73.74","45.47","MONTREAL INTL A","7025251","2024-03-11 12:00","2024","03","11","12:00","","-0.2","","-6.1","","65","","","","29","","36","","24.1","","99.70","","","","-7","","Blowing Snow"
"-73.74","45.47","MONTREAL INTL A","7025251","2024-03-11 13:00","2024","03","11","13:00","","0.5","","-6.0","","62","","","","30","","46","","24.1","","99.76","","","","","","Mostly Cloudy"
"-73.74","45.47","MONTREAL INTL A","7025251","2024-03-11 14:00","2024","03","11","14:00","","1.4","","-5.6","","60","","","","29","","39","","48.3","","99.79","","","","","","NA"
"-73.74","45.47","MONTREAL INTL A","7025251","2024-03-11 15:00","2024","03","11","15:00","","2.4","","-5.3","","57","","","","30","","34","","48.3","","99.88","","","","","","NA"
"-73.74","45.47","MONTREAL INTL A","7025251","2024-03-11 16:00","2024","03","11","16:00","","2.9","","-6.3","","51","","","","30","","34","","48.3","","99.97","","","","","","Mainly Clear"
"-73.74","45.47","MONTREAL INTL A","7025251","2024-03-11 17:00","2024","03","11","17:00","","3.4","","-6.8","","47","","","","30","","22","","48.3","","100.00","","","","","","NA"
"-73.74","45.47","MONTREAL INTL A","7025251","2024-03-11 18:00","2024","03","11","18:00","","2.8","","-7.4","","47","","","","29","","14","","48.3","","100.04","","","","","","NA"
"-73.74","45.47","MONTREAL INTL A","7025251","2024-03-11 19:00","2024","03","11","19:00","","2.6","","-8.5","","44","","","","29","","19","","24.1","","100.10","","","","","","Clear"
"-73.74","45.47","MONTREAL INTL A","7025251","2024-03-11 20:00","2024","03","11","20:00","","2.2","","-9.1","","43","","","","28","","19","","24.1","","100.15","","","","","","NA"
"-73.74","45.47","MONTREAL INTL A","7025251","2024-03-11 21:00","2024","03","11","21:00","","2.4","","-9.8","","40","","","","28","","26","","24.1","","100.19","","","","","","NA"
"-73.74","45.47","MONTREAL INTL A","7025251","2024-03-11 22:00","2024","03","11","22:00","","2.3","","-10.1","","40","","","","29","","26","","24.1","","100.21","","","","","","Mostly Cloudy"
"-73.74","45.47","MONTREAL INTL A","7025251","2024-03-11 23:00","2024","03","11","23:00","","2.0","","-10.0","","41","","","","29","","27","","24.1","","100.25","","","","","","NA"
"-73.74","45.47","MONTREAL INTL A","7025251","2024-03-12 00:00","2024","03","12","00:00","","1.8","","-9.3","","43","","","","29","","27","","24.1","","100.28","","","","","","NA"
"-73.74","45.47","MONTREAL INTL A","7025251","2024-03-12 01:00","2024","03","12","01:00","","1.2","","-9.1","","46","","","","30","","19","","24.1","","100.31","","","","","","Mostly Cloudy"
"-73.74","45.47","MONTREAL INTL A","7025251","2024-03-12 02:00","2024","03","12","02:00","","0.7","","-9.1","","48","","","","30","","25","","24.1","","100.29","","","","","","NA"
"-73.74","45.47","MONTREAL INTL A","7025251","2024-03-12 03:00","2024","03","12","03:00","","0.2","","-9.2","","49","","","","28","","25","","24.1","","100.27","","","","","","NA"
"-73.74","45.47","MONTREAL INTL A","7025251","2024-03-12 04:00","2024","03","12","04:00","","-0.3","","-8.8","","53","","","","29","","17","","24.1","","100.30","","","","-5","","Mainly Clear"
"-73.74","45.47","MONTREAL INTL A","7025251","2024-03-12 05:00","2024","03","12","05:00","","-0.8","","-8.4","","57","","","","30","","14","","24.1","","100.35","","","","-5","","NA"
"-73.74","45.47","MONTREAL INTL A","7025251","2024-03-12 06:00","2024","03","12","06:00","","-0.9","","-8.2","","58","","","","30","","14","","24.1","","100.41","","","","-5","","NA"
"-73.74","45.47","MONTREAL INTL A","7025251","2024-03-12 07:00","2024","03","12","07:00","","-0.3","","-7.9","","57","","","","30","","16","","48.3","","100.47","","","","-5","","Clear"
"-73.74","45.47","MONTREAL INTL A","7025251","2024-03-12 08:00","2024","03","12","08:00","","0.9","","-8.0","","52","","","","30","","20","","48.3","","100.51","","","","","","NA"
"-73.74","45.47","MONTREAL INTL A","7025251","2024-03-12 09:00","2024","03","12","09:00","","1.5","","-9.0","","46","","","","29","","25","","48.3","","100.53","","","","","","NA"
"-73.74","45.47","MONTREAL INTL A","7025251","2024-03-12 10:00","2024","03","12","10:00","","2.8","","-8.5","","43","","","","30","","23","","48.3","","100.57","","","","","","Clear"
"-73.74","45.47","MONTREAL INTL A","7025251","2024-03-12 11:00","2024","03","12","11:00","","3.8","","-8.9","","39","","","","29","","26","","48.3","","100.52","","","","","","NA"
"-73.74","45.47","MONTREAL INTL A","7025251","2024-03-12 12:00","2024","03","12","12:00","","5.5","","-8.5","","36","","","","29","","25","","48.3","","100.50","","","","","","NA"
"-73.74","45.47","MONTREAL INTL A","7025251","2024-03-12 13:00","2024","03","12","13:00","","6.2","","-8.5","","34","","","","29","","26","","48.3","","100.47","","","","","","Clear"
"-73.74","45.47","MONTREAL INTL A","7025251","2024-03-12 14:00","2024","03","12","14:00","","7.3","","-8.8","","31","","","","29","","29","","48.3","","100.44","","","","","","NA"
"-73.74","45.47","MONTREAL INTL A","7025251","2024-03-12 15:00","2024","03","12","15:00","","8.3","","-6.0","","36","","","","30","","22","","48.3","","100.43","","","","","","NA"
"-73.74","45.47","MONTREAL INTL A","7025251","2024-03-12 16:00","2024","03","12","16:00","","8.7","","-11.4","","23","","","","30","","24","","48.3","","100.45","","","","","","Mainly Clear"
"-73.74","45.47","MONTREAL INTL A","7025251","2024-03-12 17:00","2024","03","12","17:00","","8.4","","-12.3","","22","","","","30","","22","","48.3","","100.51","","","","","","NA"
"-73.74","45.47","MONTREAL INTL A","7025251","2024-03-12 18:00","2024","03","12","18:00","","6.9","","-12.2","","24","","","","33","","15","","48.3","","100.59","","","","","","NA"
"-73.74","45.47","MONTREAL INTL A","7025251","2024-03-12 19:00","2024","03","12","19:00","","5.5","","-11.6","","28","","","","33","","11","","24.1","","100.63","","","","","","Mainly Clear"
"-73.74","45.47","MONTREAL INTL A","7025251","2024-03-12 20:00","2024","03","12","20:00","","4.7","","-11.3","","30","","","","35","","9","","24.1","","100.68","","","","","","NA"
"-73.74","45.47","MONTREAL INTL A","7025251","2024-03-12 21:00","2024","03","12","21:00","","3.5","","-11.0","","34","","","","36","","9","","24.1","","100.73","","","","","","NA"
"-73.74","45.47","MONTREAL INTL A","7025251","2024-03-12 22:00","2024","03","12","22:00","","2.2","","-8.5","","45","","","","3","","18","","24.1","","100.74","","","","","","Clear"
"-73.74","45.47","MONTREAL INTL A","7025251","2024-03-12 23:00","2024","03","12","23:00","","1.2","","-7.9","","51","","","","4","","12","","24.1","","100.77","","","","","","NA"
"-73.74","45.47","MONTREAL INTL A","7025251","2024-03-13 00:00","2024","03","13","00:00","","0.9","","-6.2","","59","","","","5","","13","","24.1","","100.80","","","","","","NA"
"-73.74","45.47","MONTREAL INTL A","7025251","2024-03-13 01:00","2024","03","13","01:00","","0.5","","-5.1","","66","","","","5","","10","","24.1","","100.84","","","","","","Clear"
"-73.74","45.47","MONTREAL INTL A","7025251","2024-03-13 02:00","2024","03","13","02:00","","0.5","","-4.6","","69","","","","8","","13","","24.1","","100.85","","","","","","NA"
"-73.74","45.47","MONTREAL INTL A","7025251","2024-03-13 03:00","2024","03","13","03:00","","-0.3","","-4.8","","71","","","","14","","8","","24.1","","100.88","","","","-3","","NA"
"-73.74","45.47","MONTREAL INTL A","7025251","2024-03-13 04:00","2024","03","13","04:00","","-0.5","","-4.7","","73","","","","11","","4","","24.1","","100.90","","","","-2","","Clear"
"-73.74","45.47","MONTREAL INTL A","7025251","2024-03-13 05:00","2024","03","13","05:00","","-1.0","","-4.5","","77","","","","9","","8","","24.1","","100.90","","","","-4","","NA"
"-73.74","45.47","MONTREAL INTL A","7025251","2024-03-13 06:00","2024","03","13","06:00","","-0.4","","-4.2","","76","","","","10","","5","","24.1","","100.92","","","","-2","","NA"
"-73.74","45.47","MONTREAL INTL A","7025251","2024-03-13 07:00","2024","03","13","07:00","","0.2","","-3.7","","75","","","","8","","12","","24.1","","100.90","","","","","","Mostly Cloudy"
"-73.74","45.47","MONTREAL INTL A","7025251","2024-03-13 08:00","2024","03","13","08:00","","1.0","","-3.6","","71","","","","7","","10","","24.1","","100.94","","","","","","NA"
"-73.74","45.47","MONTREAL INTL A","7025251","2024-03-13 09:00","2024","03","13","09:00","","2.3","","-3.4","","66","","","","7","","16","","24.1","","100.96","","","","","","NA"
"-73.74","45.47","MONTREAL INTL A","7025251","2024-03-13 10:00","2024","03","13","10:00","","2.9","","-2.8","","66","","","","4","","15","","24.1","","100.96","","","","","","Cloudy"
"-73.74","45.47","MONTREAL INTL A","7025251","2024-03-13 11:00","2024","03","13","11:00","","2.8","","-2.6","","68","","","","5","","18","","24.1","","100.94","","","","","","NA"
"-73.74","45.47","MONTREAL INTL A","7025251","2024-03-13 12:00","2024","03","13","12:00","","3.5","","-2.4","","65","","","","5","","21","","48.3","","100.89","","","","","","NA"
"-73.74","45.47","MONTREAL INTL A","7025251","2024-03-13 13:00","2024","03","13","13:00","","4.7","","-1.7","","63","","","","4","","17","","48.3","","100.82","","","","","","Cloudy"
"-73.74","45.47","MONTREAL INTL A","7025251","2024-03-13 14:00","2024","03","13","14:00","","5.2","","-1.4","","62","","","","3","","20","","48.3","","100.80","","","","","","NA"
"-73.74","45.47","MONTREAL INTL A","7025251","2024-03-13 15:00","2024","03","13","15:00","","6.3","","-1.1","","59","","","","4","","22","","48.3","","100.74","","","","","","NA"
"-73.74","45.47","MONTREAL INTL A","7025251","2024-03-13 16:00","2024","03","13","16:00","","6.5","","-1.1","","58","","","","5","","19","","48.3","","100.72","","","","","","Mostly Cloudy"
"-73.74","45.47","MONTREAL INTL A","7025251","2024-03-13 17:00","2024","03","13","17:00","","5.8","","-1.2","","61","","","","5","","24","","48.3","","100.74","","","","","","NA"
"-73.74","45.47","MONTREAL INTL A","7025251","2024-03-13 18:00","2024","03","13","18:00","","4.1","","-1.2","","68","","","","4","","21","","48.3","","100.81","","","","","","NA"
"-73.74","45.47","MONTREAL INTL A","7025251","2024-03-13 19:00","2024","03","13","19:00","","3.8","","-1.9","","66","","","","3","","16","","24.1","","100.88","","","","","","Mostly Cloudy"
"-73.74","45.47","MONTREAL INTL A","7025251","2024-03-13 20:00","2024","03","13","20:00","","2.9","","-2.2","","69","","","","1","","17","","24.1","","100.87","","","","","","NA"
"-73.74","45.47","MONTREAL INTL A","7025251","2024-03-13 21:00","2024","03","13","21:00","","2.4","","-2.2","","72","","","","3","","20","","24.1","","100.85","","","","","","NA"
"-73.74","45.47","MONTREAL INTL A","7025251","2024-03-13 22:00","2024","03","13","22:00","","2.3","","-2.2","","72","","","","1","","17","","24.1","","100.85","","","","","","Clear"
"-73.74","45.47","MONTREAL INTL A","7025251","2024-03-13 23:00","2024","03","13","23:00","","2.3","","-2.0","","73","","","","2","","20","","24.1","","100.87","","","","","","NA"
"-73.74","45.47","MONTREAL INTL A","7025251","2024-03-14 00:00","2024","03","14","00:00","","3.1","","-1.6","","71","","","","36","","15","","24.1","","100.90","","","","","","NA"
"-73.74","45.47","MONTREAL INTL A","7025251","2024-03-14 01:00","2024","03","14","01:00","","3.0","","-1.4","","73","","","","36","","14","","24.1","","100.93","","","","","","Mostly Cloudy"
"-73.74","45.47","MONTREAL INTL A","7025251","2024-03-14 02:00","2024","03","14","02:00","","2.8","","-1.4","","74","","","","36","","13","","24.1","","100.95","","","","","","NA"
"-73.74","45.47","MONTREAL INTL A","7025251","2024-03-14 03:00","2024","03","14","03:00","","2.1","","-1.8","","76","","","","36","","10","","24.1","","100.98","","","","","","NA"
"-73.74","45.47","MONTREAL INTL A","7025251","2024-03-14 04:00","2024","03","14","04:00","","0.4","","-2.6","","80","","","","25","","6","","24.1","","101.05","","","","","","Clear"
"-73.74","45.47","MONTREAL INTL A","7025251","2024-03-14 05:00","2024","03","14","05:00","","-0.1","","-2.6","","83","","","","25","","7","","24.1","","101.14","","","","-3","","NA"
"-73.74","45.47","MONTREAL INTL A","7025251","2024-03-14 06:00","2024","03","14","06:00","","-0.1","","-3.0","","81","","","","25","","7","","24.1","","101.23","","","","-3","","NA"
"-73.74","45.47","MONTREAL INTL A","7025251","2024-03-14 07:00","2024","03","14","07:00","","0.8","","-2.2","","80","","","","23","","5","","48.3","","101.27","","","","","","Mainly Clear"
"-73.74","45.47","MONTREAL INTL A","7025251","2024-03-14 08:00","2024","03","14","08:00","","3.6","","-1.2","","71","","","","21","","8","","48.3","","101.36","","","","","","NA"
"-73.74","45.47","MONTREAL INTL A","7025251","2024-03-14 09:00","2024","03","14","09:00","","5.2","","-0.8","","66","","","","21","","13","","48.3","","101.39","","","","","","NA"
"-73.74","45.47","MONTREAL INTL A","7025251","2024-03-14 10:00","2024","03","14","10:00","","5.8","","-0.1","","66","","","","20","","17","","48.3","","101.42","","","","","","Mainly Clear"
"-73.74","45.47","MONTREAL INTL A","7025251","2024-03-14 11:00","2024","03","14","11:00","","7.2","","0.2","","61","","","","21","","16","","48.3","","101.42","","","","","","NA"
"-73.74","45.47","MONTREAL INTL A","7025251","2024-03-14 12:00","2024","03","14","12:00","","8.6","","1.0","","58","","","","20","","18","","48.3","","101.37","","","","","","NA"
"-73.74","45.47","MONTREAL INTL A","7025251","2024-03-14 13:00","2024","03","14","13:00","","9.6","","1.4","","56","","","","20","","21","","48.3","","101.34","","","","","","Mostly Cloudy"
"-73.74","45.47","MONTREAL INTL A","7025251","2024-03-14 14:00","2024","03","14","14:00","","10.5","","0.0","","48","","","","21","","18","","48.3","","101.31","","","","","","NA"
"-73.74","45.47","MONTREAL INTL A","7025251","2024-03-14 15:00","2024","03","14","15:00","","11.2","","0.4","","47","","","","19","","14","","48.3","","101.28","","","","","","NA"
"-73.74","45.47","MONTREAL INTL A","7025251","2024-03-14 16:00","2024","03","14","16:00","","10.9","","1.0","","50","","","","19","","12","","48.3","","101.22","","","","","","Cloudy"
"-73.74","45.47","MONTREAL INTL A","7025251","2024-03-14 17:00","2024","03","14","17:00","","10.8","","0.5","","49","","","","16","","9","","24.1","","101.21","","","","","","NA"
"-73.74","45.47","MONTREAL INTL A","7025251","2024-03-14 18:00","2024","03","14","18:00","","10.5","","-0.1","","48","","","","15","","8","","24.1","","101.25","","","","","","NA"
"-73.74","45.47","MONTREAL INTL A","7025251","2024-03-14 19:00","2024","03","14","19:00","","9.7","","0.7","","53","","","","13","","10","","24.1","","101.25","","","","","","Cloudy"
"-73.74","45.47","MONTREAL INTL A","7025251","2024-03-14 20:00","2024","03","14","20:00","","9.4","","0.4","","53","","","","14","","8","","24.1","","101.19","","","","","","NA"
"-73.74","45.47","MONTREAL INTL A","7025251","2024-03-14 21:00","2024","03","14","21:00","","8.8","","0.7","","57","","","","12","","9","","24.1","","101.16","","","","","","NA"
"-73.74","45.47","MONTREAL INTL A","7025251","2024-03-14 22:00","2024","03","14","22:00","","8.4","","0.8","","59","","","","11","","9","","24.1","","101.04","","","","","","Cloudy"
"-73.74","45.47","MONTREAL INTL A","7025251","2024-03-14 23:00","2024","03","14","23:00","","8.2","","0.6","","58","","","","13","","7","","24.1","","100.97","","","","","","NA"
"-73.74","45.47","MONTREAL INTL A","7025251","2024-03-15 00:00","2024","03","15","00:00","","8.3","","-0.2","","55","","","","5","","7","","24.1","","100.91","","","","","","NA"
"-73.74","45.47","MONTREAL INTL A","7025251","2024-03-15 01:00","2024","03","15","01:00","","8.0","","0.5","","59","","","","11","","9","","24.1","","100.89","","","","","","Cloudy"
"-73.74","45.47","MONTREAL INTL A","7025251","2024-03-15 02:00","2024","03","15","02:00","","6.7","","1.9","","71","","","","9","","12","","24.1","","100.75","","","","","","NA"
"-73.74","45.47","MONTREAL INTL A","7025251","2024-03-15 03:00","2024","03","15","03:00","","6.0","","3.2","","82","","","","2","","8","","24.1","","100.73","","","","","","Rain Showers"
"-73.74","45.47","MONTREAL INTL A","7025251","2024-03-15 04:00","2024","03","15","04:00","","5.0","","3.2","","88","","","","3","","13","","24.1","","100.70","","","","","","Rain Showers"
"-73.74","45.47","MONTREAL INTL A","7025251","2024-03-15 05:00","2024","03","15","05:00","","4.7","","3.0","","89","","","","2","","18","","24.1","","100.69","","","","","","Rain Showers"
"-73.74","45.47","MONTREAL INTL A","7025251","2024-03-15 06:00","2024","03","15","06:00","","4.7","","3.1","","89","","","","2","","13","","24.1","","100.73","","","","","","Rain Showers"
"-73.74","45.47","MONTREAL INTL A","7025251","2024-03-15 07:00","2024","03","15","07:00","","4.2","","2.4","","88","","","","2","","21","","24.1","","100.74","","","","","","Cloudy"
"-73.74","45.47","MONTREAL INTL A","7025251","2024-03-15 08:00","2024","03","15","08:00","","4.2","","2.1","","86","","","","3","","17","","24.1","","100.70","","","","","","NA"
"-73.74","45.47","MONTREAL INTL A","7025251","2024-03-15 09:00","2024","03","15","09:00","","4.5","","1.8","","83","","","","3","","17","","24.1","","100.70","","","","","","NA"
"-73.74","45.47","MONTREAL INTL A","7025251","2024-03-15 10:00","2024","03","15","10:00","","5.8","","2.2","","77","","","","2","","23","","24.1","","100.68","","","","","","Cloudy"
"-73.74","45.47","MONTREAL INTL A","7025251","2024-03-15 11:00","2024","03","15","11:00","","7.7","","3.1","","73","","","","1","","17","","24.1","","100.66","","","","","","NA"
"-73.74","45.47","MONTREAL INTL A","7025251","2024-03-15 12:00","2024","03","15","12:00","","9.9","","2.8","","61","","","","2","","20","","24.1","","100.62","","","","","","NA"
"-73.74","45.47","MONTREAL INTL A","7025251","2024-03-15 13:00","2024","03","15","13:00","","10.2","","0.7","","52","","","","1","","18","","24.1","","100.58","","","","","","Mainly Clear"
"-73.74","45.47","MONTREAL INTL A","7025251","2024-03-15 14:00","2024","03","15","14:00","","11.0","","1.0","","50","","","","1","","17","","24.1","","100.53","","","","","","NA"
"-73.74","45.47","MONTREAL INTL A","7025251","2024-03-15 15:00","2024","03","15","15:00","","11.2","","-1.0","","43","","","","6","","11","","24.1","","100.46","","","","","","NA"
"-73.74","45.47","MONTREAL INTL A","7025251","2024-03-15 16:00","2024","03","15","16:00","","11.4","","-2.0","","39","","","","8","","6","","24.1","","100.45","","","","","","Mainly Clear"
"-73.74","45.47","MONTREAL INTL A","7025251","2024-03-15 17:00","2024","03","15","17:00","","10.5","","-1.4","","44","","","","13","","5","","48.3","","100.46","","","","","","NA"
"-73.74","45.47","MONTREAL INTL A","7025251","2024-03-15 18:00","2024","03","15","18:00","","8.9","","-1.1","","49","","","","19","","7","","24.1","","100.45","","","","","","NA"
"-73.74","45.47","MONTREAL INTL A","7025251","2024-03-15 19:00","2024","03","15","19:00","","8.7","","-1.1","","50","","","","22","","5","","24.1","","100.45","","","","","","Cloudy"
"-73.74","45.47","MONTREAL INTL A","7025251","2024-03-15 20:00","2024","03","15","20:00","","8.7","","-1.8","","48","","","","14","","10","","24.1","","100.43","","","","","","NA"
"-73.74","45.47","MONTREAL INTL A","7025251","2024-03-15 21:00","2024","03","15","21:00","","7.1","","-0.1","","60","","","","27","","20","","24.1","","100.46","","","","","","Rain"
"-73.74","45.47","MONTREAL INTL A","7025251","2024-03-15 22:00","2024","03","15","22:00","","6.4","","2.7","","77","","","","30","","10","","12.9","","100.46","","","","","","Rain"
"-73.74","45.47","MONTREAL INTL A","7025251","2024-03-15 23:00","2024","03","15","23:00","","6.1","","3.4","","83","","","","11","","5","","19.3","","100.39","","","","","","NA"
"-73.74","45.47","MONTREAL INTL A","7025251","2024-03-16 00:00","2024","03","16","00:00","","5.6","","4.0","","89","","","","30","","7","","16.1","","100.39","","","","","","NA"
"-73.74","45.47","MONTREAL INTL A","7025251","2024-03-16 01:00","2024","03","16","01:00","","5.4","","3.8","","90","","","","29","","4","","19.3","","100.36","","","","","","Cloudy"
"-73.74","45.47","MONTREAL INTL A","7025251","2024-03-16 02:00","2024","03","16","02:00","","4.7","","3.4","","91","","","","31","","16","","16.1","","100.37","","","","","","Rain"
"-73.74","45.47","MONTREAL INTL A","7025251","2024-03-16 03:00","2024","03","16","03:00","","3.0","","1.7","","91","","","","2","","25","","19.3","","100.40","","","","","","NA"
"-73.74","45.47","MONTREAL INTL A","7025251","2024-03-16 04:00","2024","03","16","04:00","","2.5","","1.1","","90","","","","1","","15","","19.3","","100.41","","","","","","Cloudy"
"-73.74","45.47","MONTREAL INTL A","7025251","2024-03-16 05:00","2024","03","16","05:00","","2.1","","0.8","","91","","","","2","","12","","24.1","","100.45","","","","","","NA"
"-73.74","45.47","MONTREAL INTL A","7025251","2024-03-16 06:00","2024","03","16","06:00","","2.4","","0.7","","88","","","","2","","13","","24.1","","100.44","","","","","","NA"
"-73.74","45.47","MONTREAL INTL A","7025251","2024-03-16 07:00","2024","03","16","07:00","","2.2","","0.1","","86","","","","2","","10","","24.1","","100.50","","","","","","Cloudy"
"-73.74","45.47","MONTREAL INTL A","7025251","2024-03-16 08:00","2024","03","16","08:00","","2.0","","0.1","","87","","","","2","","7","","9.7","","100.50","","","","","","Drizzle,Fog"
"-73.74","45.47","MONTREAL INTL A","7025251","2024-03-16 09:00","2024","03","16","09:00","","1.7","","0.5","","92","","","","5","","5","","4.0","","100.49","","","","","","Drizzle,Fog"
"-73.74","45.47","MONTREAL INTL A","7025251","2024-03-16 10:00","2024","03","16","10:00","","2.1","","1.0","","92","","","","","","0","","4.8","","100.48","","","","","","Drizzle,Fog"
"-73.74","45.47","MONTREAL INTL A","7025251","2024-03-16 11:00","2024","03","16","11:00","","2.5","","1.3","","92","","","","18","","4","","16.1","","100.46","","","","","","NA"
"-73.74","45.47","MONTREAL INTL A","7025251","2024-03-16 12:00","2024","03","16","12:00","","4.2","","2.3","","87","","","","21","","16","","24.1","","100.42","","","","","","NA"
"-73.74","45.47","MONTREAL INTL A","7025251","2024-03-16 13:00","2024","03","16","13:00","","5.1","","1.0","","75","","","","19","","14","","24.1","","100.34","","","","","","Cloudy"
"-73.74","45.47","MONTREAL INTL A","7025251","2024-03-16 14:00","2024","03","16","14:00","","5.0","","0.0","","70","","","","20","","14","","24.1","","100.27","","","","","","NA"
"-73.74","45.47","MONTREAL INTL A","7025251","2024-03-16 15:00","2024","03","16","15:00","","6.6","","-0.4","","61","","","","23","","14","","24.1","","100.24","","","","","","NA"
"-73.74","45.47","MONTREAL INTL A","7025251","2024-03-16 16:00","2024","03","16","16:00","","6.5","","-1.3","","57","","","","24","","19","","24.1","","100.19","","","","","","Cloudy"
"-73.74","45.47","MONTREAL INTL A","7025251","2024-03-16 17:00","2024","03","16","17:00","","6.1","","-1.5","","58","","","","21","","13","","24.1","","100.13","","","","","","NA"
"-73.74","45.47","MONTREAL INTL A","7025251","2024-03-16 18:00","2024","03","16","18:00","","5.6","","-0.6","","64","","","","22","","14","","24.1","","100.08","","","","","","NA"
"-73.74","45.47","MONTREAL INTL A","7025251","2024-03-16 19:00","2024","03","16","19:00","","5.0","","0.4","","72","","","","22","","9","","24.1","","100.08","","","","","","Cloudy"
"-73.74","45.47","MONTREAL INTL A","7025251","2024-03-16 20:00","2024","03","16","20:00","","5.1","","0.3","","71","","","","20","","10","","24.1","","100.06","","","","","","NA"
"-73.74","45.47","MONTREAL INTL A","7025251","2024-03-16 21:00","2024","03","16","21:00","","4.8","","0.9","","76","","","","14","","9","","19.3","","99.97","","","","","","Rain"
"-73.74","45.47","MONTREAL INTL A","7025251","2024-03-16 22:00","2024","03","16","22:00","","4.3","","1.2","","80","","","","16","","13","","12.9","","99.85","","","","","","Rain"
"-73.74","45.47","MONTREAL INTL A","7025251","2024-03-16 23:00","2024","03","16","23:00","","4.1","","1.8","","85","","","","15","","13","","24.1","","99.71","","","","","","NA"
"-73.74","45.47","MONTREAL INTL A","7025251","2024-03-17 00:00","2024","03","17","00:00","","4.1","","2.0","","86","","","","14","","19","","8.1","","99.59","","","","","","Rain,Fog"
"-73.74","45.47","MONTREAL INTL A","7025251","2024-03-17 01:00","2024","03","17","01:00","","4.1","","2.6","","90","","","","14","","22","","8.1","","99.52","","","","","","Rain,Fog"
"-73.74","45.47","MONTREAL INTL A","7025251","2024-03-17 02:00","2024","03","17","02:00","","3.9","","2.5","","91","","","","13","","14","","8.1","","99.36","","","","","","Rain,Fog"
"-73.74","45.47","MONTREAL INTL A","7025251","2024-03-17 03:00","2024","03","17","03:00","","4.0","","2.8","","92","","","","11","","8","","8.1","","99.16","","","","","","Rain,Fog"
"-73.74","45.47","MONTREAL INTL A","7025251","2024-03-17 04:00","2024","03","17","04:00","","4.4","","3.0","","91","","","","14","","14","","9.7","","99.06","","","","","","Rain,Fog"
"-73.74","45.47","MONTREAL INTL A","7025251","2024-03-17 05:00","2024","03","17","05:00","","3.9","","2.9","","93","","","","25","","12","","8.1","","99.11","","","","","","Rain,Fog"
"-73.74","45.47","MONTREAL INTL A","7025251","2024-03-17 06:00","2024","03","17","06:00","","4.0","","3.0","","93","","","","26","","14","","9.7","","99.12","","","","","","Rain,Fog"
"-73.74","45.47","MONTREAL INTL A","7025251","2024-03-17 07:00","2024","03","17","07:00","","3.9","","3.0","","93","","","","23","","17","","2.8","","99.14","","","","","","Drizzle,Fog"
"-73.74","45.47","MONTREAL INTL A","7025251","2024-03-17 08:00","2024","03","17","08:00","","5.2","","3.7","","90","","","","25","","18","","24.1","","99.18","","","","","","NA"
"-73.74","45.47","MONTREAL INTL A","7025251","2024-03-17 09:00","2024","03","17","09:00","","5.6","","3.8","","88","","","","27","","13","","24.1","","99.23","","","","","","NA"
"-73.74","45.47","MONTREAL INTL A","7025251","2024-03-17 10:00","2024","03","17","10:00","","5.2","","3.1","","87","","","","24","","24","","24.1","","99.27","","","","","","Cloudy"
"-73.74","45.47","MONTREAL INTL A","7025251","2024-03-17 11:00","2024","03","17","11:00","","5.4","","2.6","","82","","","","25","","27","","24.1","","99.25","","","","","","NA"
"-73.74","45.47","MONTREAL INTL A","7025251","2024-03-17 12:00","2024","03","17","12:00","","6.8","","1.3","","68","","","","26","","30","","24.1","","99.31","","","","","","NA"
"-73.74","45.47","MONTREAL INTL A","7025251","2024-03-17 13:00","2024","03","17","13:00","","8.2","","0.8","","60","","","","26","","22","","24.1","","99.34","","","","","","Mostly Cloudy"
"-73.74","45.47","MONTREAL INTL A","7025251","2024-03-17 14:00","2024","03","17","14:00","","5.5","","2.0","","78","","","","22","","29","","24.1","","99.38","","","","","","Rain Showers"
"-73.74","45.47","MONTREAL INTL A","7025251","2024-03-17 15:00","2024","03","17","15:00","","5.5","","2.9","","83","","","","22","","22","","24.1","","99.37","","","","","","NA"
"-73.74","45.47","MONTREAL INTL A","7025251","2024-03-17 16:00","2024","03","17","16:00","","6.3","","2.2","","75","","","","23","","25","","9.7","","99.35","","","","","","Rain Showers,Fog"
"-73.74","45.47","MONTREAL INTL A","7025251","2024-03-17 17:00","2024","03","17","17:00","","4.7","","1.8","","81","","","","25","","23","","24.1","","99.46","","","","","","NA"
"-73.74","45.47","MONTREAL INTL A","7025251","2024-03-17 18:00","2024","03","17","18:00","","4.5","","1.3","","80","","","","24","","18","","24.1","","99.55","","","","","","NA"
"-73.74","45.47","MONTREAL INTL A","7025251","2024-03-17 19:00","2024","03","17","19:00","","3.6","","1.0","","83","","","","22","","30","","24.1","","99.63","","","","","","Mostly Cloudy"
"-73.74","45.47","MONTREAL INTL A","7025251","2024-03-17 20:00","2024","03","17","20:00","","3.2","","1.1","","86","","","","23","","22","","24.1","","99.67","","","","","","NA"
"-73.74","45.47","MONTREAL INTL A","7025251","2024-03-17 21:00","2024","03","17","21:00","","3.5","","0.8","","83","","","","28","","18","","24.1","","99.69","","","","","","NA"
"-73.74","45.47","MONTREAL INTL A","7025251","2024-03-17 22:00","2024","03","17","22:00","","2.8","","0.6","","85","","","","24","","17","","24.1","","99.62","","","","","","Mostly Cloudy"
"-73.74","45.47","MONTREAL INTL A","7025251","2024-03-17 23:00","2024","03","17","23:00","","2.7","","0.3","","84","","","","25","","23","","24.1","","99.61","","","","","","NA"
"-73.74","45.47","MONTREAL INTL A","7025251","2024-03-18 00:00","2024","03","18","00:00","","2.1","","-1.6","","76","","","","24","","27","","24.1","","99.63","","","","","","NA"
"-73.74","45.47","MONTREAL INTL A","7025251","2024-03-18 01:00","2024","03","18","01:00","","1.6","","-3.1","","71","","","","24","","31","","24.1","","99.65","","","","","","Clear"
"-73.74","45.47","MONTREAL INTL A","7025251","2024-03-18 02:00","2024","03","18","02:00","","1.4","","-3.4","","71","","","","25","","27","","24.1","","99.64","","","","","","NA"
"-73.74","45.47","MONTREAL INTL A","7025251","2024-03-18 03:00","2024","03","18","03:00","","1.1","","-3.5","","72","","","","24","","26","","24.1","","99.64","","","","","","NA"
"-73.74","45.47","MONTREAL INTL A","7025251","2024-03-18 04:00","2024","03","18","04:00","","0.8","","-3.2","","75","","","","24","","21","","24.1","","99.66","","","","","","Mostly Cloudy"
"-73.74","45.47","MONTREAL INTL A","7025251","2024-03-18 05:00","2024","03","18","05:00","","0.7","","-3.7","","72","","","","25","","25","","24.1","","99.68","","","","","","NA"
"-73.74","45.47","MONTREAL INTL A","7025251","2024-03-18 06:00","2024","03","18","06:00","","0.3","","-3.4","","76","","","","25","","28","","24.1","","99.71","","","","","","NA"
"-73.74","45.47","MONTREAL INTL A","7025251","2024-03-18 07:00","2024","03","18","07:00","","-0.1","","-2.3","","85","","","","24","","27","","12.9","","99.73","","","","-6","","Snow Showers"
"-73.74","45.47","MONTREAL INTL A","7025251","2024-03-18 08:00","2024","03","18","08:00","","0.2","","-2.3","","83","","","","25","","31","","24.1","","99.74","","","","","","Snow Showers"
"-73.74","45.47","MONTREAL INTL A","7025251","2024-03-18 09:00","2024","03","18","09:00","","1.2","","-1.8","","81","","","","25","","31","","24.1","","99.75","","","","","","Snow Showers"
"-73.74","45.47","MONTREAL INTL A","7025251","2024-03-18 10:00","2024","03","18","10:00","","1.9","","-1.6","","78","","","","25","","25","","16.1","","99.73","","","","","","Snow Showers"
"-73.74","45.47","MONTREAL INTL A","7025251","2024-03-18 11:00","2024","03","18","11:00","","2.5","","-1.6","","75","","","","26","","30","","24.1","","99.71","","","","","","NA"
"-73.74","45.47","MONTREAL INTL A","7025251","2024-03-18 12:00","2024","03","18","12:00","","3.0","","-1.0","","75","","","","24","","28","","24.1","","99.71","","","","","","NA"
"-73.74","45.47","MONTREAL INTL A","7025251","2024-03-18 13:00","2024","03","18","13:00","","2.6","","-0.3","","81","","","","24","","26","","19.3","","99.71","","","","","","Snow Showers"
"-73.74","45.47","MONTREAL INTL A","7025251","2024-03-18 14:00","2024","03","18","14:00","","3.0","","0.8","","85","","","","25","","30","","24.1","","99.68","","","","","","Rain Showers,Snow Showers"
"-73.74","45.47","MONTREAL INTL A","7025251","2024-03-18 15:00","2024","03","18","15:00","","3.1","","-0.5","","77","","","","26","","30","","24.1","","99.68","","","","","","Rain Showers"
"-73.74","45.47","MONTREAL INTL A","7025251","2024-03-18 16:00","2024","03","18","16:00","","2.4","","-1.0","","78","","","","24","","30","","3.6","","99.69","","","","","","Snow Showers,Fog"
"-73.74","45.47","MONTREAL INTL A","7025251","2024-03-18 17:00","2024","03","18","17:00","","1.6","","0.0","","89","","","","24","","21","","9.7","","99.70","","","","","","Snow Showers,Fog"
"-73.74","45.47","MONTREAL INTL A","7025251","2024-03-18 18:00","2024","03","18","18:00","","1.0","","-0.2","","92","","","","25","","23","","6.4","","99.72","","","","","","Snow,Fog"
"-73.74","45.47","MONTREAL INTL A","7025251","2024-03-18 19:00","2024","03","18","19:00","","1.2","","0.2","","93","","","","27","","18","","9.7","","99.76","","","","","","Rain,Fog"
"-73.74","45.47","MONTREAL INTL A","7025251","2024-03-18 20:00","2024","03","18","20:00","","1.0","","0.0","","93","","","","28","","17","","6.4","","99.81","","","","","","Rain,Snow"
"-73.74","45.47","MONTREAL INTL A","7025251","2024-03-18 21:00","2024","03","18","21:00","","0.8","","-0.4","","91","","","","28","","19","","24.1","","99.83","","","","","","Rain,Snow"
"-73.74","45.47","MONTREAL INTL A","7025251","2024-03-18 22:00","2024","03","18","22:00","","0.7","","-1.2","","87","","","","28","","20","","24.1","","99.86","","","","","","Mostly Cloudy"
"-73.74","45.47","MONTREAL INTL A","7025251","2024-03-18 23:00","2024","03","18","23:00","","0.2","","-4.0","","73","","","","30","","24","","24.1","","99.85","","","","","","NA"
"-73.74","45.47","MONTREAL INTL A","7025251","2024-03-19 00:00","2024","03","19","00:00","","-0.6","","-4.1","","77","","","","28","","21","","24.1","","99.88","","","","-6","","Snow Showers"
"-73.74","45.47","MONTREAL INTL A","7025251","2024-03-19 01:00","2024","03","19","01:00","","-1.0","","-5.2","","73","","","","28","","23","","24.1","","99.93","","","","-7","","Cloudy"
"-73.74","45.47","MONTREAL INTL A","7025251","2024-03-19 02:00","2024","03","19","02:00","","-1.3","","-6.0","","70","","","","29","","19","","24.1","","99.95","","","","-7","","NA"
"-73.74","45.47","MONTREAL INTL A","7025251","2024-03-19 03:00","2024","03","19","03:00","","-2.1","","-7.0","","69","","","","27","","27","","24.1","","99.96","","","","-9","","NA"
"-73.74","45.47","MONTREAL INTL A","7025251","2024-03-19 04:00","2024","03","19","04:00","","-2.9","","-7.2","","72","","","","27","","19","","24.1","","99.99","","","","-9","","Cloudy"
"-73.74","45.47","MONTREAL INTL A","7025251","2024-03-19 05:00","2024","03","19","05:00","","-3.5","","-8.3","","70","","","","29","","26","","24.1","","99.99","","","","-11","","NA"
"-73.74","45.47","MONTREAL INTL A","7025251","2024-03-19 06:00","2024","03","19","06:00","","-3.8","","-8.7","","69","","","","27","","25","","24.1","","100.04","","","","-11","","Snow Showers"
"-73.74","45.47","MONTREAL INTL A","7025251","2024-03-19 07:00","2024","03","19","07:00","","-4.0","","-9.2","","67","","","","29","","18","","24.1","","100.06","","","","-10","","Snow Showers"
"-73.74","45.47","MONTREAL INTL A","7025251","2024-03-19 08:00","2024","03","19","08:00","","-3.9","","-7.5","","76","","","","28","","25","","16.1","","100.06","","","","-11","","Snow Showers"
"-73.74","45.47","MONTREAL INTL A","7025251","2024-03-19 09:00","2024","03","19","09:00","","-3.0","","-8.9","","64","","","","26","","23","","16.1","","100.06","","","","-9","","Snow Showers"
"-73.74","45.47","MONTREAL INTL A","7025251","2024-03-19 10:00","2024","03","19","10:00","","-2.2","","-9.0","","60","","","","27","","26","","24.1","","100.06","","","","-9","","Cloudy"
"-73.74","45.47","MONTREAL INTL A","7025251","2024-03-19 11:00","2024","03","19","11:00","","-1.7","","-8.6","","60","","","","26","","19","","24.1","","100.02","","","","-7","","NA"
"-73.74","45.47","MONTREAL INTL A","7025251","2024-03-19 12:00","2024","03","19","12:00","","-0.9","","-8.6","","56","","","","25","","22","","24.1","","99.97","","","","-7","","NA"
"-73.74","45.47","MONTREAL INTL A","7025251","2024-03-19 13:00","2024","03","19","13:00","","-0.3","","-8.5","","54","","","","28","","21","","24.1","","99.90","","","","-6","","Cloudy"
"-73.74","45.47","MONTREAL INTL A","7025251","2024-03-19 14:00","2024","03","19","14:00","","0.2","","-7.5","","57","","","","26","","18","","24.1","","99.83","","","","","","NA"
"-73.74","45.47","MONTREAL INTL A","7025251","2024-03-19 15:00","2024","03","19","15:00","","0.2","","-7.1","","58","","","","26","","23","","24.1","","99.80","","","","","","NA"
"-73.74","45.47","MONTREAL INTL A","7025251","2024-03-19 16:00","2024","03","19","16:00","","0.8","","-6.0","","60","","","","24","","17","","24.1","","99.77","","","","","","Cloudy"
"-73.74","45.47","MONTREAL INTL A","7025251","2024-03-19 17:00","2024","03","19","17:00","","0.2","","-6.0","","63","","","","21","","16","","24.1","","99.76","","","","","","NA"
"-73.74","45.47","MONTREAL INTL A","7025251","2024-03-19 18:00","2024","03","19","18:00","","0.3","","-5.9","","63","","","","22","","9","","24.1","","99.77","","","","","","NA"
"-73.74","45.47","MONTREAL INTL A","7025251","2024-03-19 19:00","2024","03","19","19:00","","0.2","","-4.9","","68","","","","22","","8","","24.1","","99.78","","","","","","Cloudy"
"-73.74","45.47","MONTREAL INTL A","7025251","2024-03-19 20:00","2024","03","19","20:00","","-0.4","","-3.0","","82","","","","17","","17","","12.9","","99.77","","","","-5","","Snow Showers"
"-73.74","45.47","MONTREAL INTL A","7025251","2024-03-19 21:00","2024","03","19","21:00","","-0.4","","-1.9","","89","","","","16","","19","","4.0","","99.74","","","","-6","","Snow Showers"
"-73.74","45.47","MONTREAL INTL A","7025251","2024-03-19 22:00","2024","03","19","22:00","","-0.8","","-2.0","","92","","","","12","","12","","4.8","","99.69","","","","-5","","Snow"
"-73.74","45.47","MONTREAL INTL A","7025251","2024-03-19 23:00","2024","03","19","23:00","","-0.7","","-1.8","","92","","","","16","","17","","6.4","","99.64","","","","-6","","Snow"
"-73.74","45.47","MONTREAL INTL A","7025251","2024-03-20 00:00","2024","03","20","00:00","","-0.4","","-1.4","","93","","","","16","","19","","12.9","","99.58","","","","-6","","Snow"
"-73.74","45.47","MONTREAL INTL A","7025251","2024-03-20 01:00","2024","03","20","01:00","","-0.2","","-1.3","","93","","","","16","","13","","24.1","","99.55","","","","-4","","Snow"
"-73.74","45.47","MONTREAL INTL A","7025251","2024-03-20 02:00","2024","03","20","02:00","","0.0","","-1.1","","92","","","","18","","17","","24.1","","99.50","","","","-5","","NA"
"-73.74","45.47","MONTREAL INTL A","7025251","2024-03-20 03:00","2024","03","20","03:00","","0.2","","-1.1","","91","","","","19","","25","","16.1","","99.46","","","","","","Snow"
"-73.74","45.47","MONTREAL INTL A","7025251","2024-03-20 04:00","2024","03","20","04:00","","0.0","","-1.3","","90","","","","21","","27","","16.1","","99.46","","","","-6","","Snow"
"-73.74","45.47","MONTREAL INTL A","7025251","2024-03-20 05:00","2024","03","20","05:00","","-0.1","","-2.1","","86","","","","21","","20","","19.3","","99.46","","","","-5","","Snow"
"-73.74","45.47","MONTREAL INTL A","7025251","2024-03-20 06:00","2024","03","20","06:00","","0.7","","-1.8","","83","","","","19","","20","","19.3","","99.46","","","","","","Snow"
"-73.74","45.47","MONTREAL INTL A","7025251","2024-03-20 07:00","2024","03","20","07:00","","0.4","","-2.0","","84","","","","18","","17","","3.2","","99.45","","","","","","Snow"
"-73.74","45.47","MONTREAL INTL A","7025251","2024-03-20 08:00","2024","03","20","08:00","","1.3","","-1.8","","80","","","","22","","25","","24.1","","99.45","","","","","","Snow"
"-73.74","45.47","MONTREAL INTL A","7025251","2024-03-20 09:00","2024","03","20","09:00","","2.3","","-3.1","","68","","","","23","","28","","24.1","","99.48","","","","","","NA"
"-73.74","45.47","MONTREAL INTL A","7025251","2024-03-20 10:00","2024","03","20","10:00","","2.6","","-3.7","","63","","","","23","","23","","24.1","","99.47","","","","","","Mostly Cloudy"
"-73.74","45.47","MONTREAL INTL A","7025251","2024-03-20 11:00","2024","03","20","11:00","","2.0","","-2.3","","73","","","","20","","29","","19.3","","99.47","","","","","","Snow"
"-73.74","45.47","MONTREAL INTL A","7025251","2024-03-20 12:00","2024","03","20","12:00","","0.8","","-2.6","","78","","","","25","","16","","16.1","","99.50","","","","","","Snow"
"-73.74","45.47","MONTREAL INTL A","7025251","2024-03-20 13:00","2024","03","20","13:00","","2.8","","-2.6","","68","","","","22","","17","","24.1","","99.46","","","","","","Mostly Cloudy"
"-73.74","45.47","MONTREAL INTL A","7025251","2024-03-20 14:00","2024","03","20","14:00","","4.1","","-4.8","","52","","","","20","","28","","24.1","","99.43","","","","","","NA"
"-73.74","45.47","MONTREAL INTL A","7025251","2024-03-20 15:00","2024","03","20","15:00","","3.4","","-4.7","","55","","","","22","","26","","24.1","","99.47","","","","","","NA"
"-73.74","45.47","MONTREAL INTL A","7025251","2024-03-20 16:00","2024","03","20","16:00","","3.5","","-5.3","","53","","","","23","","26","","24.1","","99.52","","","","","","Cloudy"
"-73.74","45.47","MONTREAL INTL A","7025251","2024-03-20 17:00","2024","03","20","17:00","","1.4","","-4.9","","63","","","","28","","21","","16.1","","99.63","","","","","","Snow Showers"
"-73.74","45.47","MONTREAL INTL A","7025251","2024-03-20 18:00","2024","03","20","18:00","","-0.2","","-2.3","","86","","","","26","","13","","19.3","","99.72","","","","-4","","NA"
"-73.74","45.47","MONTREAL INTL A","7025251","2024-03-20 19:00","2024","03","20","19:00","","-0.1","","-3.6","","77","","","","27","","10","","24.1","","99.81","","","","-3","","Cloudy"
"-73.74","45.47","MONTREAL INTL A","7025251","2024-03-20 20:00","2024","03","20","20:00","","0.0","","-5.0","","69","","","","28","","14","","24.1","","99.89","","","","-4","","NA"
"-73.74","45.47","MONTREAL INTL A","7025251","2024-03-20 21:00","2024","03","20","21:00","","-0.6","","-8.4","","55","","","","28","","18","","24.1","","99.98","","","","-6","","NA"
"-73.74","45.47","MONTREAL INTL A","7025251","2024-03-20 22:00","2024","03","20","22:00","","-1.9","","-10.7","","51","","","","29","","25","","24.1","","100.08","","","","-8","","Mainly Clear"
"-73.74","45.47","MONTREAL INTL A","7025251","2024-03-20 23:00","2024","03","20","23:00","","-2.8","","-10.9","","54","","","","27","","21","","24.1","","100.15","","","","-9","","NA"
"-73.74","45.47","MONTREAL INTL A","7025251","2024-03-21 00:00","2024","03","21","00:00","","-4.2","","-12.6","","52","","","","28","","30","","24.1","","100.23","","","","-12","","NA"
"-73.74","45.47","MONTREAL INTL A","7025251","2024-03-21 01:00","2024","03","21","01:00","","-4.5","","-11.5","","59","","","","26","","31","","24.1","","100.29","","","","-12","","Snow Showers"
"-73.74","45.47","MONTREAL INTL A","7025251","2024-03-21 02:00","2024","03","21","02:00","","-5.0","","-11.1","","62","","","","27","","35","","24.1","","100.37","","","","-14","","Snow Showers"
"-73.74","45.47","MONTREAL INTL A","7025251","2024-03-21 03:00","2024","03","21","03:00","","-5.7","","-12.2","","60","","","","27","","31","","24.1","","100.45","","","","-14","","Snow Showers"
"-73.74","45.47","MONTREAL INTL A","7025251","2024-03-21 04:00","2024","03","21","04:00","","-6.6","","-13.8","","57","","","","29","","35","","24.1","","100.55","","","","-16","","Mostly Cloudy"
"-73.74","45.47","MONTREAL INTL A","7025251","2024-03-21 05:00","2024","03","21","05:00","","-7.4","","-14.7","","56","","","","30","","33","","24.1","","100.64","","","","-17","","Snow Showers"
"-73.74","45.47","MONTREAL INTL A","7025251","2024-03-21 06:00","2024","03","21","06:00","","-8.3","","-15.8","","55","","","","30","","35","","24.1","","100.73","","","","-18","","NA"
"-73.74","45.47","MONTREAL INTL A","7025251","2024-03-21 07:00","2024","03","21","07:00","","-8.5","","-17.0","","51","","","","31","","30","","24.1","","100.90","","","","-18","","Mostly Cloudy"
"-73.74","45.47","MONTREAL INTL A","7025251","2024-03-21 08:00","2024","03","21","08:00","","-8.9","","-16.3","","55","","","","29","","33","","24.1","","101.01","","","","-18","","NA"
"-73.74","45.47","MONTREAL INTL A","7025251","2024-03-21 09:00","2024","03","21","09:00","","-8.6","","-16.4","","54","","","","29","","38","","24.1","","101.06","","","","-19","","NA"
"-73.74","45.47","MONTREAL INTL A","7025251","2024-03-21 10:00","2024","03","21","10:00","","-8.4","","-16.9","","51","","","","28","","42","","24.1","","101.11","","","","-19","","Cloudy"
"-73.74","45.47","MONTREAL INTL A","7025251","2024-03-21 11:00","2024","03","21","11:00","","-6.7","","-14.7","","53","","","","26","","36","","24.1","","101.11","","","","-16","","NA"
"-73.74","45.47","MONTREAL INTL A","7025251","2024-03-21 12:00","2024","03","21","12:00","","-6.0","","-14.7","","51","","","","27","","47","","24.1","","101.12","","","","-16","","NA"
"-73.74","45.47","MONTREAL INTL A","7025251","2024-03-21 13:00","2024","03","21","13:00","","-5.3","","-14.5","","49","","","","27","","47","","24.1","","101.16","","","","-15","","Mostly Cloudy"
"-73.74","45.47","MONTREAL INTL A","7025251","2024-03-21 14:00","2024","03","21","14:00","","-4.8","","-14.3","","48","","","","26","","40","","24.1","","101.21","","","","-14","","NA"
"-73.74","45.47","MONTREAL INTL A","7025251","2024-03-21 15:00","2024","03","21","15:00","","-4.1","","-14.8","","43","","","","27","","41","","24.1","","101.23","","","","-13","","NA"
"-73.74","45.47","MONTREAL INTL A","7025251","2024-03-21 16:00","2024","03","21","16:00","","-3.7","","-15.0","","41","","","","26","","40","","24.1","","101.27","","","","-12","","Mostly Cloudy"
"-73.74","45.47","MONTREAL INTL A","7025251","2024-03-21 17:00","2024","03","21","17:00","","-3.5","","-15.8","","39","","","","29","","41","","48.3","","101.36","","","","-12","","NA"
"-73.74","45.47","MONTREAL INTL A","7025251","2024-03-21 18:00","2024","03","21","18:00","","-3.9","","-16.2","","38","","","","27","","33","","24.1","","101.47","","","","-12","","NA"
"-73.74","45.47","MONTREAL INTL A","7025251","2024-03-21 19:00","2024","03","21","19:00","","-4.5","","-16.4","","40","","","","28","","36","","24.1","","101.58","","","","-13","","Mainly Clear"
"-73.74","45.47","MONTREAL INTL A","7025251","2024-03-21 20:00","2024","03","21","20:00","","-5.1","","-16.3","","42","","","","30","","27","","24.1","","101.70","","","","-13","","NA"
"-73.74","45.47","MONTREAL INTL A","7025251","2024-03-21 21:00","2024","03","21","21:00","","-6.1","","-16.6","","44","","","","31","","28","","24.1","","101.83","","","","-14","","NA"
"-73.74","45.47","MONTREAL INTL A","7025251","2024-03-21 22:00","2024","03","21","22:00","","-7.3","","-17.4","","45","","","","30","","31","","24.1","","101.91","","","","-16","","Clear"
"-73.74","45.47","MONTREAL INTL A","7025251","2024-03-21 23:00","2024","03","21","23:00","","-8.3","","-18.5","","44","","","","30","","31","","24.1","","102.01","","","","-17","","NA"
"-73.74","45.47","MONTREAL INTL A","7025251","2024-03-22 00:00","2024","03","22","00:00","","-8.7","","-18.3","","46","","","","29","","33","","24.1","","102.10","","","","-18","","NA"
"-73.74","45.47","MONTREAL INTL A","7025251","2024-03-22 01:00","2024","03","22","01:00","","-9.2","","-18.6","","47","","","","29","","32","","24.1","","102.22","","","","-19","","Clear"
"-73.74","45.47","MONTREAL INTL A","7025251","2024-03-22 02:00","2024","03","22","02:00","","-9.6","","-18.9","","47","","","","29","","25","","24.1","","102.28","","","","-18","","NA"
"-73.74","45.47","MONTREAL INTL A","7025251","2024-03-22 03:00","2024","03","22","03:00","","-9.9","","-19.0","","48","","","","29","","18","","24.1","","102.35","","","","-17","","NA"
"-73.74","45.47","MONTREAL INTL A","7025251","2024-03-22 04:00","2024","03","22","04:00","","-10.4","","-19.1","","50","","","","30","","16","","24.1","","102.40","","","","-17","","Clear"
"-73.74","45.47","MONTREAL INTL A","7025251","2024-03-22 05:00","2024","03","22","05:00","","-10.8","","-18.9","","52","","","","29","","19","","24.1","","102.50","","","","-19","","NA"
"-73.74","45.47","MONTREAL INTL A","7025251","2024-03-22 06:00","2024","03","22","06:00","","-11.1","","-18.7","","54","","","","30","","14","","48.3","","102.55","","","","-18","","NA"
"-73.74","45.47","MONTREAL INTL A","7025251","2024-03-22 07:00","2024","03","22","07:00","","-10.5","","-19.3","","49","","","","28","","15","","48.3","","102.63","","","","-17","","Clear"
"-73.74","45.47","MONTREAL INTL A","7025251","2024-03-22 08:00","2024","03","22","08:00","","-10.0","","-20.1","","44","","","","29","","12","","48.3","","102.63","","","","-16","","NA"
"-73.74","45.47","MONTREAL INTL A","7025251","2024-03-22 09:00","2024","03","22","09:00","","-9.2","","-20.0","","42","","","","29","","16","","48.3","","102.58","","","","-16","","NA"
"-73.74","45.47","MONTREAL INTL A","7025251","2024-03-22 10:00","2024","03","22","10:00","","-7.8","","-18.8","","41","","","","29","","12","","48.3","","102.56","","","","-13","","Mostly Cloudy"
"-73.74","45.47","MONTREAL INTL A","7025251","2024-03-22 11:00","2024","03","22","11:00","","-6.9","","-18.2","","40","","","","26","","22","","24.1","","102.56","","","","-14","","NA"
"-73.74","45.47","MONTREAL INTL A","7025251","2024-03-22 12:00","2024","03","22","12:00","","-5.8","","-18.9","","35","","","","29","","21","","24.1","","102.49","","","","-13","","NA"
"-73.74","45.47","MONTREAL INTL A","7025251","2024-03-22 13:00","2024","03","22","13:00","","-5.5","","-19.1","","34","","","","27","","11","","24.1","","102.42","","","","-10","","Cloudy"
"-73.74","45.47","MONTREAL INTL A","7025251","2024-03-22 14:00","2024","03","22","14:00","","-4.0","","-17.7","","34","","","","28","","18","","48.3","","102.36","","","","-10","","NA"
"-73.74","45.47","MONTREAL INTL A","7025251","2024-03-22 15:00","2024","03","22","15:00","","-4.2","","-18.7","","32","","","","28","","21","","24.1","","102.33","","","","-11","","NA"
"-73.74","45.47","MONTREAL INTL A","7025251","2024-03-22 16:00","2024","03","22","16:00","","-3.5","","-17.3","","34","","","","27","","17","","48.3","","102.33","","","","-9","","Cloudy"
"-73.74","45.47","MONTREAL INTL A","7025251","2024-03-22 17:00","2024","03","22","17:00","","-3.8","","-16.9","","36","","","","24","","13","","24.1","","102.30","","","","-9","","NA"
"-73.74","45.47","MONTREAL INTL A","7025251","2024-03-22 18:00","2024","03","22","18:00","","-4.2","","-16.9","","37","","","","24","","16","","24.1","","102.30","","","","-10","","NA"
"-73.74","45.47","MONTREAL INTL A","7025251","2024-03-22 19:00","2024","03","22","19:00","","-4.0","","-17.2","","36","","","","25","","11","","24.1","","102.29","","","","-8","","Cloudy"
"-73.74","45.47","MONTREAL INTL A","7025251","2024-03-22 20:00","2024","03","22","20:00","","-4.0","","-16.9","","36","","","","25","","11","","24.1","","102.32","","","","-8","","NA"
"-73.74","45.47","MONTREAL INTL A","7025251","2024-03-22 21:00","2024","03","22","21:00","","-3.7","","-15.5","","40","","","","27","","6","","24.1","","102.31","","","","-6","","NA"
"-73.74","45.47","MONTREAL INTL A","7025251","2024-03-22 22:00","2024","03","22","22:00","","-4.1","","-15.2","","42","","","","35","","5","","24.1","","102.24","","","","-6","","Cloudy"
"-73.74","45.47","MONTREAL INTL A","7025251","2024-03-22 23:00","2024","03","22","23:00","","-4.1","","-16.4","","38","","","","36","","8","","24.1","","102.19","","","","-8","","NA"
"-73.74","45.47","MONTREAL INTL A","7025251","2024-03-23 00:00","2024","03","23","00:00","","-4.2","","-15.6","","41","","","","6","","5","","24.1","","102.16","","","","-6","","NA"
"-73.74","45.47","MONTREAL INTL A","7025251","2024-03-23 01:00","2024","03","23","01:00","","-4.1","","-15.4","","41","","","","9","","10","","24.1","","102.15","","","","-8","","Cloudy"
"-73.74","45.47","MONTREAL INTL A","7025251","2024-03-23 02:00","2024","03","23","02:00","","-5.0","","-11.8","","59","","","","7","","14","","19.3","","102.06","","","","-10","","Snow"
"-73.74","45.47","MONTREAL INTL A","7025251","2024-03-23 03:00","2024","03","23","03:00","","-5.9","","-9.7","","75","","","","8","","16","","3.6","","102.02","","","","-12","","Snow"
"-73.74","45.47","MONTREAL INTL A","7025251","2024-03-23 04:00","2024","03","23","04:00","","-6.1","","-8.5","","83","","","","5","","16","","4.8","","101.92","","","","-12","","Snow"
"-73.74","45.47","MONTREAL INTL A","7025251","2024-03-23 05:00","2024","03","23","05:00","","-6.1","","-8.7","","82","","","","4","","23","","4.0","","101.86","","","","-13","","Snow,Blowing Snow"
"-73.74","45.47","MONTREAL INTL A","7025251","2024-03-23 06:00","2024","03","23","06:00","","-6.3","","-8.6","","84","","","","5","","21","","1.2","","101.90","","","","-13","","Snow,Blowing Snow"
"-73.74","45.47","MONTREAL INTL A","7025251","2024-03-23 07:00","2024","03","23","07:00","","-6.3","","-8.3","","86","","","","4","","24","","1.6","","101.85","","","","-14","","Snow,Blowing Snow"
"-73.74","45.47","MONTREAL INTL A","7025251","2024-03-23 08:00","2024","03","23","08:00","","-6.2","","-8.2","","86","","","","4","","24","","1.0","","101.78","","","","-14","","Snow,Blowing Snow"
"-73.74","45.47","MONTREAL INTL A","7025251","2024-03-23 09:00","2024","03","23","09:00","","-5.9","","-8.0","","86","","","","3","","26","","1.6","","101.77","","","","-14","","Snow,Blowing Snow"
"-73.74","45.47","MONTREAL INTL A","7025251","2024-03-23 10:00","2024","03","23","10:00","","-6.0","","-8.5","","83","","","","4","","33","","12.9","","101.73","","","","-15","","Snow,Blowing Snow"
"-73.74","45.47","MONTREAL INTL A","7025251","2024-03-23 11:00","2024","03","23","11:00","","-5.8","","-8.7","","80","","","","2","","25","","24.1","","101.70","","","","-13","","Snow,Blowing Snow"
"-73.74","45.47","MONTREAL INTL A","7025251","2024-03-23 12:00","2024","03","23","12:00","","-6.4","","-10.0","","76","","","","3","","34","","24.1","","101.63","","","","-15","","Snow,Blowing Snow"
"-73.74","45.47","MONTREAL INTL A","7025251","2024-03-23 13:00","2024","03","23","13:00","","-6.0","","-9.5","","77","","","","2","","25","","24.1","","101.55","","","","-14","","Snow,Blowing Snow"
"-73.74","45.47","MONTREAL INTL A","7025251","2024-03-23 14:00","2024","03","23","14:00","","-6.3","","-9.3","","80","","","","2","","20","","24.1","","101.54","","","","-13","","Snow,Blowing Snow"
"-73.74","45.47","MONTREAL INTL A","7025251","2024-03-23 15:00","2024","03","23","15:00","","-6.3","","-9.4","","79","","","","1","","26","","16.1","","101.53","","","","-14","","Snow,Blowing Snow"
"-73.74","45.47","MONTREAL INTL A","7025251","2024-03-23 16:00","2024","03","23","16:00","","-6.4","","-9.8","","77","","","","1","","31","","24.1","","101.49","","","","-15","","Snow,Blowing Snow"
"-73.74","45.47","MONTREAL INTL A","7025251","2024-03-23 17:00","2024","03","23","17:00","","-6.0","","-9.4","","77","","","","2","","24","","24.1","","101.49","","","","-13","","Snow,Blowing Snow"
"-73.74","45.47","MONTREAL INTL A","7025251","2024-03-23 18:00","2024","03","23","18:00","","-5.9","","-9.9","","74","","","","36","","23","","24.1","","101.51","","","","-13","","NA"
"-73.74","45.47","MONTREAL INTL A","7025251","2024-03-23 19:00","2024","03","23","19:00","","-6.1","","-10.3","","73","","","","2","","16","","24.1","","101.49","","","","-12","","Mostly Cloudy"
"-73.74","45.47","MONTREAL INTL A","7025251","2024-03-23 20:00","2024","03","23","20:00","","-6.5","","-10.5","","74","","","","1","","15","","24.1","","101.48","","","","-12","","NA"
"-73.74","45.47","MONTREAL INTL A","7025251","2024-03-23 21:00","2024","03","23","21:00","","-7.3","","-10.8","","76","","","","2","","13","","24.1","","101.51","","","","-13","","NA"
"-73.74","45.47","MONTREAL INTL A","7025251","2024-03-23 22:00","2024","03","23","22:00","","-8.1","","-11.5","","77","","","","32","","10","","24.1","","101.52","","","","-13","","Clear"
"-73.74","45.47","MONTREAL INTL A","7025251","2024-03-23 23:00","2024","03","23","23:00","","-9.4","","-12.2","","80","","","","30","","11","","24.1","","101.54","","","","-15","","NA"
"-73.74","45.47","MONTREAL INTL A","7025251","2024-03-24 00:00","2024","03","24","00:00","","-9.6","","-12.1","","82","","","","30","","8","","24.1","","101.55","","","","-14","","NA"
"-73.74","45.47","MONTREAL INTL A","7025251","2024-03-24 01:00","2024","03","24","01:00","","-10.2","","-12.4","","84","","","","30","","4","","24.1","","101.60","","","","-13","","Clear"
"-73.74","45.47","MONTREAL INTL A","7025251","2024-03-24 02:00","2024","03","24","02:00","","-8.7","","-10.5","","87","","","","27","","12","","24.1","","101.59","","","","-14","","NA"
"-73.74","45.47","MONTREAL INTL A","7025251","2024-03-24 03:00","2024","03","24","03:00","","-7.8","","-10.3","","82","","","","28","","11","","24.1","","101.63","","","","-13","","NA"
"-73.74","45.47","MONTREAL INTL A","7025251","2024-03-24 04:00","2024","03","24","04:00","","-7.4","","-9.8","","83","","","","23","","6","","24.1","","101.72","","","","-11","","Clear"
"-73.74","45.47","MONTREAL INTL A","7025251","2024-03-24 05:00","2024","03","24","05:00","","-7.7","","-10.2","","82","","","","22","","8","","24.1","","101.81","","","","-12","","NA"
"-73.74","45.47","MONTREAL INTL A","7025251","2024-03-24 06:00","2024","03","24","06:00","","-10.3","","-12.5","","84","","","","24","","9","","48.3","","101.92","","","","-15","","NA"
"-73.74","45.47","MONTREAL INTL A","7025251","2024-03-24 07:00","2024","03","24","07:00","","-9.4","","-11.2","","87","","","","25","","9","","48.3","","101.99","","","","-14","","Clear"
"-73.74","45.47","MONTREAL INTL A","7025251","2024-03-24 08:00","2024","03","24","08:00","","-6.6","","-9.4","","81","","","","31","","9","","48.3","","102.10","","","","-11","","NA"
"-73.74","45.47","MONTREAL INTL A","7025251","2024-03-24 09:00","2024","03","24","09:00","","-4.5","","-13.3","","51","","","","34","","11","","48.3","","102.18","","","","-9","","NA"
"-73.74","45.47","MONTREAL INTL A","7025251","2024-03-24 10:00","2024","03","24","10:00","","-3.7","","-13.1","","48","","","","11","","3","","48.3","","102.25","","","","-5","","Clear"
"-73.74","45.47","MONTREAL INTL A","7025251","2024-03-24 11:00","2024","03","24","11:00","","-2.8","","-12.1","","49","","","","22","","14","","48.3","","102.30","","","","-8","","NA"
"-73.74","45.47","MONTREAL INTL A","7025251","2024-03-24 12:00","2024","03","24","12:00","","-1.9","","-9.1","","58","","","","20","","14","","48.3","","102.32","","","","-7","","NA"
"-73.74","45.47","MONTREAL INTL A","7025251","2024-03-24 13:00","2024","03","24","13:00","","-0.8","","-7.8","","59","","","","22","","21","","48.3","","102.34","","","","-6","","Clear"
"-73.74","45.47","MONTREAL INTL A","7025251","2024-03-24 14:00","2024","03","24","14:00","","0.7","","-6.4","","59","","","","25","","18","","48.3","","102.37","","","","","","NA"
"-73.74","45.47","MONTREAL INTL A","7025251","2024-03-24 15:00","2024","03","24","15:00","","0.5","","-7.1","","57","","","","22","","29","","48.3","","102.39","","","","","","NA"
"-73.74","45.47","MONTREAL INTL A","7025251","2024-03-24 16:00","2024","03","24","16:00","","0.3","","-7.3","","56","","","","21","","25","","48.3","","102.39","","","","","","Clear"
"-73.74","45.47","MONTREAL INTL A","7025251","2024-03-24 17:00","2024","03","24","17:00","","0.4","","-7.6","","55","","","","22","","25","","48.3","","102.44","","","","","","NA"
"-73.74","45.47","MONTREAL INTL A","7025251","2024-03-24 18:00","2024","03","24","18:00","","-0.2","","-8.2","","55","","","","22","","23","","48.3","","102.55","","","","-6","","NA"
"-73.74","45.47","MONTREAL INTL A","7025251","2024-03-24 19:00","2024","03","24","19:00","","-0.5","","-8.2","","56","","","","23","","20","","24.1","","102.62","","","","-6","","Clear"
"-73.74","45.47","MONTREAL INTL A","7025251","2024-03-24 20:00","2024","03","24","20:00","","-1.0","","-8.0","","59","","","","22","","15","","24.1","","102.72","","","","-6","","NA"
"-73.74","45.47","MONTREAL INTL A","7025251","2024-03-24 21:00","2024","03","24","21:00","","-0.8","","-7.7","","60","","","","21","","12","","24.1","","102.79","","","","-5","","NA"
"-73.74","45.47","MONTREAL INTL A","7025251","2024-03-24 22:00","2024","03","24","22:00","","-1.3","","-8.5","","58","","","","21","","11","","24.1","","102.83","","","","-5","","Clear"
"-73.74","45.47","MONTREAL INTL A","7025251","2024-03-24 23:00","2024","03","24","23:00","","-2.9","","-8.2","","67","","","","22","","4","","24.1","","102.86","","","","-4","","NA"
"-73.74","45.47","MONTREAL INTL A","7025251","2024-03-25 00:00","2024","03","25","00:00","","-3.1","","-8.9","","64","","","","15","","9","","24.1","","102.95","","","","-7","","NA"
"-73.74","45.47","MONTREAL INTL A","7025251","2024-03-25 01:00","2024","03","25","01:00","","-4.8","","-8.8","","73","","","","7","","4","","24.1","","102.92","","","","-7","","Clear"
"-73.74","45.47","MONTREAL INTL A","7025251","2024-03-25 02:00","2024","03","25","02:00","","-4.1","","-10.2","","63","","","","14","","5","","24.1","","102.96","","","","-6","","NA"
"-73.74","45.47","MONTREAL INTL A","7025251","2024-03-25 03:00","2024","03","25","03:00","","-3.9","","-8.9","","69","","","","11","","10","","24.1","","102.92","","","","-8","","NA"
"-73.74","45.47","MONTREAL INTL A","7025251","2024-03-25 04:00","2024","03","25","04:00","","-4.3","","-8.2","","74","","","","5","","4","","24.1","","102.92","","","","-6","","Clear"
"-73.74","45.47","MONTREAL INTL A","7025251","2024-03-25 05:00","2024","03","25","05:00","","-3.6","","-7.8","","73","","","","8","","10","","24.1","","102.96","","","","-8","","NA"
"-73.74","45.47","MONTREAL INTL A","7025251","2024-03-25 06:00","2024","03","25","06:00","","-4.8","","-8.1","","78","","","","3","","13","","48.3","","103.00","","","","-10","","NA"
"-73.74","45.47","MONTREAL INTL A","7025251","2024-03-25 07:00","2024","03","25","07:00","","-3.0","","-8.5","","66","","","","4","","12","","48.3","","102.99","","","","-7","","Clear"
"-73.74","45.47","MONTREAL INTL A","7025251","2024-03-25 08:00","2024","03","25","08:00","","-0.9","","-10.0","","50","","","","10","","12","","48.3","","102.98","","","","-5","","NA"
"-73.74","45.47","MONTREAL INTL A","7025251","2024-03-25 09:00","2024","03","25","09:00","","0.5","","-10.7","","43","","","","9","","13","","48.3","","102.98","","","","","","NA"
"-73.74","45.47","MONTREAL INTL A","7025251","2024-03-25 10:00","2024","03","25","10:00","","2.4","","-10.8","","37","","","","8","","15","","48.3","","102.96","","","","","","Clear"
"-73.74","45.47","MONTREAL INTL A","7025251","2024-03-25 11:00","2024","03","25","11:00","","3.3","","-12.5","","31","","","","9","","14","","48.3","","102.93","","","","","","NA"
"-73.74","45.47","MONTREAL INTL A","7025251","2024-03-25 12:00","2024","03","25","12:00","","4.2","","-11.6","","31","","","","10","","18","","48.3","","102.86","","","","","","NA"
"-73.74","45.47","MONTREAL INTL A","7025251","2024-03-25 13:00","2024","03","25","13:00","","5.2","","-10.0","","32","","","","10","","21","","48.3","","102.83","","","","","","Mainly Clear"
"-73.74","45.47","MONTREAL INTL A","7025251","2024-03-25 14:00","2024","03","25","14:00","","6.2","","-9.1","","33","","","","11","","17","","48.3","","102.69","","","","","","NA"
"-73.74","45.47","MONTREAL INTL A","7025251","2024-03-25 15:00","2024","03","25","15:00","","7.0","","-9.4","","30","","","","10","","21","","48.3","","102.61","","","","","","NA"
"-73.74","45.47","MONTREAL INTL A","7025251","2024-03-25 16:00","2024","03","25","16:00","","7.0","","-9.7","","29","","","","8","","18","","48.3","","102.55","","","","","","Mostly Cloudy"
"-73.74","45.47","MONTREAL INTL A","7025251","2024-03-25 17:00","2024","03","25","17:00","","7.3","","-9.2","","30","","","","8","","21","","48.3","","102.52","","","","","","NA"
"-73.74","45.47","MONTREAL INTL A","7025251","2024-03-25 18:00","2024","03","25","18:00","","6.6","","-8.8","","32","","","","6","","12","","48.3","","102.57","","","","","","NA"
"-73.74","45.47","MONTREAL INTL A","7025251","2024-03-25 19:00","2024","03","25","19:00","","5.8","","-8.8","","34","","","","7","","17","","24.1","","102.48","","","","","","Mainly Clear"
"-73.74","45.47","MONTREAL INTL A","7025251","2024-03-25 20:00","2024","03","25","20:00","","5.2","","-9.0","","35","","","","9","","9","","24.1","","102.45","","","","","","NA"
"-73.74","45.47","MONTREAL INTL A","7025251","2024-03-25 21:00","2024","03","25","21:00","","3.6","","-7.2","","45","","","","9","","7","","24.1","","102.45","","","","","","NA"
"-73.74","45.47","MONTREAL INTL A","7025251","2024-03-25 22:00","2024","03","25","22:00","","2.4","","-6.0","","54","","","","7","","9","","24.1","","102.43","","","","","","Clear"
"-73.74","45.47","MONTREAL INTL A","7025251","2024-03-25 23:00","2024","03","25","23:00","","3.2","","-6.2","","50","","","","9","","12","","24.1","","102.40","","","","","","NA"
"-73.74","45.47","MONTREAL INTL A","7025251","2024-03-26 00:00","2024","03","26","00:00","","3.4","","-8.1","","43","","","","10","","21","","24.1","","102.30","","","","","","NA"
"-73.74","45.47","MONTREAL INTL A","7025251","2024-03-26 01:00","2024","03","26","01:00","","2.8","","-8.1","","44","","","","11","","14","","24.1","","102.28","","","","","","Clear"
"-73.74","45.47","MONTREAL INTL A","7025251","2024-03-26 02:00","2024","03","26","02:00","","2.6","","-9.3","","41","","","","8","","17","","24.1","","102.21","","","","","","NA"
"-73.74","45.47","MONTREAL INTL A","7025251","2024-03-26 03:00","2024","03","26","03:00","","3.0","","-10.8","","36","","","","7","","19","","24.1","","102.19","","","","","","NA"
"-73.74","45.47","MONTREAL INTL A","7025251","2024-03-26 04:00","2024","03","26","04:00","","0.4","","-6.4","","61","","","","3","","18","","24.1","","102.28","","","","","","Clear"
"-73.74","45.47","MONTREAL INTL A","7025251","2024-03-26 05:00","2024","03","26","05:00","","-0.4","","-6.0","","66","","","","3","","21","","24.1","","102.23","","","","-6","","NA"
"-73.74","45.47","MONTREAL INTL A","7025251","2024-03-26 06:00","2024","03","26","06:00","","-0.2","","-6.4","","63","","","","4","","25","","24.1","","102.16","","","","-6","","NA"
"-73.74","45.47","MONTREAL INTL A","7025251","2024-03-26 07:00","2024","03","26","07:00","","1.4","","-9.4","","45","","","","6","","22","","24.1","","102.10","","","","","","Cloudy"
"-73.74","45.47","MONTREAL INTL A","7025251","2024-03-26 08:00","2024","03","26","08:00","","1.9","","-8.6","","46","","","","6","","21","","48.3","","102.08","","","","","","NA"
"-73.74","45.47","MONTREAL INTL A","7025251","2024-03-26 09:00","2024","03","26","09:00","","3.0","","-6.8","","49","","","","4","","23","","48.3","","102.15","","","","","","NA"
"-73.74","45.47","MONTREAL INTL A","7025251","2024-03-26 10:00","2024","03","26","10:00","","5.3","","-6.9","","41","","","","6","","23","","48.3","","102.00","","","","","","Cloudy"
"-73.74","45.47","MONTREAL INTL A","7025251","2024-03-26 11:00","2024","03","26","11:00","","6.2","","-6.2","","41","","","","5","","23","","48.3","","101.95","","","","","","NA"
"-73.74","45.47","MONTREAL INTL A","7025251","2024-03-26 12:00","2024","03","26","12:00","","8.9","","-7.5","","31","","","","7","","21","","48.3","","101.90","","","","","","NA"
"-73.74","45.47","MONTREAL INTL A","7025251","2024-03-26 13:00","2024","03","26","13:00","","9.3","","-6.6","","32","","","","7","","21","","48.3","","101.86","","","","","","Cloudy"
"-73.74","45.47","MONTREAL INTL A","7025251","2024-03-26 14:00","2024","03","26","14:00","","10.6","","-5.9","","31","","","","6","","24","","48.3","","101.76","","","","","","NA"
"-73.74","45.47","MONTREAL INTL A","7025251","2024-03-26 15:00","2024","03","26","15:00","","11.3","","-2.3","","39","","","","7","","21","","48.3","","101.66","","","","","","NA"
"-73.74","45.47","MONTREAL INTL A","7025251","2024-03-26 16:00","2024","03","26","16:00","","10.9","","-1.2","","43","","","","6","","21","","48.3","","101.56","","","","","","Cloudy"
"-73.74","45.47","MONTREAL INTL A","7025251","2024-03-26 17:00","2024","03","26","17:00","","10.4","","-0.9","","45","","","","7","","23","","48.3","","101.48","","","","","","NA"
"-73.74","45.47","MONTREAL INTL A","7025251","2024-03-26 18:00","2024","03","26","18:00","","8.4","","-2.2","","47","","","","6","","22","","24.1","","101.42","","","","","","NA"
"-73.74","45.47","MONTREAL INTL A","7025251","2024-03-26 19:00","2024","03","26","19:00","","7.2","","-2.6","","50","","","","6","","19","","24.1","","101.34","","","","","","Cloudy"
"-73.74","45.47","MONTREAL INTL A","7025251","2024-03-26 20:00","2024","03","26","20:00","","6.5","","-2.2","","54","","","","5","","18","","24.1","","101.35","","","","","","NA"
"-73.74","45.47","MONTREAL INTL A","7025251","2024-03-26 21:00","2024","03","26","21:00","","5.4","","-1.6","","61","","","","4","","15","","24.1","","101.32","","","","","","NA"
"-73.74","45.47","MONTREAL INTL A","7025251","2024-03-26 22:00","2024","03","26","22:00","","5.7","","-0.9","","63","","","","6","","20","","24.1","","101.24","","","","","","Mostly Cloudy"
"-73.74","45.47","MONTREAL INTL A","7025251","2024-03-26 23:00","2024","03","26","23:00","","6.2","","0.2","","65","","","","6","","14","","24.1","","101.18","","","","","","NA"
"-73.74","45.47","MONTREAL INTL A","7025251","2024-03-27 00:00","2024","03","27","00:00","","7.0","","2.2","","72","","","","16","","14","","24.1","","101.18","","","","","","NA"
"-73.74","45.47","MONTREAL INTL A","7025251","2024-03-27 01:00","2024","03","27","01:00","","6.5","","2.1","","74","","","","11","","23","","24.1","","101.01","","","","","","Mostly Cloudy"
"-73.74","45.47","MONTREAL INTL A","7025251","2024-03-27 02:00","2024","03","27","02:00","","6.2","","1.5","","72","","","","12","","30","","24.1","","100.94","","","","","","NA"
"-73.74","45.47","MONTREAL INTL A","7025251","2024-03-27 03:00","2024","03","27","03:00","","5.8","","1.2","","72","","","","13","","32","","80.5","","100.89","","","","","","NA"
"-73.74","45.47","MONTREAL INTL A","7025251","2024-03-27 04:00","2024","03","27","04:00","","5.4","","1.2","","74","","","","15","","11","","24.1","","100.97","","","","","","Mostly Cloudy"
"-73.74","45.47","MONTREAL INTL A","7025251","2024-03-27 05:00","2024","03","27","05:00","","5.3","","2.5","","82","","","","15","","9","","24.1","","101.02","","","","","","Rain Showers"
"-73.74","45.47","MONTREAL INTL A","7025251","2024-03-27 06:00","2024","03","27","06:00","","4.8","","3.2","","90","","","","13","","7","","24.1","","101.07","","","","","","Rain Showers"
"-73.74","45.47","MONTREAL INTL A","7025251","2024-03-27 07:00","2024","03","27","07:00","","5.0","","3.7","","91","","","","14","","13","","24.1","","101.10","","","","","","Cloudy"
"-73.74","45.47","MONTREAL INTL A","7025251","2024-03-27 08:00","2024","03","27","08:00","","5.7","","3.9","","88","","","","15","","13","","48.3","","101.15","","","","","","NA"
"-73.74","45.47","MONTREAL INTL A","7025251","2024-03-27 09:00","2024","03","27","09:00","","7.4","","4.7","","83","","","","13","","16","","48.3","","101.14","","","","","","NA"
"-73.74","45.47","MONTREAL INTL A","7025251","2024-03-27 10:00","2024","03","27","10:00","","9.4","","5.9","","79","","","","15","","16","","48.3","","101.09","","","","","","Cloudy"
"-73.74","45.47","MONTREAL INTL A","7025251","2024-03-27 11:00","2024","03","27","11:00","","11.6","","6.4","","70","","","","14","","9","","48.3","","101.07","","","","","","NA"
"-73.74","45.47","MONTREAL INTL A","7025251","2024-03-27 12:00","2024","03","27","12:00","","12.2","","6.4","","68","","","","14","","18","","48.3","","101.03","","","","","","NA"
"-73.74","45.47","MONTREAL INTL A","7025251","2024-03-27 13:00","2024","03","27","13:00","","14.6","","6.8","","59","","","","13","","16","","48.3","","100.98","","","","","","Mostly Cloudy"
"-73.74","45.47","MONTREAL INTL A","7025251","2024-03-27 14:00","2024","03","27","14:00","","11.9","","5.4","","64","","","","13","","19","","48.3","","100.94","","","","","","NA"
"-73.74","45.47","MONTREAL INTL A","7025251","2024-03-27 15:00","2024","03","27","15:00","","11.7","","5.2","","64","","","","15","","21","","48.3","","100.94","","","","","","NA"
"-73.74","45.47","MONTREAL INTL A","7025251","2024-03-27 16:00","2024","03","27","16:00","","11.2","","5.5","","68","","","","13","","11","","48.3","","100.90","","","","","","Mostly Cloudy"
"-73.74","45.47","MONTREAL INTL A","7025251","2024-03-27 17:00","2024","03","27","17:00","","11.0","","5.3","","68","","","","11","","9","","48.3","","100.96","","","","","","NA"
"-73.74","45.47","MONTREAL INTL A","7025251","2024-03-27 18:00","2024","03","27","18:00","","9.5","","5.1","","74","","","","10","","8","","48.3","","100.99","","","","","","NA"
"-73.74","45.47","MONTREAL INTL A","7025251","2024-03-27 19:00","2024","03","27","19:00","","9.0","","5.2","","77","","","","12","","3","","24.1","","101.03","","","","","","Mostly Cloudy"
"-73.74","45.47","MONTREAL INTL A","7025251","2024-03-27 20:00","2024","03","27","20:00","","8.9","","5.0","","76","","","","34","","4","","24.1","","101.12","","","","","","NA"
"-73.74","45.47","MONTREAL INTL A","7025251","2024-03-27 21:00","2024","03","27","21:00","","8.1","","5.0","","80","","","","14","","7","","24.1","","101.16","","","","","","NA"
"-73.74","45.47","MONTREAL INTL A","7025251","2024-03-27 22:00","2024","03","27","22:00","","8.3","","5.2","","80","","","","20","","9","","24.1","","101.19","","","","","","Mostly Cloudy"
"-73.74","45.47","MONTREAL INTL A","7025251","2024-03-27 23:00","2024","03","27","23:00","","7.5","","4.9","","83","","","","27","","5","","24.1","","101.14","","","","","","NA"
"-73.74","45.47","MONTREAL INTL A","7025251","2024-03-28 00:00","2024","03","28","00:00","","7.8","","4.8","","81","","","","23","","7","","24.1","","101.14","","","","","","NA"
"-73.74","45.47","MONTREAL INTL A","7025251","2024-03-28 01:00","2024","03","28","01:00","","8.8","","2.8","","66","","","","25","","18","","24.1","","101.20","","","","","","Mostly Cloudy"
"-73.74","45.47","MONTREAL INTL A","7025251","2024-03-28 02:00","2024","03","28","02:00","","8.1","","2.2","","66","","","","25","","12","","24.1","","101.19","","","","","","NA"
"-73.74","45.47","MONTREAL INTL A","7025251","2024-03-28 03:00","2024","03","28","03:00","","7.7","","1.4","","65","","","","25","","26","","24.1","","101.18","","","","","","NA"
"-73.74","45.47","MONTREAL INTL A","7025251","2024-03-28 04:00","2024","03","28","04:00","","7.1","","1.4","","67","","","","27","","23","","24.1","","101.20","","","","","","Cloudy"
"-73.74","45.47","MONTREAL INTL A","7025251","2024-03-28 05:00","2024","03","28","05:00","","6.6","","1.6","","70","","","","27","","20","","24.1","","101.24","","","","","","NA"
"-73.74","45.47","MONTREAL INTL A","7025251","2024-03-28 06:00","2024","03","28","06:00","","6.3","","1.2","","70","","","","26","","16","","24.1","","101.29","","","","","","NA"
"-73.74","45.47","MONTREAL INTL A","7025251","2024-03-28 07:00","2024","03","28","07:00","","6.2","","1.1","","70","","","","27","","15","","24.1","","101.28","","","","","","Cloudy"
"-73.74","45.47","MONTREAL INTL A","7025251","2024-03-28 08:00","2024","03","28","08:00","","6.5","","0.7","","66","","","","27","","17","","24.1","","101.32","","","","","","NA"
"-73.74","45.47","MONTREAL INTL A","7025251","2024-03-28 09:00","2024","03","28","09:00","","6.3","","0.2","","65","","","","27","","16","","24.1","","101.30","","","","","","NA"
"-73.74","45.47","MONTREAL INTL A","7025251","2024-03-28 10:00","2024","03","28","10:00","","7.7","","-0.6","","56","","","","30","","20","","24.1","","101.33","","","","","","Mostly Cloudy"
"-73.74","45.47","MONTREAL INTL A","7025251","2024-03-28 11:00","2024","03","28","11:00","","7.9","","-0.2","","56","","","","26","","21","","24.1","","101.25","","","","","","NA"
"-73.74","45.47","MONTREAL INTL A","7025251","2024-03-28 12:00","2024","03","28","12:00","","8.0","","-1.3","","52","","","","27","","21","","24.1","","101.18","","","","","","NA"
"-73.74","45.47","MONTREAL INTL A","7025251","2024-03-28 13:00","2024","03","28","13:00","","8.2","","-1.9","","49","","","","28","","16","","24.1","","101.11","","","","","","Cloudy"
"-73.74","45.47","MONTREAL INTL A","7025251","2024-03-28 14:00","2024","03","28","14:00","","7.7","","-3.2","","46","","","","29","","21","","24.1","","101.07","","","","","","NA"
"-73.74","45.47","MONTREAL INTL A","7025251","2024-03-28 15:00","2024","03","28","15:00","","7.9","","-2.2","","49","","","","28","","17","","24.1","","100.85","","","","","","NA"
"-73.74","45.47","MONTREAL INTL A","7025251","2024-03-28 16:00","2024","03","28","16:00","","7.6","","-3.5","","45","","","","27","","23","","24.1","","100.96","","","","","","Cloudy"
"-73.74","45.47","MONTREAL INTL A","7025251","2024-03-28 17:00","2024","03","28","17:00","","7.5","","-3.4","","46","","","","28","","16","","24.1","","100.89","","","","","","NA"
"-73.74","45.47","MONTREAL INTL A","7025251","2024-03-28 18:00","2024","03","28","18:00","","6.9","","-2.1","","53","","","","24","","7","","24.1","","100.84","","","","","","NA"
"-73.74","45.47","MONTREAL INTL A","7025251","2024-03-28 19:00","2024","03","28","19:00","","5.5","","-2.7","","56","","","","26","","13","","24.1","","100.90","","","","","","Cloudy"
"-73.74","45.47","MONTREAL INTL A","7025251","2024-03-28 20:00","2024","03","28","20:00","","5.2","","-3.0","","55","","","","27","","9","","24.1","","100.88","","","","","","NA"
"-73.74","45.47","MONTREAL INTL A","7025251","2024-03-28 21:00","2024","03","28","21:00","","5.4","","-2.9","","55","","","","27","","10","","24.1","","100.88","","","","","","NA"
"-73.74","45.47","MONTREAL INTL A","7025251","2024-03-28 22:00","2024","03","28","22:00","","4.5","","-2.9","","59","","","","27","","12","","24.1","","100.83","","","","","","Mostly Cloudy"
"-73.74","45.47","MONTREAL INTL A","7025251","2024-03-28 23:00","2024","03","28","23:00","","3.8","","-2.7","","62","","","","26","","12","","24.1","","100.90","","","","","","NA"
"-73.74","45.47","MONTREAL INTL A","7025251","2024-03-29 00:00","2024","03","29","00:00","","2.4","","-3.0","","68","","","","24","","8","","24.1","","100.86","","","","","","NA"
"-73.74","45.47","MONTREAL INTL A","7025251","2024-03-29 01:00","2024","03","29","01:00","","1.4","","-2.8","","74","","","","25","","9","","24.1","","100.73","","","","","","Mostly Cloudy"
"-73.74","45.47","MONTREAL INTL A","7025251","2024-03-29 02:00","2024","03","29","02:00","","1.9","","-2.9","","70","","","","24","","11","","24.1","","100.76","","","","","","NA"
"-73.74","45.47","MONTREAL INTL A","7025251","2024-03-29 03:00","2024","03","29","03:00","","0.0","","-3.6","","77","","","","26","","11","","24.1","","100.61","","","","-4","","NA"
"-73.74","45.47","MONTREAL INTL A","7025251","2024-03-29 04:00","2024","03","29","04:00","","0.5","","-3.6","","74","","","","25","","8","","24.1","","100.58","","","","","","Clear"
"-73.74","45.47","MONTREAL INTL A","7025251","2024-03-29 05:00","2024","03","29","05:00","","-0.7","","-3.9","","79","","","","27","","9","","24.1","","100.53","","","","-4","","NA"
"-73.74","45.47","MONTREAL INTL A","7025251","2024-03-29 06:00","2024","03","29","06:00","","0.6","","-3.9","","72","","","","31","","11","","24.1","","100.52","","","","","","NA"
"-73.74","45.47","MONTREAL INTL A","7025251","2024-03-29 07:00","2024","03","29","07:00","","1.5","","-4.6","","64","","","","","","0","","48.3","","100.55","","","","","","Mostly Cloudy"
"-73.74","45.47","MONTREAL INTL A","7025251","2024-03-29 08:00","2024","03","29","08:00","","3.1","","-4.6","","57","","","","26","","6","","48.3","","100.51","","","","","","NA"
"-73.74","45.47","MONTREAL INTL A","7025251","2024-03-29 09:00","2024","03","29","09:00","","5.3","","-5.4","","46","","","","30","","7","","48.3","","100.44","","","","","","NA"
"-73.74","45.47","MONTREAL INTL A","7025251","2024-03-29 10:00","2024","03","29","10:00","","6.0","","-4.0","","49","","","","26","","20","","48.3","","100.39","","","","","","Mostly Cloudy"
"-73.74","45.47","MONTREAL INTL A","7025251","2024-03-29 11:00","2024","03","29","11:00","","6.6","","-4.7","","44","","","","28","","21","","48.3","","100.32","","","","","","NA"
"-73.74","45.47","MONTREAL INTL A","7025251","2024-03-29 12:00","2024","03","29","12:00","","7.5","","-5.0","","41","","","","28","","21","","48.3","","100.24","","","","","","NA"
"-73.74","45.47","MONTREAL INTL A","7025251","2024-03-29 13:00","2024","03","29","13:00","","7.9","","-5.4","","38","","","","27","","32","","48.3","","100.13","","","","","","Mostly Cloudy"
"-73.74","45.47","MONTREAL INTL A","7025251","2024-03-29 14:00","2024","03","29","14:00","","8.7","","-5.6","","36","","","","27","","31","","48.3","","100.04","","","","","","NA"
"-73.74","45.47","MONTREAL INTL A","7025251","2024-03-29 15:00","2024","03","29","15:00","","9.0","","-6.6","","33","","","","31","","33","","48.3","","100.01","","","","","","NA"
"-73.74","45.47","MONTREAL INTL A","7025251","2024-03-29 16:00","2024","03","29","16:00","","8.5","","-5.6","","36","","","","29","","28","","48.3","","99.99","","","","","","Mainly Clear"
"-73.74","45.47","MONTREAL INTL A","7025251","2024-03-29 17:00","2024","03","29","17:00","","6.3","","-6.5","","39","","","","30","","39","","24.1","","100.05","","","","","","NA"
"-73.74","45.47","MONTREAL INTL A","7025251","2024-03-29 18:00","2024","03","29","18:00","","4.6","","-6.9","","43","","","","31","","31","","24.1","","100.10","","","","","","NA"
"-73.74","45.47","MONTREAL INTL A","7025251","2024-03-29 19:00","2024","03","29","19:00","","4.0","","-7.0","","45","","","","32","","17","","24.1","","100.13","","","","","","Clear"
"-73.74","45.47","MONTREAL INTL A","7025251","2024-03-29 20:00","2024","03","29","20:00","","3.6","","-7.1","","45","","","","33","","13","","24.1","","100.16","","","","","","NA"
"-73.74","45.47","MONTREAL INTL A","7025251","2024-03-29 21:00","2024","03","29","21:00","","3.0","","-7.5","","46","","","","30","","26","","24.1","","100.18","","","","","","NA"
"-73.74","45.47","MONTREAL INTL A","7025251","2024-03-29 22:00","2024","03","29","22:00","","2.7","","-7.2","","48","","","","30","","28","","24.1","","100.18","","","","","","Mostly Cloudy"
"-73.74","45.47","MONTREAL INTL A","7025251","2024-03-29 23:00","2024","03","29","23:00","","2.7","","-6.8","","50","","","","29","","23","","24.1","","100.18","","","","","","NA"
"-73.74","45.47","MONTREAL INTL A","7025251","2024-03-30 00:00","2024","03","30","00:00","","2.5","","-6.8","","50","","","","31","","29","","24.1","","100.15","","","","","","NA"
"-73.74","45.47","MONTREAL INTL A","7025251","2024-03-30 01:00","2024","03","30","01:00","","1.9","","-7.1","","51","","","","30","","24","","24.1","","100.15","","","","","","Mostly Cloudy"
"-73.74","45.47","MONTREAL INTL A","7025251","2024-03-30 02:00","2024","03","30","02:00","","1.4","","-7.8","","50","","","","30","","20","","24.1","","100.16","","","","","","NA"
"-73.74","45.47","MONTREAL INTL A","7025251","2024-03-30 03:00","2024","03","30","03:00","","0.9","","-8.4","","50","","","","29","","28","","24.1","","100.18","","","","","","NA"
"-73.74","45.47","MONTREAL INTL A","7025251","2024-03-30 04:00","2024","03","30","04:00"
"-73.74","45.47","MONTREAL INTL A","7025251","2024-03-30 05:00","2024","03","30","05:00","","-0.2","","-9.7","","49","","","","31","","25","","24.1","","100.25","","","","-6","","NA"
"-73.74","45.47","MONTREAL INTL A","7025251","2024-03-30 06:00","2024","03","30","06:00","","-0.5","","-9.5","","51","","","","31","","20","","24.1","","100.29","","","","-6","","NA"
"-73.74","45.47","MONTREAL INTL A","7025251","2024-03-30 07:00","2024","03","30","07:00","","0.2","","-9.2","","50","","","","30","","19","","24.1","","100.32","","","","","","Mostly Cloudy"
"-73.74","45.47","MONTREAL INTL A","7025251","2024-03-30 08:00","2024","03","30","08:00","","0.4","","-9.1","","49","","","","31","","26","","24.1","","100.32","","","","","","NA"
"-73.74","45.47","MONTREAL INTL A","7025251","2024-03-30 09:00","2024","03","30","09:00","","1.4","","-8.2","","49","","","","29","","30","","48.3","","100.34","","","","","","NA"
"-73.74","45.47","MONTREAL INTL A","7025251","2024-03-30 10:00","2024","03","30","10:00","","1.6","","-8.7","","46","","","","30","","26","","48.3","","100.40","","","","","","Mostly Cloudy"
"-73.74","45.47","MONTREAL INTL A","7025251","2024-03-30 11:00","2024","03","30","11:00","","2.9","","-8.6","","43","","","","30","","30","","48.3","","100.38","","","","","","NA"
"-73.74","45.47","MONTREAL INTL A","7025251","2024-03-30 12:00","2024","03","30","12:00","","3.2","","-9.4","","39","","","","30","","32","","48.3","","100.35","","","","","","NA"
"-73.74","45.47","MONTREAL INTL A","7025251","2024-03-30 13:00","2024","03","30","13:00","","4.3","","-9.8","","35","","","","30","","35","","48.3","","100.27","","","","","","Clear"
"-73.74","45.47","MONTREAL INTL A","7025251","2024-03-30 14:00","2024","03","30","14:00","","5.5","","-9.0","","34","","","","30","","19","","48.3","","100.19","","","","","","NA"
"-73.74","45.47","MONTREAL INTL A","7025251","2024-03-30 15:00","2024","03","30","15:00","","6.0","","-10.3","","30","","","","30","","21","","48.3","","100.13","","","","","","NA"
"-73.74","45.47","MONTREAL INTL A","7025251","2024-03-30 16:00","2024","03","30","16:00","","6.0","","-10.6","","29","","","","29","","21","","48.3","","100.12","","","","","","Clear"
"-73.74","45.47","MONTREAL INTL A","7025251","2024-03-30 17:00","2024","03","30","17:00","","6.2","","-10.2","","30","","","","27","","25","","48.3","","100.12","","","","","","NA"
"-73.74","45.47","MONTREAL INTL A","7025251","2024-03-30 18:00","2024","03","30","18:00","","5.6","","-11.1","","29","","","","30","","18","","48.3","","100.15","","","","","","NA"
"-73.74","45.47","MONTREAL INTL A","7025251","2024-03-30 19:00","2024","03","30","19:00","","3.8","","-9.4","","37","","","","27","","11","","48.3","","100.17","","","","","","Mainly Clear"
"-73.74","45.47","MONTREAL INTL A","7025251","2024-03-30 20:00","2024","03","30","20:00","","3.4","","-8.8","","40","","","","29","","11","","24.1","","100.21","","","","","","NA"
"-73.74","45.47","MONTREAL INTL A","7025251","2024-03-30 21:00","2024","03","30","21:00","","3.6","","-9.2","","39","","","","29","","12","","24.1","","100.23","","","","","","NA"
"-73.74","45.47","MONTREAL INTL A","7025251","2024-03-30 22:00","2024","03","30","22:00","","2.5","","-9.8","","40","","","","32","","10","","24.1","","100.21","","","","","","Mostly Cloudy"
"-73.74","45.47","MONTREAL INTL A","7025251","2024-03-30 23:00","2024","03","30","23:00","","1.9","","-10.2","","40","","","","27","","5","","24.1","","100.22","","","","","","NA"
"-73.74","45.47","MONTREAL INTL A","7025251","2024-03-31 00:00","2024","03","31","00:00","","1.9","","-8.6","","46","","","","25","","10","","24.1","","100.22","","","","","","NA"
"-73.74","45.47","MONTREAL INTL A","7025251","2024-03-31 01:00","2024","03","31","01:00","","2.0","","-8.4","","46","","","","25","","9","","24.1","","100.23","","","","","","Mostly Cloudy"
"-73.74","45.47","MONTREAL INTL A","7025251","2024-03-31 02:00","2024","03","31","02:00","","1.8","","-7.4","","51","","","","26","","10","","24.1","","100.25","","","","","","NA"
"-73.74","45.47","MONTREAL INTL A","7025251","2024-03-31 03:00","2024","03","31","03:00","","2.0","","-7.1","","51","","","","27","","10","","24.1","","100.27","","","","","","NA"
"-73.74","45.47","MONTREAL INTL A","7025251","2024-03-31 04:00","2024","03","31","04:00","","2.4","","-8.9","","43","","","","29","","14","","24.1","","100.33","","","","","","Mostly Cloudy"
"-73.74","45.47","MONTREAL INTL A","7025251","2024-03-31 05:00","2024","03","31","05:00","","2.4","","-9.2","","42","","","","29","","14","","24.1","","100.40","","","","","","NA"
"-73.74","45.47","MONTREAL INTL A","7025251","2024-03-31 06:00","2024","03","31","06:00","","2.4","","-9.5","","41","","","","31","","14","","24.1","","100.49","","","","","","NA"
"-73.74","45.47","MONTREAL INTL A","7025251","2024-03-31 07:00","2024","03","31","07:00","","2.6","","-9.5","","41","","","","30","","17","","24.1","","100.58","","","","","","Cloudy"
"-73.74","45.47","MONTREAL INTL A","7025251","2024-03-31 08:00","2024","03","31","08:00","","3.2","","-9.7","","38","","","","30","","23","","24.1","","100.64","","","","","","NA"
"-73.74","45.47","MONTREAL INTL A","7025251","2024-03-31 09:00","2024","03","31","09:00","","4.4","","-9.3","","36","","","","32","","23","","48.3","","100.68","","","","","","NA"
"-73.74","45.47","MONTREAL INTL A","7025251","2024-03-31 10:00","2024","03","31","10:00","","5.6","","-8.2","","37","","","","30","","17","","48.3","","100.70","","","","","","Clear"
"-73.74","45.47","MONTREAL INTL A","7025251","2024-03-31 11:00","2024","03","31","11:00","","6.5","","-7.8","","35","","","","28","","17","","48.3","","100.67","","","","","","NA"
"-73.74","45.47","MONTREAL INTL A","7025251","2024-03-31 12:00","2024","03","31","12:00","","7.5","","-8.4","","31","","","","26","","25","","48.3","","100.65","","","","","","NA"
"-73.74","45.47","MONTREAL INTL A","7025251","2024-03-31 13:00","2024","03","31","13:00","","8.8","","-8.6","","28","","","","28","","28","","48.3","","100.62","","","","","","Clear"
"-73.74","45.47","MONTREAL INTL A","7025251","2024-03-31 14:00","2024","03","31","14:00","","9.2","","-9.1","","27","","","","28","","27","","48.3","","100.63","","","","","","NA"
"-73.74","45.47","MONTREAL INTL A","7025251","2024-03-31 15:00","2024","03","31","15:00","","9.4","","-7.8","","29","","","","25","","25","","48.3","","100.62","","","","","","NA"
"-73.74","45.47","MONTREAL INTL A","7025251","2024-03-31 16:00","2024","03","31","16:00","","9.6","","-8.7","","27","","","","27","","27","","48.3","","100.65","","","","","","Clear"
"-73.74","45.47","MONTREAL INTL A","7025251","2024-03-31 17:00","2024","03","31","17:00","","9.4","","-8.7","","27","","","","27","","20","","48.3","","100.67","","","","","","NA"
"-73.74","45.47","MONTREAL INTL A","7025251","2024-03-31 18:00","2024","03","31","18:00","","8.5","","-7.8","","31","","","","27","","19","","48.3","","100.72","","","","","","NA"
"-73.74","45.47","MONTREAL INTL A","7025251","2024-03-31 19:00","2024","03","31","19:00","","7.1","","-7.1","","36","","","","26","","18","","48.3","","100.76","","","","","","Clear"
"-73.74","45.47","MONTREAL INTL A","7025251","2024-03-31 20:00","2024","03","31","20:00","","6.6","","-7.2","","37","","","","26","","10","","24.1","","100.80","","","","","","NA"
"-73.74","45.47","MONTREAL INTL A","7025251","2024-03-31 21:00","2024","03","31","21:00","","5.4","","-5.0","","47","","","","26","","18","","24.1","","100.90","","","","","","NA"
"-73.74","45.47","MONTREAL INTL A","7025251","2024-03-31 22:00","2024","03","31","22:00","","4.8","","-1.7","","63","","","","26","","17","","24.1","","100.95","","","","","","Mainly Clear"
"-73.74","45.47","MONTREAL INTL A","7025251","2024-03-31 23:00","2024","03","31","23:00","","4.5","","-1.6","","65","","","","24","","11","","24.1","","100.97","","","","","","NA"
