"Longitude (x)","Latitude (y)","Station Name","Climate ID","Date/Time (LST)","Year","Month","Day","Time (LST)","Temp (°C)","Temp Flag","Dew Point Temp (°C)","Dew Point Temp Flag","Rel Hum (%)","Rel Hum Flag","Precip. Amount (mm)","Precip. Amount Flag","Wind Dir (10s deg)","Wind Dir Flag","Wind Spd (km/h)","Wind Spd Flag","Visibility (km)","Visibility Flag","Stn Press (kPa)","Stn Press Flag","Hmdx","Hmdx Flag","Wind Chill","Wind Chill Flag","Weather"
"-73.74","45.47","MONTREAL INTL A","7025251","2021-08-01 00:00","2021","08","01","00:00","16.1","","11.4","","73","","","","23","","14","","24.1","","100.78","","","","","","NA"
"-73.74","45.47","MONTREAL INTL A","7025251","2021-08-01 01:00","2021","08","01","01:00","15.7","","11.6","","76","","","","26","","10","","24.1","","100.77","","","","","","Mostly Cloudy"
"-73.74","45.47","MONTREAL INTL A","7025251","2021-08-01 02:00","2021","08","01","02:00","15.8","","12.0","","78","","","","23","","12","","24.1","","100.75","","","","","","NA"
"-73.74","45.47","MONTREAL INTL A","7025251","2021-08-01 03:00","2021","08","01","03:00","15.5","","12.8","","84","","","","25","","8","","24.1","","100.76","","","","","","NA"
"-73.74","45.47","MONTREAL INTL A","7025251","2021-08-01 04:00","2021","08","01","04:00","15.2","","12.1","","81","","","","23","","8","","24.1","","100.75","","","","","","Mainly Clear"
"-73.74","45.47","MONTREAL INTL A","7025251","2021-08-01 05:00","2021","08","01","05:00","14.4","","12.2","","87","","","","23","","11","","48.3","","100.77","","","","","","NA"
"-73.74","45.47","MONTREAL INTL A","7025251","2021-08-01 06:00","2021","08","01","06:00","15.9","","13.1","","83","","","","23","","6","","48.3","","100.79","","","","","","NA"
"-73.74","45.47","MONTREAL INTL A","7025251","2021-08-01 07:00","2021","08","01","07:00","16.9","","12.4","","74","","","","21","","11","","48.3","","100.84","","","","","","Cloudy"
"-73.74","45.47","MONTREAL INTL A","7025251","2021-08-01 08:00","2021","08","01","08:00","17.4","","12.6","","73","","","","25","","7","","24.1","","100.85","","","","","","NA"
"-73.74","45.47","MONTREAL INTL A","7025251","2021-08-01 09:00","2021","08","01","09:00","17.9","","13.3","","74","","","","17","","7","","24.1","","100.80","","","","","","NA"
"-73.74","45.47","MONTREAL INTL A","7025251","2021-08-01 10:00","2021","08","01","10:00","18.6","","11.3","","62","","","","11","","8","","24.1","","100.76","","","","","","Cloudy"
"-73.74","45.47","MONTREAL INTL A","7025251","2021-08-01 11:00","2021","08","01","11:00","18.9","","12.3","","65","","","","15","","18","","24.1","","100.76","","","","","","NA"
"-73.74","45.47","MONTREAL INTL A","7025251","2021-08-01 12:00","2021","08","01","12:00","19.1","","12.7","","66","","","","12","","16","","24.1","","100.71","","","","","","NA"
"-73.74","45.47","MONTREAL INTL A","7025251","2021-08-01 13:00","2021","08","01","13:00","19.0","","12.3","","65","","","","13","","10","","24.1","","100.69","","","","","","Cloudy"
"-73.74","45.47","MONTREAL INTL A","7025251","2021-08-01 14:00","2021","08","01","14:00","18.8","","13.2","","70","","","","12","","9","","24.1","","100.68","","","","","","NA"
"-73.74","45.47","MONTREAL INTL A","7025251","2021-08-01 15:00","2021","08","01","15:00","19.2","","13.1","","67","","","","5","","7","","24.1","","100.68","","","","","","NA"
"-73.74","45.47","MONTREAL INTL A","7025251","2021-08-01 16:00","2021","08","01","16:00","18.9","","13.0","","68","","","","15","","14","","24.1","","100.66","","","","","","Cloudy"
"-73.74","45.47","MONTREAL INTL A","7025251","2021-08-01 17:00","2021","08","01","17:00","18.8","","13.0","","69","","","","14","","9","","24.1","","100.64","","","","","","NA"
"-73.74","45.47","MONTREAL INTL A","7025251","2021-08-01 18:00","2021","08","01","18:00","18.1","","13.8","","76","","","","6","","5","","24.1","","100.62","","","","","","NA"
"-73.74","45.47","MONTREAL INTL A","7025251","2021-08-01 19:00","2021","08","01","19:00","17.8","","14.1","","79","","","","4","","8","","24.1","","100.63","","","","","","Cloudy"
"-73.74","45.47","MONTREAL INTL A","7025251","2021-08-01 20:00","2021","08","01","20:00","17.8","","14.9","","83","","","","34","","8","","24.1","","100.68","","","","","","NA"
"-73.74","45.47","MONTREAL INTL A","7025251","2021-08-01 21:00","2021","08","01","21:00","17.2","","14.4","","83","","","","36","","7","","24.1","","100.69","","","","","","NA"
"-73.74","45.47","MONTREAL INTL A","7025251","2021-08-01 22:00","2021","08","01","22:00","17.1","","14.0","","81","","","","3","","11","","24.1","","100.66","","","","","","Mostly Cloudy"
"-73.74","45.47","MONTREAL INTL A","7025251","2021-08-01 23:00","2021","08","01","23:00","17.2","","14.0","","82","","","","33","","7","","24.1","","100.63","","","","","","NA"
"-73.74","45.47","MONTREAL INTL A","7025251","2021-08-02 00:00","2021","08","02","00:00","17.3","","13.8","","80","","","","34","","10","","24.1","","100.63","","","","","","NA"
"-73.74","45.47","MONTREAL INTL A","7025251","2021-08-02 01:00","2021","08","02","01:00","16.8","","13.9","","83","","","","1","","9","","24.1","","100.60","","","","","","Cloudy"
"-73.74","45.47","MONTREAL INTL A","7025251","2021-08-02 02:00","2021","08","02","02:00","16.0","","14.0","","88","","","","31","","8","","24.1","","100.61","","","","","","NA"
"-73.74","45.47","MONTREAL INTL A","7025251","2021-08-02 03:00","2021","08","02","03:00","15.8","","14.2","","91","","","","32","","11","","24.1","","100.63","","","","","","NA"
"-73.74","45.47","MONTREAL INTL A","7025251","2021-08-02 04:00","2021","08","02","04:00","15.0","","13.8","","93","","","","32","","10","","24.1","","100.66","","","","","","Mostly Cloudy"
"-73.74","45.47","MONTREAL INTL A","7025251","2021-08-02 05:00","2021","08","02","05:00","14.4","","13.2","","92","","","","32","","7","","24.1","","100.70","","","","","","NA"
"-73.74","45.47","MONTREAL INTL A","7025251","2021-08-02 06:00","2021","08","02","06:00","15.5","","12.7","","83","","","","33","","12","","24.1","","100.77","","","","","","NA"
"-73.74","45.47","MONTREAL INTL A","7025251","2021-08-02 07:00","2021","08","02","07:00","15.9","","11.3","","74","","","","35","","11","","24.1","","100.82","","","","","","Mostly Cloudy"
"-73.74","45.47","MONTREAL INTL A","7025251","2021-08-02 08:00","2021","08","02","08:00","18.2","","11.0","","63","","","","35","","17","","24.1","","100.87","","","","","","NA"
"-73.74","45.47","MONTREAL INTL A","7025251","2021-08-02 09:00","2021","08","02","09:00","19.1","","11.3","","60","","","","36","","15","","48.3","","100.89","","","","","","NA"
"-73.74","45.47","MONTREAL INTL A","7025251","2021-08-02 10:00","2021","08","02","10:00","20.4","","11.2","","55","","","","32","","17","","48.3","","100.92","","","","","","Mainly Clear"
"-73.74","45.47","MONTREAL INTL A","7025251","2021-08-02 11:00","2021","08","02","11:00","21.3","","11.2","","52","","","","30","","12","","48.3","","100.93","","","","","","NA"
"-73.74","45.47","MONTREAL INTL A","7025251","2021-08-02 12:00","2021","08","02","12:00","21.7","","11.2","","51","","","","29","","17","","48.3","","100.90","","","","","","NA"
"-73.74","45.47","MONTREAL INTL A","7025251","2021-08-02 13:00","2021","08","02","13:00","21.7","","12.5","","55","","","","29","","10","","48.3","","100.90","","","","","","Mostly Cloudy"
"-73.74","45.47","MONTREAL INTL A","7025251","2021-08-02 14:00","2021","08","02","14:00","23.2","","9.3","","41","","","","29","","14","","48.3","","100.91","","","","","","NA"
"-73.74","45.47","MONTREAL INTL A","7025251","2021-08-02 15:00","2021","08","02","15:00","23.7","","8.6","","38","","","","28","","19","","48.3","","100.92","","","","","","NA"
"-73.74","45.47","MONTREAL INTL A","7025251","2021-08-02 16:00","2021","08","02","16:00","23.4","","8.3","","37","","","","28","","22","","48.3","","100.94","","","","","","Mostly Cloudy"
"-73.74","45.47","MONTREAL INTL A","7025251","2021-08-02 17:00","2021","08","02","17:00","23.6","","8.0","","36","","","","28","","26","","48.3","","100.98","","","","","","NA"
"-73.74","45.47","MONTREAL INTL A","7025251","2021-08-02 18:00","2021","08","02","18:00","22.9","","8.5","","39","","","","28","","16","","48.3","","101.00","","","","","","NA"
"-73.74","45.47","MONTREAL INTL A","7025251","2021-08-02 19:00","2021","08","02","19:00","21.6","","9.4","","45","","","","26","","13","","48.3","","101.04","","","","","","Clear"
"-73.74","45.47","MONTREAL INTL A","7025251","2021-08-02 20:00","2021","08","02","20:00","19.0","","10.4","","57","","","","24","","14","","24.1","","101.07","","","","","","NA"
"-73.74","45.47","MONTREAL INTL A","7025251","2021-08-02 21:00","2021","08","02","21:00","18.6","","10.6","","59","","","","24","","16","","24.1","","101.11","","","","","","NA"
"-73.74","45.47","MONTREAL INTL A","7025251","2021-08-02 22:00","2021","08","02","22:00","18.0","","10.9","","63","","","","24","","16","","24.1","","101.13","","","","","","Clear"
"-73.74","45.47","MONTREAL INTL A","7025251","2021-08-02 23:00","2021","08","02","23:00","17.5","","12.5","","72","","","","22","","14","","24.1","","101.17","","","","","","NA"
"-73.74","45.47","MONTREAL INTL A","7025251","2021-08-03 00:00","2021","08","03","00:00","17.6","","12.4","","72","","","","23","","21","","24.1","","101.21","","","","","","NA"
"-73.74","45.47","MONTREAL INTL A","7025251","2021-08-03 01:00","2021","08","03","01:00","17.2","","13.6","","79","","","","21","","15","","24.1","","101.18","","","","","","Clear"
"-73.74","45.47","MONTREAL INTL A","7025251","2021-08-03 02:00","2021","08","03","02:00","16.6","","13.4","","81","","","","22","","18","","24.1","","101.16","","","","","","NA"
"-73.74","45.47","MONTREAL INTL A","7025251","2021-08-03 03:00","2021","08","03","03:00","16.7","","13.5","","81","","","","24","","21","","24.1","","101.16","","","","","","NA"
"-73.74","45.47","MONTREAL INTL A","7025251","2021-08-03 04:00","2021","08","03","04:00","16.3","","14.2","","87","","","","23","","17","","24.1","","101.17","","","","","","Clear"
"-73.74","45.47","MONTREAL INTL A","7025251","2021-08-03 05:00","2021","08","03","05:00","16.4","","14.0","","86","","","","23","","18","","48.3","","101.18","","","","","","NA"
"-73.74","45.47","MONTREAL INTL A","7025251","2021-08-03 06:00","2021","08","03","06:00","17.1","","14.0","","82","","","","22","","26","","48.3","","101.18","","","","","","NA"
"-73.74","45.47","MONTREAL INTL A","7025251","2021-08-03 07:00","2021","08","03","07:00","18.3","","13.6","","74","","","","23","","28","","48.3","","101.21","","","","","","Clear"
"-73.74","45.47","MONTREAL INTL A","7025251","2021-08-03 08:00","2021","08","03","08:00","19.6","","13.7","","69","","","","22","","26","","48.3","","101.25","","","","","","NA"
"-73.74","45.47","MONTREAL INTL A","7025251","2021-08-03 09:00","2021","08","03","09:00","20.8","","13.7","","64","","","","22","","27","","48.3","","101.25","","","","","","NA"
"-73.74","45.47","MONTREAL INTL A","7025251","2021-08-03 10:00","2021","08","03","10:00","22.8","","14.8","","60","","","","21","","25","","48.3","","101.26","","27","","","","Clear"
"-73.74","45.47","MONTREAL INTL A","7025251","2021-08-03 11:00","2021","08","03","11:00","23.4","","14.6","","57","","","","22","","32","","48.3","","101.24","","27","","","","NA"
"-73.74","45.47","MONTREAL INTL A","7025251","2021-08-03 12:00","2021","08","03","12:00","24.8","","14.0","","50","","","","23","","31","","48.3","","101.21","","28","","","","NA"
"-73.74","45.47","MONTREAL INTL A","7025251","2021-08-03 13:00","2021","08","03","13:00","25.7","","14.3","","49","","","","22","","31","","48.3","","101.17","","29","","","","Mainly Clear"
"-73.74","45.47","MONTREAL INTL A","7025251","2021-08-03 14:00","2021","08","03","14:00","25.8","","13.7","","47","","","","22","","31","","48.3","","101.16","","29","","","","NA"
"-73.74","45.47","MONTREAL INTL A","7025251","2021-08-03 15:00","2021","08","03","15:00","26.0","","14.9","","50","","","","23","","26","","48.3","","101.16","","30","","","","NA"
"-73.74","45.47","MONTREAL INTL A","7025251","2021-08-03 16:00","2021","08","03","16:00","25.6","","15.2","","52","","","","23","","21","","48.3","","101.15","","30","","","","Mainly Clear"
"-73.74","45.47","MONTREAL INTL A","7025251","2021-08-03 17:00","2021","08","03","17:00","25.3","","15.0","","52","","","","22","","27","","48.3","","101.15","","29","","","","NA"
"-73.74","45.47","MONTREAL INTL A","7025251","2021-08-03 18:00","2021","08","03","18:00","24.4","","15.4","","57","","","","22","","24","","48.3","","101.16","","29","","","","NA"
"-73.74","45.47","MONTREAL INTL A","7025251","2021-08-03 19:00","2021","08","03","19:00","23.3","","15.1","","59","","","","23","","21","","48.3","","101.22","","27","","","","Clear"
"-73.74","45.47","MONTREAL INTL A","7025251","2021-08-03 20:00","2021","08","03","20:00","22.5","","14.9","","61","","","","23","","20","","48.3","","101.26","","26","","","","NA"
"-73.74","45.47","MONTREAL INTL A","7025251","2021-08-03 21:00","2021","08","03","21:00","21.6","","15.6","","68","","","","23","","12","","24.1","","101.29","","26","","","","NA"
"-73.74","45.47","MONTREAL INTL A","7025251","2021-08-03 22:00","2021","08","03","22:00","20.9","","15.8","","72","","","","23","","17","","24.1","","101.29","","25","","","","Clear"
"-73.74","45.47","MONTREAL INTL A","7025251","2021-08-03 23:00","2021","08","03","23:00","20.7","","16.0","","74","","","","22","","15","","24.1","","101.36","","25","","","","NA"
"-73.74","45.47","MONTREAL INTL A","7025251","2021-08-04 00:00","2021","08","04","00:00","20.3","","15.2","","72","","","","24","","9","","24.1","","101.37","","","","","","NA"
"-73.74","45.47","MONTREAL INTL A","7025251","2021-08-04 01:00","2021","08","04","01:00","19.8","","14.1","","69","","","","24","","13","","24.1","","101.36","","","","","","Cloudy"
"-73.74","45.47","MONTREAL INTL A","7025251","2021-08-04 02:00","2021","08","04","02:00","18.7","","13.7","","72","","","","24","","6","","24.1","","101.36","","","","","","NA"
"-73.74","45.47","MONTREAL INTL A","7025251","2021-08-04 03:00","2021","08","04","03:00","18.1","","13.6","","75","","","","23","","11","","24.1","","101.38","","","","","","NA"
"-73.74","45.47","MONTREAL INTL A","7025251","2021-08-04 04:00","2021","08","04","04:00","17.0","","13.3","","79","","","","26","","7","","24.1","","101.40","","","","","","Mainly Clear"
"-73.74","45.47","MONTREAL INTL A","7025251","2021-08-04 05:00","2021","08","04","05:00","16.8","","13.6","","81","","","","25","","9","","24.1","","101.44","","","","","","NA"
"-73.74","45.47","MONTREAL INTL A","7025251","2021-08-04 06:00","2021","08","04","06:00","18.0","","14.7","","81","","","","22","","7","","24.1","","101.51","","","","","","NA"
"-73.74","45.47","MONTREAL INTL A","7025251","2021-08-04 07:00","2021","08","04","07:00","19.1","","13.9","","72","","","","25","","13","","24.1","","101.56","","","","","","Mainly Clear"
"-73.74","45.47","MONTREAL INTL A","7025251","2021-08-04 08:00","2021","08","04","08:00","20.2","","14.6","","70","","","","23","","14","","24.1","","101.60","","","","","","NA"
"-73.74","45.47","MONTREAL INTL A","7025251","2021-08-04 09:00","2021","08","04","09:00","20.7","","15.4","","71","","","","21","","13","","24.1","","101.61","","25","","","","NA"
"-73.74","45.47","MONTREAL INTL A","7025251","2021-08-04 10:00","2021","08","04","10:00","22.4","","15.9","","66","","","","21","","14","","24.1","","101.65","","27","","","","Mostly Cloudy"
"-73.74","45.47","MONTREAL INTL A","7025251","2021-08-04 11:00","2021","08","04","11:00","23.0","","16.2","","65","","","","20","","10","","24.1","","101.66","","28","","","","NA"
"-73.74","45.47","MONTREAL INTL A","7025251","2021-08-04 12:00","2021","08","04","12:00","24.1","","16.1","","60","","","","21","","14","","24.1","","101.65","","29","","","","NA"
"-73.74","45.47","MONTREAL INTL A","7025251","2021-08-04 13:00","2021","08","04","13:00","24.9","","16.3","","58","","","","20","","16","","24.1","","101.63","","30","","","","Mainly Clear"
"-73.74","45.47","MONTREAL INTL A","7025251","2021-08-04 14:00","2021","08","04","14:00","25.6","","16.0","","55","","","","22","","13","","24.1","","101.61","","30","","","","NA"
"-73.74","45.47","MONTREAL INTL A","7025251","2021-08-04 15:00","2021","08","04","15:00","25.7","","15.6","","53","","","","19","","14","","24.1","","101.58","","30","","","","NA"
"-73.74","45.47","MONTREAL INTL A","7025251","2021-08-04 16:00","2021","08","04","16:00","26.3","","14.4","","47","","","","18","","16","","24.1","","101.57","","30","","","","Mostly Cloudy"
"-73.74","45.47","MONTREAL INTL A","7025251","2021-08-04 17:00","2021","08","04","17:00","25.8","","14.1","","48","","","","19","","14","","48.3","","101.54","","29","","","","NA"
"-73.74","45.47","MONTREAL INTL A","7025251","2021-08-04 18:00","2021","08","04","18:00","25.2","","14.2","","50","","","","20","","12","","48.3","","101.55","","29","","","","NA"
"-73.74","45.47","MONTREAL INTL A","7025251","2021-08-04 19:00","2021","08","04","19:00","23.2","","14.2","","56","","","","25","","6","","24.1","","101.54","","27","","","","Mainly Clear"
"-73.74","45.47","MONTREAL INTL A","7025251","2021-08-04 20:00","2021","08","04","20:00","21.8","","15.0","","65","","","","25","","5","","24.1","","101.55","","26","","","","NA"
"-73.74","45.47","MONTREAL INTL A","7025251","2021-08-04 21:00","2021","08","04","21:00","20.5","","14.2","","67","","","","36","","2","","24.1","","101.59","","","","","","NA"
"-73.74","45.47","MONTREAL INTL A","7025251","2021-08-04 22:00","2021","08","04","22:00","20.3","","14.7","","70","","","","14","","3","","24.1","","101.62","","","","","","Clear"
"-73.74","45.47","MONTREAL INTL A","7025251","2021-08-04 23:00","2021","08","04","23:00","19.6","","14.8","","73","","","","36","","3","","24.1","","101.60","","","","","","NA"
"-73.74","45.47","MONTREAL INTL A","7025251","2021-08-05 00:00","2021","08","05","00:00","20.8","","15.5","","71","","","","14","","6","","24.1","","101.60","","25","","","","NA"
"-73.74","45.47","MONTREAL INTL A","7025251","2021-08-05 01:00","2021","08","05","01:00","19.3","","15.4","","78","","","","10","","4","","24.1","","101.59","","","","","","Clear"
"-73.74","45.47","MONTREAL INTL A","7025251","2021-08-05 02:00","2021","08","05","02:00","19.8","","15.2","","75","","","","12","","7","","24.1","","101.57","","","","","","NA"
"-73.74","45.47","MONTREAL INTL A","7025251","2021-08-05 03:00","2021","08","05","03:00","18.9","","15.3","","79","","","","14","","3","","24.1","","101.54","","","","","","NA"
"-73.74","45.47","MONTREAL INTL A","7025251","2021-08-05 04:00","2021","08","05","04:00","16.3","","14.2","","87","","","","5","","5","","24.1","","101.53","","","","","","Clear"
"-73.74","45.47","MONTREAL INTL A","7025251","2021-08-05 05:00","2021","08","05","05:00","16.1","","14.5","","90","","","","9","","4","","24.1","","101.54","","","","","","NA"
"-73.74","45.47","MONTREAL INTL A","7025251","2021-08-05 06:00","2021","08","05","06:00","18.5","","15.7","","83","","","","36","","1","","24.1","","101.56","","","","","","NA"
"-73.74","45.47","MONTREAL INTL A","7025251","2021-08-05 07:00","2021","08","05","07:00","19.8","","16.2","","79","","","","0","","1","","24.1","","101.59","","","","","","Mostly Cloudy"
"-73.74","45.47","MONTREAL INTL A","7025251","2021-08-05 08:00","2021","08","05","08:00","22.5","","16.4","","68","","","","12","","5","","24.1","","101.59","","27","","","","NA"
"-73.74","45.47","MONTREAL INTL A","7025251","2021-08-05 09:00","2021","08","05","09:00","23.8","","16.3","","62","","","","14","","3","","24.1","","101.56","","29","","","","NA"
"-73.74","45.47","MONTREAL INTL A","7025251","2021-08-05 10:00","2021","08","05","10:00","25.4","","16.1","","56","","","","15","","6","","24.1","","101.54","","30","","","","Mainly Clear"
"-73.74","45.47","MONTREAL INTL A","7025251","2021-08-05 11:00","2021","08","05","11:00","26.7","","16.1","","52","","","","25","","6","","48.3","","101.52","","31","","","","NA"
"-73.74","45.47","MONTREAL INTL A","7025251","2021-08-05 12:00","2021","08","05","12:00","28.0","","15.5","","46","","","","17","","13","","48.3","","101.43","","32","","","","NA"
"-73.74","45.47","MONTREAL INTL A","7025251","2021-08-05 13:00","2021","08","05","13:00","28.6","","15.6","","45","","","","19","","14","","48.3","","101.39","","33","","","","Mainly Clear"
"-73.74","45.47","MONTREAL INTL A","7025251","2021-08-05 14:00","2021","08","05","14:00","28.3","","16.2","","47","","","","19","","13","","48.3","","101.34","","33","","","","NA"
"-73.74","45.47","MONTREAL INTL A","7025251","2021-08-05 15:00","2021","08","05","15:00","28.6","","15.7","","45","","","","19","","12","","48.3","","101.31","","33","","","","NA"
"-73.74","45.47","MONTREAL INTL A","7025251","2021-08-05 16:00","2021","08","05","16:00","28.5","","14.6","","42","","","","21","","14","","48.3","","101.26","","32","","","","Mainly Clear"
"-73.74","45.47","MONTREAL INTL A","7025251","2021-08-05 17:00","2021","08","05","17:00","28.1","","13.7","","41","","","","20","","14","","48.3","","101.24","","31","","","","NA"
"-73.74","45.47","MONTREAL INTL A","7025251","2021-08-05 18:00","2021","08","05","18:00","27.3","","14.6","","45","","","","23","","14","","48.3","","101.22","","31","","","","NA"
"-73.74","45.47","MONTREAL INTL A","7025251","2021-08-05 19:00","2021","08","05","19:00","25.6","","15.7","","54","","","","28","","8","","24.1","","101.22","","30","","","","Mainly Clear"
"-73.74","45.47","MONTREAL INTL A","7025251","2021-08-05 20:00","2021","08","05","20:00","24.1","","15.6","","59","","","","25","","7","","24.1","","101.27","","28","","","","NA"
"-73.74","45.47","MONTREAL INTL A","7025251","2021-08-05 21:00","2021","08","05","21:00","22.9","","15.9","","64","","","","26","","7","","24.1","","101.30","","27","","","","NA"
"-73.74","45.47","MONTREAL INTL A","7025251","2021-08-05 22:00","2021","08","05","22:00","22.4","","17.6","","74","","","","20","","7","","24.1","","101.29","","28","","","","Clear"
"-73.74","45.47","MONTREAL INTL A","7025251","2021-08-05 23:00","2021","08","05","23:00","21.5","","17.0","","75","","","","22","","6","","24.1","","101.30","","27","","","","NA"
"-73.74","45.47","MONTREAL INTL A","7025251","2021-08-06 00:00","2021","08","06","00:00","21.4","","17.7","","79","","","","22","","8","","24.1","","101.34","","27","","","","NA"
"-73.74","45.47","MONTREAL INTL A","7025251","2021-08-06 01:00","2021","08","06","01:00","21.4","","17.8","","80","","","","23","","15","","24.1","","101.34","","27","","","","Clear"
"-73.74","45.47","MONTREAL INTL A","7025251","2021-08-06 02:00","2021","08","06","02:00","20.6","","17.2","","80","","","","23","","12","","24.1","","101.37","","26","","","","NA"
"-73.74","45.47","MONTREAL INTL A","7025251","2021-08-06 03:00","2021","08","06","03:00","20.4","","17.2","","82","","","","22","","14","","19.3","","101.37","","26","","","","NA"
"-73.74","45.47","MONTREAL INTL A","7025251","2021-08-06 04:00","2021","08","06","04:00","19.8","","16.8","","83","","","","23","","15","","19.3","","101.37","","","","","","Clear"
"-73.74","45.47","MONTREAL INTL A","7025251","2021-08-06 05:00","2021","08","06","05:00","19.2","","17.0","","87","","","","23","","10","","16.1","","101.39","","","","","","NA"
"-73.74","45.47","MONTREAL INTL A","7025251","2021-08-06 06:00","2021","08","06","06:00","20.1","","16.6","","80","","","","23","","17","","19.3","","101.42","","25","","","","NA"
"-73.74","45.47","MONTREAL INTL A","7025251","2021-08-06 07:00","2021","08","06","07:00","21.0","","16.4","","75","","","","23","","17","","19.3","","101.46","","26","","","","Mainly Clear"
"-73.74","45.47","MONTREAL INTL A","7025251","2021-08-06 08:00","2021","08","06","08:00","23.0","","16.2","","65","","","","25","","20","","24.1","","101.46","","28","","","","NA"
"-73.74","45.47","MONTREAL INTL A","7025251","2021-08-06 09:00","2021","08","06","09:00","24.6","","17.1","","62","","","","20","","17","","24.1","","101.45","","30","","","","NA"
"-73.74","45.47","MONTREAL INTL A","7025251","2021-08-06 10:00","2021","08","06","10:00","25.7","","16.3","","56","","","","21","","20","","24.1","","101.46","","31","","","","Mostly Cloudy"
"-73.74","45.47","MONTREAL INTL A","7025251","2021-08-06 11:00","2021","08","06","11:00","27.0","","16.2","","51","","","","20","","21","","24.1","","101.44","","32","","","","NA"
"-73.74","45.47","MONTREAL INTL A","7025251","2021-08-06 12:00","2021","08","06","12:00","28.1","","14.8","","44","","","","20","","21","","24.1","","101.40","","32","","","","NA"
"-73.74","45.47","MONTREAL INTL A","7025251","2021-08-06 13:00","2021","08","06","13:00","29.3","","14.4","","39","","","","19","","19","","24.1","","101.36","","33","","","","Mostly Cloudy"
"-73.74","45.47","MONTREAL INTL A","7025251","2021-08-06 14:00","2021","08","06","14:00","29.7","","14.3","","38","","","","20","","19","","24.1","","101.33","","33","","","","NA"
"-73.74","45.47","MONTREAL INTL A","7025251","2021-08-06 15:00","2021","08","06","15:00","30.0","","14.8","","39","","","","22","","23","","48.3","","101.27","","34","","","","NA"
"-73.74","45.47","MONTREAL INTL A","7025251","2021-08-06 16:00","2021","08","06","16:00","30.1","","14.1","","37","","","","21","","23","","48.3","","101.21","","34","","","","Mainly Clear"
"-73.74","45.47","MONTREAL INTL A","7025251","2021-08-06 17:00","2021","08","06","17:00","29.4","","14.4","","39","","","","22","","24","","48.3","","101.15","","33","","","","NA"
"-73.74","45.47","MONTREAL INTL A","7025251","2021-08-06 18:00","2021","08","06","18:00","28.7","","15.1","","43","","","","22","","19","","48.3","","101.12","","33","","","","NA"
"-73.74","45.47","MONTREAL INTL A","7025251","2021-08-06 19:00","2021","08","06","19:00","27.2","","15.4","","48","","","","20","","17","","24.1","","101.11","","31","","","","Mostly Cloudy"
"-73.74","45.47","MONTREAL INTL A","7025251","2021-08-06 20:00","2021","08","06","20:00","26.2","","16.2","","54","","","","20","","14","","24.1","","101.13","","31","","","","NA"
"-73.74","45.47","MONTREAL INTL A","7025251","2021-08-06 21:00","2021","08","06","21:00","25.1","","15.5","","55","","","","22","","20","","24.1","","101.15","","29","","","","NA"
"-73.74","45.47","MONTREAL INTL A","7025251","2021-08-06 22:00","2021","08","06","22:00","23.3","","15.3","","60","","","","23","","10","","24.1","","101.12","","27","","","","Clear"
"-73.74","45.47","MONTREAL INTL A","7025251","2021-08-06 23:00","2021","08","06","23:00","23.0","","16.1","","65","","","","22","","13","","24.1","","101.14","","28","","","","NA"
"-73.74","45.47","MONTREAL INTL A","7025251","2021-08-07 00:00","2021","08","07","00:00","22.3","","16.2","","68","","","","22","","10","","24.1","","101.13","","27","","","","NA"
"-73.74","45.47","MONTREAL INTL A","7025251","2021-08-07 01:00","2021","08","07","01:00","21.6","","16.6","","73","","","","20","","11","","24.1","","101.12","","27","","","","Mostly Cloudy"
"-73.74","45.47","MONTREAL INTL A","7025251","2021-08-07 02:00","2021","08","07","02:00","20.8","","16.4","","76","","","","25","","4","","24.1","","101.10","","26","","","","NA"
"-73.74","45.47","MONTREAL INTL A","7025251","2021-08-07 03:00","2021","08","07","03:00","20.8","","16.2","","75","","","","26","","4","","24.1","","101.06","","26","","","","NA"
"-73.74","45.47","MONTREAL INTL A","7025251","2021-08-07 04:00","2021","08","07","04:00","19.6","","16.1","","80","","","","25","","4","","24.1","","101.04","","","","","","Mainly Clear"
"-73.74","45.47","MONTREAL INTL A","7025251","2021-08-07 05:00","2021","08","07","05:00","20.7","","16.7","","78","","","","14","","7","","24.1","","101.04","","26","","","","NA"
"-73.74","45.47","MONTREAL INTL A","7025251","2021-08-07 06:00","2021","08","07","06:00","20.9","","16.5","","76","","","","15","","8","","24.1","","101.05","","26","","","","NA"
"-73.74","45.47","MONTREAL INTL A","7025251","2021-08-07 07:00","2021","08","07","07:00","22.6","","16.2","","67","","","","14","","4","","24.1","","101.08","","27","","","","Mostly Cloudy"
"-73.74","45.47","MONTREAL INTL A","7025251","2021-08-07 08:00","2021","08","07","08:00","23.8","","16.6","","64","","","","19","","8","","24.1","","101.05","","29","","","","NA"
"-73.74","45.47","MONTREAL INTL A","7025251","2021-08-07 09:00","2021","08","07","09:00","24.6","","17.0","","62","","","","18","","18","","24.1","","101.03","","30","","","","NA"
"-73.74","45.47","MONTREAL INTL A","7025251","2021-08-07 10:00","2021","08","07","10:00","24.9","","17.7","","64","","","","21","","19","","24.1","","101.02","","31","","","","Cloudy"
"-73.74","45.47","MONTREAL INTL A","7025251","2021-08-07 11:00","2021","08","07","11:00","25.6","","18.9","","66","","","","22","","22","","24.1","","100.98","","32","","","","NA"
"-73.74","45.47","MONTREAL INTL A","7025251","2021-08-07 12:00","2021","08","07","12:00","24.0","","20.8","","82","","","","23","","18","","24.1","","100.96","","32","","","","Rain Showers"
"-73.74","45.47","MONTREAL INTL A","7025251","2021-08-07 13:00","2021","08","07","13:00","27.2","","20.3","","65","","","","27","","18","","24.1","","100.96","","35","","","","Cloudy"
"-73.74","45.47","MONTREAL INTL A","7025251","2021-08-07 14:00","2021","08","07","14:00","28.2","","19.3","","58","","","","27","","19","","48.3","","100.94","","35","","","","NA"
"-73.74","45.47","MONTREAL INTL A","7025251","2021-08-07 15:00","2021","08","07","15:00","27.4","","18.1","","56","","","","25","","25","","24.1","","100.95","","33","","","","NA"
"-73.74","45.47","MONTREAL INTL A","7025251","2021-08-07 16:00","2021","08","07","16:00","26.6","","18.1","","59","","","","28","","19","","24.1","","100.97","","33","","","","Mostly Cloudy"
"-73.74","45.47","MONTREAL INTL A","7025251","2021-08-07 17:00","2021","08","07","17:00","26.5","","18.8","","62","","","","26","","17","","24.1","","100.99","","33","","","","NA"
"-73.74","45.47","MONTREAL INTL A","7025251","2021-08-07 18:00","2021","08","07","18:00","26.1","","18.9","","64","","","","26","","18","","24.1","","101.01","","33","","","","NA"
"-73.74","45.47","MONTREAL INTL A","7025251","2021-08-07 19:00","2021","08","07","19:00","24.0","","20.1","","79","","","","21","","14","","24.1","","101.03","","32","","","","Cloudy"
"-73.74","45.47","MONTREAL INTL A","7025251","2021-08-07 20:00","2021","08","07","20:00","22.5","","20.7","","90","","","","24","","12","","24.1","","101.10","","31","","","","NA"
"-73.74","45.47","MONTREAL INTL A","7025251","2021-08-07 21:00","2021","08","07","21:00","22.6","","20.4","","87","","","","22","","5","","24.1","","101.19","","31","","","","NA"
"-73.74","45.47","MONTREAL INTL A","7025251","2021-08-07 22:00","2021","08","07","22:00","22.2","","20.3","","89","","","","36","","2","","24.1","","101.22","","30","","","","Mostly Cloudy"
"-73.74","45.47","MONTREAL INTL A","7025251","2021-08-07 23:00","2021","08","07","23:00","21.7","","19.7","","88","","","","5","","15","","24.1","","101.27","","29","","","","NA"
"-73.74","45.47","MONTREAL INTL A","7025251","2021-08-08 00:00","2021","08","08","00:00","21.5","","18.3","","81","","","","5","","20","","24.1","","101.29","","28","","","","NA"
"-73.74","45.47","MONTREAL INTL A","7025251","2021-08-08 01:00","2021","08","08","01:00","20.7","","17.1","","79","","","","6","","17","","24.1","","101.27","","26","","","","Mainly Clear"
"-73.74","45.47","MONTREAL INTL A","7025251","2021-08-08 02:00","2021","08","08","02:00","20.5","","16.3","","77","","","","7","","21","","24.1","","101.27","","25","","","","NA"
"-73.74","45.47","MONTREAL INTL A","7025251","2021-08-08 03:00","2021","08","08","03:00","19.7","","15.7","","77","","","","5","","23","","24.1","","101.29","","","","","","NA"
"-73.74","45.47","MONTREAL INTL A","7025251","2021-08-08 04:00","2021","08","08","04:00","19.6","","15.6","","77","","","","5","","14","","24.1","","101.30","","","","","","Cloudy"
"-73.74","45.47","MONTREAL INTL A","7025251","2021-08-08 05:00","2021","08","08","05:00","19.3","","15.1","","76","","","","4","","21","","24.1","","101.33","","","","","","NA"
"-73.74","45.47","MONTREAL INTL A","7025251","2021-08-08 06:00","2021","08","08","06:00","19.6","","14.6","","73","","","","6","","15","","24.1","","101.39","","","","","","NA"
"-73.74","45.47","MONTREAL INTL A","7025251","2021-08-08 07:00","2021","08","08","07:00","20.3","","14.7","","70","","","","6","","15","","24.1","","101.43","","","","","","Mainly Clear"
"-73.74","45.47","MONTREAL INTL A","7025251","2021-08-08 08:00","2021","08","08","08:00","20.9","","14.6","","67","","","","3","","15","","24.1","","101.50","","25","","","","NA"
"-73.74","45.47","MONTREAL INTL A","7025251","2021-08-08 09:00","2021","08","08","09:00","22.4","","14.7","","62","","","","7","","17","","24.1","","101.51","","26","","","","NA"
"-73.74","45.47","MONTREAL INTL A","7025251","2021-08-08 10:00","2021","08","08","10:00","23.7","","14.4","","55","","","","5","","12","","24.1","","101.53","","27","","","","Mostly Cloudy"
"-73.74","45.47","MONTREAL INTL A","7025251","2021-08-08 11:00","2021","08","08","11:00","25.2","","15.6","","55","","","","5","","16","","24.1","","101.48","","30","","","","NA"
"-73.74","45.47","MONTREAL INTL A","7025251","2021-08-08 12:00","2021","08","08","12:00","25.5","","16.2","","56","","","","2","","9","","24.1","","101.48","","30","","","","NA"
"-73.74","45.47","MONTREAL INTL A","7025251","2021-08-08 13:00","2021","08","08","13:00","27.3","","16.8","","52","","","","3","","13","","24.1","","101.41","","32","","","","Mostly Cloudy"
"-73.74","45.47","MONTREAL INTL A","7025251","2021-08-08 14:00","2021","08","08","14:00","27.6","","17.2","","52","","","","3","","21","","48.3","","101.40","","33","","","","NA"
"-73.74","45.47","MONTREAL INTL A","7025251","2021-08-08 15:00","2021","08","08","15:00","28.2","","17.3","","51","","","","6","","17","","48.3","","101.38","","34","","","","NA"
"-73.74","45.47","MONTREAL INTL A","7025251","2021-08-08 16:00","2021","08","08","16:00","27.3","","17.4","","54","","","","7","","18","","48.3","","101.37","","33","","","","Mostly Cloudy"
"-73.74","45.47","MONTREAL INTL A","7025251","2021-08-08 17:00","2021","08","08","17:00","27.1","","17.4","","55","","","","5","","16","","48.3","","101.42","","33","","","","NA"
"-73.74","45.47","MONTREAL INTL A","7025251","2021-08-08 18:00","2021","08","08","18:00","26.6","","17.6","","57","","","","7","","9","","24.1","","101.43","","32","","","","NA"
"-73.74","45.47","MONTREAL INTL A","7025251","2021-08-08 19:00","2021","08","08","19:00","25.3","","18.3","","65","","","","16","","8","","24.1","","101.40","","32","","","","Mostly Cloudy"
"-73.74","45.47","MONTREAL INTL A","7025251","2021-08-08 20:00","2021","08","08","20:00","23.5","","19.0","","75","","","","33","","4","","24.1","","101.40","","30","","","","NA"
"-73.74","45.47","MONTREAL INTL A","7025251","2021-08-08 21:00","2021","08","08","21:00","23.5","","17.6","","69","","","","5","","14","","24.1","","101.41","","29","","","","NA"
"-73.74","45.47","MONTREAL INTL A","7025251","2021-08-08 22:00","2021","08","08","22:00","23.5","","17.2","","67","","","","5","","15","","24.1","","101.39","","29","","","","Cloudy"
"-73.74","45.47","MONTREAL INTL A","7025251","2021-08-08 23:00","2021","08","08","23:00","22.8","","17.6","","72","","","","3","","12","","24.1","","101.38","","29","","","","NA"
"-73.74","45.47","MONTREAL INTL A","7025251","2021-08-09 00:00","2021","08","09","00:00","21.9","","17.8","","77","","","","4","","9","","24.1","","101.42","","28","","","","NA"
"-73.74","45.47","MONTREAL INTL A","7025251","2021-08-09 01:00","2021","08","09","01:00","21.6","","17.7","","78","","","","2","","13","","24.1","","101.43","","27","","","","Cloudy"
"-73.74","45.47","MONTREAL INTL A","7025251","2021-08-09 02:00","2021","08","09","02:00","20.9","","17.6","","81","","","","2","","12","","24.1","","101.42","","27","","","","NA"
"-73.74","45.47","MONTREAL INTL A","7025251","2021-08-09 03:00","2021","08","09","03:00","21.0","","17.8","","81","","","","2","","8","","24.1","","101.45","","27","","","","NA"
"-73.74","45.47","MONTREAL INTL A","7025251","2021-08-09 04:00","2021","08","09","04:00","21.3","","17.7","","80","","","","1","","4","","24.1","","101.46","","27","","","","Cloudy"
"-73.74","45.47","MONTREAL INTL A","7025251","2021-08-09 05:00","2021","08","09","05:00","20.7","","17.3","","81","","","","35","","4","","24.1","","101.51","","26","","","","NA"
"-73.74","45.47","MONTREAL INTL A","7025251","2021-08-09 06:00","2021","08","09","06:00","20.6","","16.9","","79","","","","36","","4","","24.1","","101.52","","26","","","","NA"
"-73.74","45.47","MONTREAL INTL A","7025251","2021-08-09 07:00","2021","08","09","07:00","21.7","","18.1","","80","","","","26","","6","","24.1","","101.62","","28","","","","Cloudy"
"-73.74","45.47","MONTREAL INTL A","7025251","2021-08-09 08:00","2021","08","09","08:00","22.4","","20.4","","88","","","","17","","14","","24.1","","101.59","","30","","","","NA"
"-73.74","45.47","MONTREAL INTL A","7025251","2021-08-09 09:00","2021","08","09","09:00","23.2","","20.3","","84","","","","18","","9","","24.1","","101.58","","31","","","","NA"
"-73.74","45.47","MONTREAL INTL A","7025251","2021-08-09 10:00","2021","08","09","10:00","24.5","","20.1","","76","","","","21","","8","","24.1","","101.59","","32","","","","Mostly Cloudy"
"-73.74","45.47","MONTREAL INTL A","7025251","2021-08-09 11:00","2021","08","09","11:00","27.1","","20.1","","65","","","","16","","10","","24.1","","101.56","","35","","","","NA"
"-73.74","45.47","MONTREAL INTL A","7025251","2021-08-09 12:00","2021","08","09","12:00","28.2","","18.6","","55","","","","15","","9","","24.1","","101.52","","35","","","","NA"
"-73.74","45.47","MONTREAL INTL A","7025251","2021-08-09 13:00","2021","08","09","13:00","29.1","","18.4","","52","","","","14","","14","","24.1","","101.47","","35","","","","Mostly Cloudy"
"-73.74","45.47","MONTREAL INTL A","7025251","2021-08-09 14:00","2021","08","09","14:00","29.8","","19.4","","53","","","","18","","8","","48.3","","101.43","","37","","","","NA"
"-73.74","45.47","MONTREAL INTL A","7025251","2021-08-09 15:00","2021","08","09","15:00","29.5","","19.8","","55","","","","25","","11","","48.3","","101.43","","37","","","","NA"
"-73.74","45.47","MONTREAL INTL A","7025251","2021-08-09 16:00","2021","08","09","16:00","29.9","","20.4","","56","","","","24","","9","","48.3","","101.39","","38","","","","Mostly Cloudy"
"-73.74","45.47","MONTREAL INTL A","7025251","2021-08-09 17:00","2021","08","09","17:00","29.9","","20.6","","57","","","","19","","9","","48.3","","101.38","","38","","","","NA"
"-73.74","45.47","MONTREAL INTL A","7025251","2021-08-09 18:00","2021","08","09","18:00","29.0","","20.6","","60","","","","14","","15","","48.3","","101.36","","37","","","","NA"
"-73.74","45.47","MONTREAL INTL A","7025251","2021-08-09 19:00","2021","08","09","19:00","28.1","","20.4","","62","","","","14","","13","","24.1","","101.39","","36","","","","Mainly Clear"
"-73.74","45.47","MONTREAL INTL A","7025251","2021-08-09 20:00","2021","08","09","20:00","27.4","","20.0","","63","","","","15","","13","","24.1","","101.43","","35","","","","NA"
"-73.74","45.47","MONTREAL INTL A","7025251","2021-08-09 21:00","2021","08","09","21:00","26.3","","19.8","","67","","","","15","","12","","24.1","","101.45","","34","","","","NA"
"-73.74","45.47","MONTREAL INTL A","7025251","2021-08-09 22:00","2021","08","09","22:00","25.5","","19.8","","70","","","","14","","13","","24.1","","101.43","","33","","","","Clear"
"-73.74","45.47","MONTREAL INTL A","7025251","2021-08-09 23:00","2021","08","09","23:00","24.9","","19.5","","72","","","","14","","10","","24.1","","101.45","","32","","","","NA"
"-73.74","45.47","MONTREAL INTL A","7025251","2021-08-10 00:00","2021","08","10","00:00","24.1","","19.7","","76","","","","15","","9","","24.1","","101.46","","31","","","","NA"
"-73.74","45.47","MONTREAL INTL A","7025251","2021-08-10 01:00","2021","08","10","01:00","23.4","","19.6","","79","","","","14","","8","","24.1","","101.45","","31","","","","Clear"
"-73.74","45.47","MONTREAL INTL A","7025251","2021-08-10 02:00","2021","08","10","02:00","22.8","","19.5","","81","","","","13","","9","","24.1","","101.44","","30","","","","NA"
"-73.74","45.47","MONTREAL INTL A","7025251","2021-08-10 03:00","2021","08","10","03:00","22.4","","19.5","","84","","","","14","","11","","24.1","","101.42","","30","","","","NA"
"-73.74","45.47","MONTREAL INTL A","7025251","2021-08-10 04:00","2021","08","10","04:00","21.9","","19.2","","84","","","","14","","5","","24.1","","101.42","","29","","","","Clear"
"-73.74","45.47","MONTREAL INTL A","7025251","2021-08-10 05:00","2021","08","10","05:00","21.8","","19.2","","85","","","","13","","6","","24.1","","101.43","","29","","","","NA"
"-73.74","45.47","MONTREAL INTL A","7025251","2021-08-10 06:00","2021","08","10","06:00","22.4","","19.4","","83","","","","11","","7","","24.1","","101.43","","29","","","","NA"
"-73.74","45.47","MONTREAL INTL A","7025251","2021-08-10 07:00","2021","08","10","07:00","23.5","","19.6","","78","","","","15","","10","","24.1","","101.42","","31","","","","Clear"
"-73.74","45.47","MONTREAL INTL A","7025251","2021-08-10 08:00","2021","08","10","08:00","24.9","","20.1","","74","","","","15","","9","","24.1","","101.43","","33","","","","NA"
"-73.74","45.47","MONTREAL INTL A","7025251","2021-08-10 09:00","2021","08","10","09:00","26.8","","20.5","","68","","","","13","","13","","48.3","","101.39","","35","","","","NA"
"-73.74","45.47","MONTREAL INTL A","7025251","2021-08-10 10:00","2021","08","10","10:00","28.2","","20.9","","64","","","","14","","16","","24.1","","101.36","","37","","","","Mainly Clear"
"-73.74","45.47","MONTREAL INTL A","7025251","2021-08-10 11:00","2021","08","10","11:00","29.7","","20.5","","57","","","","12","","17","","48.3","","101.32","","38","","","","NA"
"-73.74","45.47","MONTREAL INTL A","7025251","2021-08-10 12:00","2021","08","10","12:00","29.9","","20.2","","55","","","","15","","18","","48.3","","101.23","","38","","","","NA"
"-73.74","45.47","MONTREAL INTL A","7025251","2021-08-10 13:00","2021","08","10","13:00","30.5","","20.4","","54","","","","14","","18","","48.3","","101.15","","38","","","","Mainly Clear"
"-73.74","45.47","MONTREAL INTL A","7025251","2021-08-10 14:00","2021","08","10","14:00","30.8","","20.4","","53","","","","14","","22","","48.3","","101.05","","39","","","","NA"
"-73.74","45.47","MONTREAL INTL A","7025251","2021-08-10 15:00","2021","08","10","15:00","31.1","","20.7","","53","","","","15","","21","","48.3","","100.96","","39","","","","NA"
"-73.74","45.47","MONTREAL INTL A","7025251","2021-08-10 16:00","2021","08","10","16:00","30.4","","20.5","","55","","","","14","","21","","48.3","","100.92","","38","","","","Mainly Clear"
"-73.74","45.47","MONTREAL INTL A","7025251","2021-08-10 17:00","2021","08","10","17:00","29.4","","21.0","","60","","","","14","","22","","48.3","","100.87","","38","","","","NA"
"-73.74","45.47","MONTREAL INTL A","7025251","2021-08-10 18:00","2021","08","10","18:00","28.7","","21.1","","63","","","","13","","20","","48.3","","100.81","","37","","","","NA"
"-73.74","45.47","MONTREAL INTL A","7025251","2021-08-10 19:00","2021","08","10","19:00","28.5","","21.0","","64","","","","16","","17","","24.1","","100.81","","37","","","","Mostly Cloudy"
"-73.74","45.47","MONTREAL INTL A","7025251","2021-08-10 20:00","2021","08","10","20:00","25.6","","23.1","","86","","","","21","","6","","24.1","","100.83","","36","","","","NA"
"-73.74","45.47","MONTREAL INTL A","7025251","2021-08-10 21:00","2021","08","10","21:00","23.3","","22.2","","93","","","","33","","9","","16.1","","100.85","","33","","","","Thunderstorms,Rain Showers"
"-73.74","45.47","MONTREAL INTL A","7025251","2021-08-10 22:00","2021","08","10","22:00","23.9","","22.6","","92","","","","11","","9","","24.1","","100.84","","34","","","","Mostly Cloudy"
"-73.74","45.47","MONTREAL INTL A","7025251","2021-08-10 23:00","2021","08","10","23:00","24.5","","22.3","","87","","","","11","","9","","24.1","","100.79","","34","","","","NA"
"-73.74","45.47","MONTREAL INTL A","7025251","2021-08-11 00:00","2021","08","11","00:00","24.2","","22.3","","89","","","","19","","16","","9.7","","100.81","","34","","","","Rain Showers,Fog"
"-73.74","45.47","MONTREAL INTL A","7025251","2021-08-11 01:00","2021","08","11","01:00","23.0","","22.1","","95","","","","14","","13","","19.3","","100.74","","32","","","","Mostly Cloudy"
"-73.74","45.47","MONTREAL INTL A","7025251","2021-08-11 02:00","2021","08","11","02:00","23.2","","22.1","","93","","","","15","","14","","24.1","","100.70","","33","","","","NA"
"-73.74","45.47","MONTREAL INTL A","7025251","2021-08-11 03:00","2021","08","11","03:00","23.2","","21.8","","91","","","","13","","9","","24.1","","100.65","","32","","","","NA"
"-73.74","45.47","MONTREAL INTL A","7025251","2021-08-11 04:00","2021","08","11","04:00","23.3","","22.2","","93","","","","12","","13","","24.1","","100.66","","33","","","","Cloudy"
"-73.74","45.47","MONTREAL INTL A","7025251","2021-08-11 05:00","2021","08","11","05:00","23.2","","21.8","","92","","","","14","","14","","24.1","","100.68","","32","","","","Rain Showers"
"-73.74","45.47","MONTREAL INTL A","7025251","2021-08-11 06:00","2021","08","11","06:00","23.3","","21.8","","91","","","","17","","14","","24.1","","100.70","","32","","","","NA"
"-73.74","45.47","MONTREAL INTL A","7025251","2021-08-11 07:00","2021","08","11","07:00","22.8","","22.0","","95","","","","20","","15","","3.2","","100.70","","32","","","","Rain Showers,Fog"
"-73.74","45.47","MONTREAL INTL A","7025251","2021-08-11 08:00","2021","08","11","08:00","23.5","","22.6","","95","","","","18","","16","","24.1","","100.70","","33","","","","NA"
"-73.74","45.47","MONTREAL INTL A","7025251","2021-08-11 09:00","2021","08","11","09:00","24.3","","23.1","","92","","","","23","","22","","24.1","","100.74","","35","","","","NA"
"-73.74","45.47","MONTREAL INTL A","7025251","2021-08-11 10:00","2021","08","11","10:00","25.3","","23.8","","91","","","","22","","25","","24.1","","100.68","","36","","","","Mostly Cloudy"
"-73.74","45.47","MONTREAL INTL A","7025251","2021-08-11 11:00","2021","08","11","11:00","27.8","","23.6","","78","","","","22","","18","","48.3","","100.69","","39","","","","NA"
"-73.74","45.47","MONTREAL INTL A","7025251","2021-08-11 12:00","2021","08","11","12:00","29.2","","23.0","","69","","","","20","","23","","48.3","","100.64","","39","","","","NA"
"-73.74","45.47","MONTREAL INTL A","7025251","2021-08-11 13:00","2021","08","11","13:00","29.5","","22.2","","65","","","","21","","23","","48.3","","100.60","","39","","","","Mainly Clear"
"-73.74","45.47","MONTREAL INTL A","7025251","2021-08-11 14:00","2021","08","11","14:00","30.4","","22.0","","60","","","","22","","26","","48.3","","100.65","","40","","","","NA"
"-73.74","45.47","MONTREAL INTL A","7025251","2021-08-11 15:00","2021","08","11","15:00","31.4","","22.2","","58","","","","22","","25","","48.3","","100.63","","41","","","","NA"
"-73.74","45.47","MONTREAL INTL A","7025251","2021-08-11 16:00","2021","08","11","16:00","30.0","","22.5","","63","","","","22","","21","","48.3","","100.60","","40","","","","Mainly Clear"
"-73.74","45.47","MONTREAL INTL A","7025251","2021-08-11 17:00","2021","08","11","17:00","29.8","","22.4","","64","","","","20","","16","","48.3","","100.53","","39","","","","NA"
"-73.74","45.47","MONTREAL INTL A","7025251","2021-08-11 18:00","2021","08","11","18:00","29.2","","22.9","","68","","","","23","","12","","48.3","","100.52","","39","","","","NA"
"-73.74","45.47","MONTREAL INTL A","7025251","2021-08-11 19:00","2021","08","11","19:00","28.1","","22.8","","72","","","","24","","11","","48.3","","100.54","","38","","","","Mainly Clear"
"-73.74","45.47","MONTREAL INTL A","7025251","2021-08-11 20:00","2021","08","11","20:00","27.3","","22.2","","74","","","","23","","9","","24.1","","100.61","","37","","","","NA"
"-73.74","45.47","MONTREAL INTL A","7025251","2021-08-11 21:00","2021","08","11","21:00","27.3","","22.2","","73","","","","21","","12","","24.1","","100.61","","37","","","","NA"
"-73.74","45.47","MONTREAL INTL A","7025251","2021-08-11 22:00","2021","08","11","22:00","26.6","","21.6","","74","","","","21","","21","","24.1","","100.59","","36","","","","Mainly Clear"
"-73.74","45.47","MONTREAL INTL A","7025251","2021-08-11 23:00","2021","08","11","23:00","25.6","","21.3","","77","","","","20","","13","","24.1","","100.58","","34","","","","NA"
"-73.74","45.47","MONTREAL INTL A","7025251","2021-08-12 00:00","2021","08","12","00:00","24.9","","21.3","","80","","","","19","","13","","24.1","","100.55","","34","","","","NA"
"-73.74","45.47","MONTREAL INTL A","7025251","2021-08-12 01:00","2021","08","12","01:00","24.5","","21.2","","82","","","","18","","14","","24.1","","100.50","","33","","","","Mainly Clear"
"-73.74","45.47","MONTREAL INTL A","7025251","2021-08-12 02:00","2021","08","12","02:00","24.7","","21.3","","81","","","","20","","13","","24.1","","100.50","","33","","","","NA"
"-73.74","45.47","MONTREAL INTL A","7025251","2021-08-12 03:00","2021","08","12","03:00","25.0","","21.5","","81","","","","21","","7","","24.1","","100.51","","34","","","","NA"
"-73.74","45.47","MONTREAL INTL A","7025251","2021-08-12 04:00","2021","08","12","04:00","25.1","","21.5","","80","","","","20","","8","","24.1","","100.53","","34","","","","Cloudy"
"-73.74","45.47","MONTREAL INTL A","7025251","2021-08-12 05:00","2021","08","12","05:00","25.3","","21.5","","79","","","","20","","19","","24.1","","100.58","","34","","","","NA"
"-73.74","45.47","MONTREAL INTL A","7025251","2021-08-12 06:00","2021","08","12","06:00","25.2","","22.0","","82","","","","20","","13","","24.1","","100.64","","35","","","","NA"
"-73.74","45.47","MONTREAL INTL A","7025251","2021-08-12 07:00","2021","08","12","07:00","25.1","","21.7","","81","","","","20","","17","","48.3","","100.68","","34","","","","Mainly Clear"
"-73.74","45.47","MONTREAL INTL A","7025251","2021-08-12 08:00","2021","08","12","08:00","26.4","","20.6","","70","","","","21","","22","","48.3","","100.66","","34","","","","NA"
"-73.74","45.47","MONTREAL INTL A","7025251","2021-08-12 09:00","2021","08","12","09:00","27.4","","20.6","","66","","","","21","","18","","48.3","","100.64","","35","","","","NA"
"-73.74","45.47","MONTREAL INTL A","7025251","2021-08-12 10:00","2021","08","12","10:00","28.1","","20.8","","64","","","","21","","17","","48.3","","100.64","","36","","","","Mostly Cloudy"
"-73.74","45.47","MONTREAL INTL A","7025251","2021-08-12 11:00","2021","08","12","11:00","28.4","","21.0","","64","","","","24","","28","","48.3","","100.63","","37","","","","NA"
"-73.74","45.47","MONTREAL INTL A","7025251","2021-08-12 12:00","2021","08","12","12:00","27.6","","21.5","","69","","","","23","","28","","48.3","","100.63","","36","","","","NA"
"-73.74","45.47","MONTREAL INTL A","7025251","2021-08-12 13:00","2021","08","12","13:00","27.9","","22.2","","71","","","","22","","19","","24.1","","100.61","","37","","","","Cloudy"
"-73.74","45.47","MONTREAL INTL A","7025251","2021-08-12 14:00","2021","08","12","14:00","28.3","","22.2","","69","","","","22","","25","","48.3","","100.58","","38","","","","NA"
"-73.74","45.47","MONTREAL INTL A","7025251","2021-08-12 15:00","2021","08","12","15:00","28.9","","21.5","","64","","","","23","","32","","48.3","","100.54","","38","","","","NA"
"-73.74","45.47","MONTREAL INTL A","7025251","2021-08-12 16:00","2021","08","12","16:00","28.9","","21.6","","64","","","","24","","28","","48.3","","100.55","","38","","","","Mostly Cloudy"
"-73.74","45.47","MONTREAL INTL A","7025251","2021-08-12 17:00","2021","08","12","17:00","28.8","","21.6","","65","","","","23","","27","","48.3","","100.56","","38","","","","NA"
"-73.74","45.47","MONTREAL INTL A","7025251","2021-08-12 18:00","2021","08","12","18:00","28.2","","20.5","","63","","","","23","","33","","48.3","","100.51","","36","","","","NA"
"-73.74","45.47","MONTREAL INTL A","7025251","2021-08-12 19:00","2021","08","12","19:00","27.3","","21.0","","68","","","","23","","24","","24.1","","100.57","","36","","","","Mostly Cloudy"
"-73.74","45.47","MONTREAL INTL A","7025251","2021-08-12 20:00","2021","08","12","20:00","26.8","","21.1","","71","","","","24","","18","","24.1","","100.72","","35","","","","NA"
"-73.74","45.47","MONTREAL INTL A","7025251","2021-08-12 21:00","2021","08","12","21:00","25.7","","21.6","","77","","","","22","","17","","24.1","","100.76","","35","","","","NA"
"-73.74","45.47","MONTREAL INTL A","7025251","2021-08-12 22:00","2021","08","12","22:00","25.4","","21.3","","78","","","","24","","22","","24.1","","100.75","","34","","","","Clear"
"-73.74","45.47","MONTREAL INTL A","7025251","2021-08-12 23:00","2021","08","12","23:00","24.6","","21.2","","81","","","","23","","17","","24.1","","100.77","","33","","","","NA"
"-73.74","45.47","MONTREAL INTL A","7025251","2021-08-13 00:00","2021","08","13","00:00","23.9","","21.5","","86","","","","21","","15","","24.1","","100.83","","33","","","","NA"
"-73.74","45.47","MONTREAL INTL A","7025251","2021-08-13 01:00","2021","08","13","01:00","23.2","","20.9","","87","","","","24","","13","","24.1","","100.89","","32","","","","Clear"
"-73.74","45.47","MONTREAL INTL A","7025251","2021-08-13 02:00","2021","08","13","02:00","22.9","","20.8","","88","","","","23","","9","","24.1","","100.93","","31","","","","NA"
"-73.74","45.47","MONTREAL INTL A","7025251","2021-08-13 03:00","2021","08","13","03:00","22.6","","20.9","","89","","","","23","","12","","24.1","","100.95","","31","","","","NA"
"-73.74","45.47","MONTREAL INTL A","7025251","2021-08-13 04:00","2021","08","13","04:00","21.8","","20.6","","93","","","","23","","8","","24.1","","100.95","","30","","","","Clear"
"-73.74","45.47","MONTREAL INTL A","7025251","2021-08-13 05:00","2021","08","13","05:00","21.6","","20.3","","92","","","","25","","8","","24.1","","100.95","","29","","","","NA"
"-73.74","45.47","MONTREAL INTL A","7025251","2021-08-13 06:00","2021","08","13","06:00","23.0","","20.9","","88","","","","21","","9","","24.1","","101.00","","31","","","","NA"
"-73.74","45.47","MONTREAL INTL A","7025251","2021-08-13 07:00","2021","08","13","07:00","24.2","","21.1","","83","","","","16","","9","","24.1","","101.03","","33","","","","Mainly Clear"
"-73.74","45.47","MONTREAL INTL A","7025251","2021-08-13 08:00","2021","08","13","08:00","25.4","","20.9","","76","","","","20","","11","","24.1","","101.05","","34","","","","NA"
"-73.74","45.47","MONTREAL INTL A","7025251","2021-08-13 09:00","2021","08","13","09:00","26.8","","21.8","","74","","","","18","","14","","24.1","","101.05","","36","","","","NA"
"-73.74","45.47","MONTREAL INTL A","7025251","2021-08-13 10:00","2021","08","13","10:00","28.2","","22.2","","70","","","","21","","21","","24.1","","101.03","","38","","","","Mainly Clear"
"-73.74","45.47","MONTREAL INTL A","7025251","2021-08-13 11:00","2021","08","13","11:00","29.5","","22.5","","65","","","","21","","16","","48.3","","100.98","","39","","","","NA"
"-73.74","45.47","MONTREAL INTL A","7025251","2021-08-13 12:00","2021","08","13","12:00","30.3","","22.4","","62","","","","22","","18","","48.3","","100.97","","40","","","","NA"
"-73.74","45.47","MONTREAL INTL A","7025251","2021-08-13 13:00","2021","08","13","13:00","31.4","","21.6","","55","","","","22","","28","","48.3","","100.93","","40","","","","Mainly Clear"
"-73.74","45.47","MONTREAL INTL A","7025251","2021-08-13 14:00","2021","08","13","14:00","31.6","","20.6","","51","","","","23","","33","","48.3","","100.86","","40","","","","NA"
"-73.74","45.47","MONTREAL INTL A","7025251","2021-08-13 15:00","2021","08","13","15:00","31.0","","20.8","","54","","","","22","","26","","48.3","","100.84","","39","","","","NA"
"-73.74","45.47","MONTREAL INTL A","7025251","2021-08-13 16:00","2021","08","13","16:00","30.6","","21.9","","59","","","","23","","23","","48.3","","100.84","","40","","","","Mostly Cloudy"
"-73.74","45.47","MONTREAL INTL A","7025251","2021-08-13 17:00","2021","08","13","17:00","30.3","","22.3","","62","","","","22","","21","","48.3","","100.83","","40","","","","NA"
"-73.74","45.47","MONTREAL INTL A","7025251","2021-08-13 18:00","2021","08","13","18:00","29.2","","22.0","","65","","","","22","","22","","48.3","","100.81","","39","","","","NA"
"-73.74","45.47","MONTREAL INTL A","7025251","2021-08-13 19:00","2021","08","13","19:00","27.9","","22.1","","70","","","","22","","23","","24.1","","100.84","","37","","","","Mostly Cloudy"
"-73.74","45.47","MONTREAL INTL A","7025251","2021-08-13 20:00","2021","08","13","20:00","26.3","","19.0","","64","","","","27","","22","","24.1","","100.95","","33","","","","NA"
"-73.74","45.47","MONTREAL INTL A","7025251","2021-08-13 21:00","2021","08","13","21:00","25.3","","19.5","","70","","","","22","","13","","24.1","","100.92","","32","","","","NA"
"-73.74","45.47","MONTREAL INTL A","7025251","2021-08-13 22:00","2021","08","13","22:00","25.0","","20.3","","75","","","","22","","16","","24.1","","100.92","","33","","","","Mostly Cloudy"
"-73.74","45.47","MONTREAL INTL A","7025251","2021-08-13 23:00","2021","08","13","23:00","24.6","","20.0","","75","","","","21","","16","","24.1","","100.95","","32","","","","NA"
"-73.74","45.47","MONTREAL INTL A","7025251","2021-08-14 00:00","2021","08","14","00:00","23.9","","20.2","","80","","","","24","","11","","24.1","","100.92","","32","","","","NA"
"-73.74","45.47","MONTREAL INTL A","7025251","2021-08-14 01:00","2021","08","14","01:00","23.7","","20.8","","84","","","","23","","9","","24.1","","100.87","","32","","","","Mostly Cloudy"
"-73.74","45.47","MONTREAL INTL A","7025251","2021-08-14 02:00","2021","08","14","02:00","24.5","","22.0","","86","","","","23","","14","","24.1","","100.89","","34","","","","NA"
"-73.74","45.47","MONTREAL INTL A","7025251","2021-08-14 03:00","2021","08","14","03:00","23.9","","21.4","","86","","","","25","","15","","24.1","","100.89","","33","","","","NA"
"-73.74","45.47","MONTREAL INTL A","7025251","2021-08-14 04:00","2021","08","14","04:00","23.6","","20.7","","83","","","","26","","8","","24.1","","100.88","","32","","","","Mostly Cloudy"
"-73.74","45.47","MONTREAL INTL A","7025251","2021-08-14 05:00","2021","08","14","05:00","23.0","","20.4","","85","","","","25","","17","","24.1","","100.98","","31","","","","NA"
"-73.74","45.47","MONTREAL INTL A","7025251","2021-08-14 06:00","2021","08","14","06:00","22.7","","19.1","","80","","","","25","","19","","24.1","","101.07","","30","","","","NA"
"-73.74","45.47","MONTREAL INTL A","7025251","2021-08-14 07:00","2021","08","14","07:00","21.6","","17.2","","76","","","","28","","16","","24.1","","101.11","","27","","","","Cloudy"
"-73.74","45.47","MONTREAL INTL A","7025251","2021-08-14 08:00","2021","08","14","08:00","21.9","","16.9","","73","","","","25","","18","","24.1","","101.18","","27","","","","NA"
"-73.74","45.47","MONTREAL INTL A","7025251","2021-08-14 09:00","2021","08","14","09:00","22.5","","16.1","","67","","","","25","","19","","48.3","","101.21","","27","","","","NA"
"-73.74","45.47","MONTREAL INTL A","7025251","2021-08-14 10:00","2021","08","14","10:00","24.1","","14.3","","54","","","","23","","27","","48.3","","101.25","","28","","","","Mainly Clear"
"-73.74","45.47","MONTREAL INTL A","7025251","2021-08-14 11:00","2021","08","14","11:00","24.6","","14.6","","53","","","","26","","28","","48.3","","101.26","","28","","","","NA"
"-73.74","45.47","MONTREAL INTL A","7025251","2021-08-14 12:00","2021","08","14","12:00","25.6","","13.5","","47","","","","28","","32","","48.3","","101.29","","29","","","","NA"
"-73.74","45.47","MONTREAL INTL A","7025251","2021-08-14 13:00","2021","08","14","13:00","26.5","","12.6","","41","","","","26","","34","","48.3","","101.27","","29","","","","Mainly Clear"
"-73.74","45.47","MONTREAL INTL A","7025251","2021-08-14 14:00","2021","08","14","14:00","25.3","","12.3","","44","","","","26","","27","","48.3","","101.32","","28","","","","NA"
"-73.74","45.47","MONTREAL INTL A","7025251","2021-08-14 15:00","2021","08","14","15:00","26.0","","10.6","","38","","","","29","","30","","48.3","","101.35","","28","","","","NA"
"-73.74","45.47","MONTREAL INTL A","7025251","2021-08-14 16:00","2021","08","14","16:00","25.5","","10.0","","37","","","","27","","26","","48.3","","101.37","","27","","","","Mainly Clear"
"-73.74","45.47","MONTREAL INTL A","7025251","2021-08-14 17:00","2021","08","14","17:00","24.5","","9.8","","39","","","","27","","32","","48.3","","101.40","","26","","","","NA"
"-73.74","45.47","MONTREAL INTL A","7025251","2021-08-14 18:00","2021","08","14","18:00","23.6","","10.0","","42","","","","28","","23","","48.3","","101.45","","25","","","","NA"
"-73.74","45.47","MONTREAL INTL A","7025251","2021-08-14 19:00","2021","08","14","19:00","22.1","","9.2","","44","","","","29","","16","","24.1","","101.49","","","","","","Mainly Clear"
"-73.74","45.47","MONTREAL INTL A","7025251","2021-08-14 20:00","2021","08","14","20:00","21.0","","9.8","","48","","","","30","","16","","24.1","","101.56","","","","","","NA"
"-73.74","45.47","MONTREAL INTL A","7025251","2021-08-14 21:00","2021","08","14","21:00","20.0","","10.2","","53","","","","31","","15","","24.1","","101.62","","","","","","NA"
"-73.74","45.47","MONTREAL INTL A","7025251","2021-08-14 22:00","2021","08","14","22:00","18.7","","10.2","","58","","","","30","","12","","24.1","","101.68","","","","","","Clear"
"-73.74","45.47","MONTREAL INTL A","7025251","2021-08-14 23:00","2021","08","14","23:00","17.3","","10.5","","64","","","","30","","11","","24.1","","101.74","","","","","","NA"
"-73.74","45.47","MONTREAL INTL A","7025251","2021-08-15 00:00","2021","08","15","00:00","16.7","","10.5","","67","","","","28","","10","","24.1","","101.80","","","","","","NA"
"-73.74","45.47","MONTREAL INTL A","7025251","2021-08-15 01:00","2021","08","15","01:00","16.3","","10.7","","69","","","","30","","13","","24.1","","101.82","","","","","","Clear"
"-73.74","45.47","MONTREAL INTL A","7025251","2021-08-15 02:00","2021","08","15","02:00","16.0","","10.6","","70","","","","32","","11","","24.1","","101.82","","","","","","NA"
"-73.74","45.47","MONTREAL INTL A","7025251","2021-08-15 03:00","2021","08","15","03:00","15.5","","10.5","","72","","","","33","","7","","24.1","","101.85","","","","","","NA"
"-73.74","45.47","MONTREAL INTL A","7025251","2021-08-15 04:00","2021","08","15","04:00","14.7","","10.2","","74","","","","33","","7","","24.1","","101.91","","","","","","Clear"
"-73.74","45.47","MONTREAL INTL A","7025251","2021-08-15 05:00","2021","08","15","05:00","13.6","","9.9","","78","","","","32","","9","","24.1","","101.97","","","","","","NA"
"-73.74","45.47","MONTREAL INTL A","7025251","2021-08-15 06:00","2021","08","15","06:00","14.6","","9.7","","73","","","","32","","11","","48.3","","102.05","","","","","","NA"
"-73.74","45.47","MONTREAL INTL A","7025251","2021-08-15 07:00","2021","08","15","07:00","16.1","","9.3","","64","","","","34","","10","","48.3","","102.10","","","","","","Clear"
"-73.74","45.47","MONTREAL INTL A","7025251","2021-08-15 08:00","2021","08","15","08:00","18.2","","9.4","","56","","","","35","","10","","48.3","","102.13","","","","","","NA"
"-73.74","45.47","MONTREAL INTL A","7025251","2021-08-15 09:00","2021","08","15","09:00","19.9","","7.2","","43","","","","35","","14","","48.3","","102.13","","","","","","NA"
"-73.74","45.47","MONTREAL INTL A","7025251","2021-08-15 10:00","2021","08","15","10:00","20.8","","6.7","","39","","","","35","","11","","48.3","","102.11","","","","","","Mainly Clear"
"-73.74","45.47","MONTREAL INTL A","7025251","2021-08-15 11:00","2021","08","15","11:00","22.0","","6.5","","36","","","","33","","11","","48.3","","102.06","","","","","","NA"
"-73.74","45.47","MONTREAL INTL A","7025251","2021-08-15 12:00","2021","08","15","12:00","22.1","","6.7","","36","","","","26","","4","","48.3","","102.01","","","","","","NA"
"-73.74","45.47","MONTREAL INTL A","7025251","2021-08-15 13:00","2021","08","15","13:00","22.3","","8.5","","41","","","","19","","21","","48.3","","101.97","","","","","","Mainly Clear"
"-73.74","45.47","MONTREAL INTL A","7025251","2021-08-15 14:00","2021","08","15","14:00","22.5","","8.1","","39","","","","21","","20","","48.3","","101.92","","","","","","NA"
"-73.74","45.47","MONTREAL INTL A","7025251","2021-08-15 15:00","2021","08","15","15:00","24.1","","8.1","","35","","","","26","","21","","48.3","","101.87","","25","","","","NA"
"-73.74","45.47","MONTREAL INTL A","7025251","2021-08-15 16:00","2021","08","15","16:00","23.6","","8.5","","38","","","","26","","19","","48.3","","101.88","","","","","","Mainly Clear"
"-73.74","45.47","MONTREAL INTL A","7025251","2021-08-15 17:00","2021","08","15","17:00","23.3","","9.2","","40","","","","26","","16","","48.3","","101.85","","","","","","NA"
"-73.74","45.47","MONTREAL INTL A","7025251","2021-08-15 18:00","2021","08","15","18:00","22.5","","9.5","","43","","","","27","","14","","48.3","","101.84","","","","","","NA"
"-73.74","45.47","MONTREAL INTL A","7025251","2021-08-15 19:00","2021","08","15","19:00","20.7","","10.1","","50","","","","28","","10","","24.1","","101.83","","","","","","Mainly Clear"
"-73.74","45.47","MONTREAL INTL A","7025251","2021-08-15 20:00","2021","08","15","20:00","20.1","","10.4","","53","","","","25","","7","","24.1","","101.83","","","","","","NA"
"-73.74","45.47","MONTREAL INTL A","7025251","2021-08-15 21:00","2021","08","15","21:00","18.7","","10.9","","60","","","","25","","6","","24.1","","101.82","","","","","","NA"
"-73.74","45.47","MONTREAL INTL A","7025251","2021-08-15 22:00","2021","08","15","22:00","18.7","","10.5","","59","","","","24","","7","","24.1","","101.81","","","","","","Clear"
"-73.74","45.47","MONTREAL INTL A","7025251","2021-08-15 23:00","2021","08","15","23:00","17.7","","11.3","","66","","","","22","","8","","24.1","","101.83","","","","","","NA"
"-73.74","45.47","MONTREAL INTL A","7025251","2021-08-16 00:00","2021","08","16","00:00","16.7","","10.8","","68","","","","26","","9","","24.1","","101.85","","","","","","NA"
"-73.74","45.47","MONTREAL INTL A","7025251","2021-08-16 01:00","2021","08","16","01:00","16.8","","12.0","","73","","","","24","","7","","24.1","","101.90","","","","","","Clear"
"-73.74","45.47","MONTREAL INTL A","7025251","2021-08-16 02:00","2021","08","16","02:00","15.3","","12.3","","82","","","","23","","5","","24.1","","101.89","","","","","","NA"
"-73.74","45.47","MONTREAL INTL A","7025251","2021-08-16 03:00","2021","08","16","03:00","14.9","","12.3","","84","","","","36","","2","","24.1","","101.91","","","","","","NA"
"-73.74","45.47","MONTREAL INTL A","7025251","2021-08-16 04:00","2021","08","16","04:00","13.3","","11.7","","90","","","","25","","3","","24.1","","101.93","","","","","","Clear"
"-73.74","45.47","MONTREAL INTL A","7025251","2021-08-16 05:00","2021","08","16","05:00","14.3","","11.6","","84","","","","24","","5","","24.1","","101.95","","","","","","NA"
"-73.74","45.47","MONTREAL INTL A","7025251","2021-08-16 06:00","2021","08","16","06:00","15.3","","12.0","","81","","","","24","","8","","24.1","","101.99","","","","","","NA"
"-73.74","45.47","MONTREAL INTL A","7025251","2021-08-16 07:00","2021","08","16","07:00","18.2","","11.6","","65","","","","24","","7","","24.1","","101.99","","","","","","Clear"
"-73.74","45.47","MONTREAL INTL A","7025251","2021-08-16 08:00","2021","08","16","08:00","20.0","","11.5","","58","","","","36","","2","","24.1","","101.98","","","","","","NA"
"-73.74","45.47","MONTREAL INTL A","7025251","2021-08-16 09:00","2021","08","16","09:00","21.0","","13.3","","61","","","","18","","10","","24.1","","101.99","","","","","","NA"
"-73.74","45.47","MONTREAL INTL A","7025251","2021-08-16 10:00","2021","08","16","10:00","22.6","","11.6","","49","","","","19","","11","","24.1","","102.00","","25","","","","Mainly Clear"
"-73.74","45.47","MONTREAL INTL A","7025251","2021-08-16 11:00","2021","08","16","11:00","23.1","","10.0","","43","","","","27","","3","","24.1","","101.95","","","","","","NA"
"-73.74","45.47","MONTREAL INTL A","7025251","2021-08-16 12:00","2021","08","16","12:00","23.8","","10.9","","44","","","","23","","14","","24.1","","101.88","","26","","","","NA"
"-73.74","45.47","MONTREAL INTL A","7025251","2021-08-16 13:00","2021","08","16","13:00","24.5","","10.0","","39","","","","24","","11","","24.1","","101.81","","26","","","","Mostly Cloudy"
"-73.74","45.47","MONTREAL INTL A","7025251","2021-08-16 14:00","2021","08","16","14:00","25.1","","10.4","","39","","","","22","","17","","24.1","","101.80","","27","","","","NA"
"-73.74","45.47","MONTREAL INTL A","7025251","2021-08-16 15:00","2021","08","16","15:00","25.5","","8.3","","33","","","","19","","9","","24.1","","101.73","","26","","","","NA"
"-73.74","45.47","MONTREAL INTL A","7025251","2021-08-16 16:00","2021","08","16","16:00","24.7","","9.8","","38","","","","23","","9","","24.1","","101.69","","26","","","","Mostly Cloudy"
"-73.74","45.47","MONTREAL INTL A","7025251","2021-08-16 17:00","2021","08","16","17:00","25.2","","10.2","","38","","","","22","","13","","24.1","","101.65","","27","","","","NA"
"-73.74","45.47","MONTREAL INTL A","7025251","2021-08-16 18:00","2021","08","16","18:00","24.2","","12.3","","47","","","","24","","13","","24.1","","101.64","","27","","","","NA"
"-73.74","45.47","MONTREAL INTL A","7025251","2021-08-16 19:00","2021","08","16","19:00","23.5","","12.1","","48","","","","23","","12","","24.1","","101.61","","26","","","","Mostly Cloudy"
"-73.74","45.47","MONTREAL INTL A","7025251","2021-08-16 20:00","2021","08","16","20:00","21.8","","13.0","","57","","","","21","","7","","24.1","","101.62","","25","","","","NA"
"-73.74","45.47","MONTREAL INTL A","7025251","2021-08-16 21:00","2021","08","16","21:00","21.4","","14.4","","64","","","","17","","11","","24.1","","101.62","","25","","","","NA"
"-73.74","45.47","MONTREAL INTL A","7025251","2021-08-16 22:00","2021","08","16","22:00","20.9","","14.3","","66","","","","18","","9","","24.1","","101.61","","","","","","Mostly Cloudy"
"-73.74","45.47","MONTREAL INTL A","7025251","2021-08-16 23:00","2021","08","16","23:00","19.3","","14.5","","73","","","","22","","5","","24.1","","101.61","","","","","","NA"
"-73.74","45.47","MONTREAL INTL A","7025251","2021-08-17 00:00","2021","08","17","00:00","19.4","","14.8","","74","","","","36","","1","","24.1","","101.65","","","","","","NA"
"-73.74","45.47","MONTREAL INTL A","7025251","2021-08-17 01:00","2021","08","17","01:00","19.0","","14.8","","76","","","","36","","1","","24.1","","101.65","","","","","","Mainly Clear"
"-73.74","45.47","MONTREAL INTL A","7025251","2021-08-17 02:00","2021","08","17","02:00","18.1","","14.4","","79","","","","36","","2","","24.1","","101.66","","","","","","NA"
"-73.74","45.47","MONTREAL INTL A","7025251","2021-08-17 03:00","2021","08","17","03:00","18.6","","14.5","","77","","","","13","","7","","24.1","","101.67","","","","","","NA"
"-73.74","45.47","MONTREAL INTL A","7025251","2021-08-17 04:00","2021","08","17","04:00","18.3","","14.9","","80","","","","14","","7","","24.1","","101.67","","","","","","Mainly Clear"
"-73.74","45.47","MONTREAL INTL A","7025251","2021-08-17 05:00","2021","08","17","05:00","17.6","","14.6","","83","","","","2","","4","","24.1","","101.69","","","","","","NA"
"-73.74","45.47","MONTREAL INTL A","7025251","2021-08-17 06:00","2021","08","17","06:00","18.1","","14.4","","79","","","","8","","7","","24.1","","101.69","","","","","","NA"
"-73.74","45.47","MONTREAL INTL A","7025251","2021-08-17 07:00","2021","08","17","07:00","19.9","","14.6","","71","","","","11","","4","","24.1","","101.71","","","","","","Cloudy"
"-73.74","45.47","MONTREAL INTL A","7025251","2021-08-17 08:00","2021","08","17","08:00","20.9","","14.8","","67","","","","6","","4","","24.1","","101.71","","25","","","","NA"
"-73.74","45.47","MONTREAL INTL A","7025251","2021-08-17 09:00","2021","08","17","09:00","22.6","","15.3","","63","","","","10","","5","","24.1","","101.69","","27","","","","NA"
"-73.74","45.47","MONTREAL INTL A","7025251","2021-08-17 10:00","2021","08","17","10:00","22.8","","15.8","","64","","","","14","","10","","24.1","","101.69","","27","","","","Cloudy"
"-73.74","45.47","MONTREAL INTL A","7025251","2021-08-17 11:00","2021","08","17","11:00","22.6","","16.1","","67","","","","13","","15","","24.1","","101.65","","27","","","","NA"
"-73.74","45.47","MONTREAL INTL A","7025251","2021-08-17 12:00","2021","08","17","12:00","23.1","","16.8","","68","","","","14","","14","","24.1","","101.60","","28","","","","NA"
"-73.74","45.47","MONTREAL INTL A","7025251","2021-08-17 13:00","2021","08","17","13:00","24.6","","17.4","","64","","","","16","","14","","24.1","","101.60","","30","","","","Cloudy"
"-73.74","45.47","MONTREAL INTL A","7025251","2021-08-17 14:00","2021","08","17","14:00","25.1","","18.4","","66","","","","14","","21","","24.1","","101.52","","31","","","","Rain Showers"
"-73.74","45.47","MONTREAL INTL A","7025251","2021-08-17 15:00","2021","08","17","15:00","23.7","","18.4","","72","","","","14","","26","","24.1","","101.50","","30","","","","NA"
"-73.74","45.47","MONTREAL INTL A","7025251","2021-08-17 16:00","2021","08","17","16:00","23.7","","19.2","","75","","","","14","","16","","24.1","","101.46","","31","","","","Cloudy"
"-73.74","45.47","MONTREAL INTL A","7025251","2021-08-17 17:00","2021","08","17","17:00","22.9","","19.3","","79","","","","17","","14","","24.1","","101.49","","30","","","","NA"
"-73.74","45.47","MONTREAL INTL A","7025251","2021-08-17 18:00","2021","08","17","18:00","21.7","","19.8","","89","","","","13","","14","","24.1","","101.50","","29","","","","NA"
"-73.74","45.47","MONTREAL INTL A","7025251","2021-08-17 19:00","2021","08","17","19:00","21.9","","19.8","","88","","","","15","","13","","24.1","","101.51","","29","","","","Cloudy"
"-73.74","45.47","MONTREAL INTL A","7025251","2021-08-17 20:00","2021","08","17","20:00","21.7","","20.2","","91","","","","18","","15","","24.1","","101.52","","29","","","","Rain Showers"
"-73.74","45.47","MONTREAL INTL A","7025251","2021-08-17 21:00","2021","08","17","21:00","21.5","","20.4","","93","","","","16","","12","","24.1","","101.52","","29","","","","NA"
"-73.74","45.47","MONTREAL INTL A","7025251","2021-08-17 22:00","2021","08","17","22:00","21.5","","20.4","","93","","","","15","","10","","24.1","","101.51","","29","","","","Cloudy"
"-73.74","45.47","MONTREAL INTL A","7025251","2021-08-17 23:00","2021","08","17","23:00","21.5","","20.2","","92","","","","16","","9","","24.1","","101.52","","29","","","","NA"
"-73.74","45.47","MONTREAL INTL A","7025251","2021-08-18 00:00","2021","08","18","00:00","21.5","","20.2","","92","","","","17","","7","","24.1","","101.54","","29","","","","Rain Showers"
"-73.74","45.47","MONTREAL INTL A","7025251","2021-08-18 01:00","2021","08","18","01:00","21.5","","20.4","","93","","","","15","","5","","24.1","","101.52","","29","","","","Mostly Cloudy"
"-73.74","45.47","MONTREAL INTL A","7025251","2021-08-18 02:00","2021","08","18","02:00","21.2","","20.1","","93","","","","12","","6","","24.1","","101.52","","29","","","","NA"
"-73.74","45.47","MONTREAL INTL A","7025251","2021-08-18 03:00","2021","08","18","03:00","21.3","","20.2","","93","","","","15","","4","","24.1","","101.55","","29","","","","NA"
"-73.74","45.47","MONTREAL INTL A","7025251","2021-08-18 04:00","2021","08","18","04:00","21.3","","20.3","","94","","","","19","","7","","24.1","","101.55","","29","","","","Rain Showers"
"-73.74","45.47","MONTREAL INTL A","7025251","2021-08-18 05:00","2021","08","18","05:00","21.4","","20.4","","94","","","","16","","6","","24.1","","101.59","","29","","","","Rain Showers"
"-73.74","45.47","MONTREAL INTL A","7025251","2021-08-18 06:00","2021","08","18","06:00","21.7","","20.9","","95","","","","21","","3","","24.1","","101.61","","30","","","","NA"
"-73.74","45.47","MONTREAL INTL A","7025251","2021-08-18 07:00","2021","08","18","07:00","22.2","","21.3","","95","","","","24","","6","","24.1","","101.65","","31","","","","Cloudy"
"-73.74","45.47","MONTREAL INTL A","7025251","2021-08-18 08:00","2021","08","18","08:00","22.9","","21.7","","93","","","","20","","8","","24.1","","101.68","","32","","","","NA"
"-73.74","45.47","MONTREAL INTL A","7025251","2021-08-18 09:00","2021","08","18","09:00","23.2","","21.8","","91","","","","22","","9","","19.3","","101.70","","32","","","","NA"
"-73.74","45.47","MONTREAL INTL A","7025251","2021-08-18 10:00","2021","08","18","10:00","26.4","","22.1","","77","","","","20","","13","","24.1","","101.70","","36","","","","Mostly Cloudy"
"-73.74","45.47","MONTREAL INTL A","7025251","2021-08-18 11:00","2021","08","18","11:00","27.5","","22.0","","72","","","","20","","15","","24.1","","101.64","","37","","","","NA"
"-73.74","45.47","MONTREAL INTL A","7025251","2021-08-18 12:00","2021","08","18","12:00","27.9","","22.1","","70","","","","20","","15","","24.1","","101.59","","37","","","","NA"
"-73.74","45.47","MONTREAL INTL A","7025251","2021-08-18 13:00","2021","08","18","13:00","28.9","","21.7","","65","","","","20","","18","","24.1","","101.56","","38","","","","Mostly Cloudy"
"-73.74","45.47","MONTREAL INTL A","7025251","2021-08-18 14:00","2021","08","18","14:00","29.3","","21.1","","61","","","","19","","19","","24.1","","101.53","","38","","","","NA"
"-73.74","45.47","MONTREAL INTL A","7025251","2021-08-18 15:00","2021","08","18","15:00","29.2","","20.6","","59","","","","20","","15","","24.1","","101.50","","37","","","","NA"
"-73.74","45.47","MONTREAL INTL A","7025251","2021-08-18 16:00","2021","08","18","16:00","28.7","","20.2","","59","","","","22","","19","","24.1","","101.47","","36","","","","Mostly Cloudy"
"-73.74","45.47","MONTREAL INTL A","7025251","2021-08-18 17:00","2021","08","18","17:00","28.0","","20.2","","62","","","","20","","16","","24.1","","101.44","","36","","","","NA"
"-73.74","45.47","MONTREAL INTL A","7025251","2021-08-18 18:00","2021","08","18","18:00","27.5","","20.6","","66","","","","21","","16","","24.1","","101.41","","36","","","","NA"
"-73.74","45.47","MONTREAL INTL A","7025251","2021-08-18 19:00","2021","08","18","19:00","26.6","","20.9","","70","","","","20","","10","","24.1","","101.43","","35","","","","Mostly Cloudy"
"-73.74","45.47","MONTREAL INTL A","7025251","2021-08-18 20:00","2021","08","18","20:00","25.2","","22.1","","83","","","","20","","13","","24.1","","101.48","","35","","","","NA"
"-73.74","45.47","MONTREAL INTL A","7025251","2021-08-18 21:00","2021","08","18","21:00","24.2","","22.0","","87","","","","19","","9","","24.1","","101.47","","34","","","","NA"
"-73.74","45.47","MONTREAL INTL A","7025251","2021-08-18 22:00","2021","08","18","22:00","23.7","","22.0","","90","","","","19","","9","","24.1","","101.47","","33","","","","Mostly Cloudy"
"-73.74","45.47","MONTREAL INTL A","7025251","2021-08-18 23:00","2021","08","18","23:00","23.3","","22.0","","92","","","","17","","10","","24.1","","101.47","","33","","","","NA"
"-73.74","45.47","MONTREAL INTL A","7025251","2021-08-19 00:00","2021","08","19","00:00","22.9","","21.8","","93","","","","22","","4","","24.1","","101.46","","32","","","","NA"
"-73.74","45.47","MONTREAL INTL A","7025251","2021-08-19 01:00","2021","08","19","01:00","22.0","","21.3","","95","","","","36","","2","","24.1","","101.39","","31","","","","Mainly Clear"
"-73.74","45.47","MONTREAL INTL A","7025251","2021-08-19 02:00","2021","08","19","02:00","21.7","","21.2","","97","","","","36","","1","","24.1","","101.32","","30","","","","NA"
"-73.74","45.47","MONTREAL INTL A","7025251","2021-08-19 03:00","2021","08","19","03:00","22.4","","21.8","","96","","","","36","","1","","24.1","","101.29","","32","","","","NA"
"-73.74","45.47","MONTREAL INTL A","7025251","2021-08-19 04:00","2021","08","19","04:00","22.2","","21.5","","96","","","","13","","8","","24.1","","101.29","","31","","","","Mainly Clear"
"-73.74","45.47","MONTREAL INTL A","7025251","2021-08-19 05:00","2021","08","19","05:00","22.1","","21.2","","94","","","","36","","2","","24.1","","101.29","","31","","","","NA"
"-73.74","45.47","MONTREAL INTL A","7025251","2021-08-19 06:00","2021","08","19","06:00","22.2","","21.2","","94","","","","33","","3","","24.1","","101.27","","31","","","","NA"
"-73.74","45.47","MONTREAL INTL A","7025251","2021-08-19 07:00","2021","08","19","07:00","22.8","","21.7","","93","","","","16","","3","","24.1","","101.24","","32","","","","Mostly Cloudy"
"-73.74","45.47","MONTREAL INTL A","7025251","2021-08-19 08:00","2021","08","19","08:00","23.5","","21.9","","91","","","","5","","9","","24.1","","101.23","","33","","","","NA"
"-73.74","45.47","MONTREAL INTL A","7025251","2021-08-19 09:00","2021","08","19","09:00","23.6","","21.8","","90","","","","12","","11","","24.1","","101.20","","33","","","","NA"
"-73.74","45.47","MONTREAL INTL A","7025251","2021-08-19 10:00","2021","08","19","10:00","24.4","","21.7","","85","","","","11","","13","","24.1","","101.17","","33","","","","Cloudy"
"-73.74","45.47","MONTREAL INTL A","7025251","2021-08-19 11:00","2021","08","19","11:00","24.2","","22.3","","89","","","","7","","9","","24.1","","101.16","","34","","","","Rain"
"-73.74","45.47","MONTREAL INTL A","7025251","2021-08-19 12:00","2021","08","19","12:00","24.9","","22.1","","84","","","","6","","8","","24.1","","101.13","","34","","","","Rain"
"-73.74","45.47","MONTREAL INTL A","7025251","2021-08-19 13:00","2021","08","19","13:00","25.2","","22.4","","84","","","","10","","4","","24.1","","101.09","","35","","","","Rain"
"-73.74","45.47","MONTREAL INTL A","7025251","2021-08-19 14:00","2021","08","19","14:00","25.5","","22.4","","83","","","","35","","9","","24.1","","101.06","","35","","","","NA"
"-73.74","45.47","MONTREAL INTL A","7025251","2021-08-19 15:00","2021","08","19","15:00","25.5","","21.8","","79","","","","6","","4","","24.1","","101.01","","35","","","","NA"
"-73.74","45.47","MONTREAL INTL A","7025251","2021-08-19 16:00","2021","08","19","16:00","25.4","","22.2","","82","","","","36","","1","","24.1","","100.98","","35","","","","Rain"
"-73.74","45.47","MONTREAL INTL A","7025251","2021-08-19 17:00","2021","08","19","17:00","25.2","","22.3","","84","","","","3","","8","","24.1","","100.93","","35","","","","Rain"
"-73.74","45.47","MONTREAL INTL A","7025251","2021-08-19 18:00","2021","08","19","18:00","24.7","","21.9","","84","","","","1","","3","","24.1","","100.91","","34","","","","Rain"
"-73.74","45.47","MONTREAL INTL A","7025251","2021-08-19 19:00","2021","08","19","19:00","23.6","","22.5","","93","","","","24","","7","","24.1","","100.87","","33","","","","Cloudy"
"-73.74","45.47","MONTREAL INTL A","7025251","2021-08-19 20:00","2021","08","19","20:00","23.4","","22.3","","94","","","","24","","7","","24.1","","100.90","","33","","","","NA"
"-73.74","45.47","MONTREAL INTL A","7025251","2021-08-19 21:00","2021","08","19","21:00","23.0","","22.2","","95","","","","26","","4","","24.1","","100.92","","33","","","","NA"
"-73.74","45.47","MONTREAL INTL A","7025251","2021-08-19 22:00","2021","08","19","22:00","23.0","","22.4","","96","","","","24","","5","","24.1","","100.87","","33","","","","Mostly Cloudy"
"-73.74","45.47","MONTREAL INTL A","7025251","2021-08-19 23:00","2021","08","19","23:00","22.8","","22.2","","97","","","","36","","2","","24.1","","100.85","","32","","","","NA"
"-73.74","45.47","MONTREAL INTL A","7025251","2021-08-20 00:00","2021","08","20","00:00","23.0","","22.0","","94","","","","28","","5","","24.1","","100.83","","32","","","","NA"
"-73.74","45.47","MONTREAL INTL A","7025251","2021-08-20 01:00","2021","08","20","01:00","22.9","","21.5","","92","","","","23","","8","","24.1","","100.76","","32","","","","Mostly Cloudy"
"-73.74","45.47","MONTREAL INTL A","7025251","2021-08-20 02:00","2021","08","20","02:00","22.2","","21.3","","94","","","","28","","5","","24.1","","100.75","","31","","","","NA"
"-73.74","45.47","MONTREAL INTL A","7025251","2021-08-20 03:00","2021","08","20","03:00","22.3","","21.4","","94","","","","23","","4","","24.1","","100.74","","31","","","","NA"
"-73.74","45.47","MONTREAL INTL A","7025251","2021-08-20 04:00","2021","08","20","04:00","21.2","","20.8","","98","","","","23","","6","","24.1","","100.75","","29","","","","Mostly Cloudy"
"-73.74","45.47","MONTREAL INTL A","7025251","2021-08-20 05:00","2021","08","20","05:00","20.6","","20.4","","99","","","","24","","7","","9.7","","100.80","","29","","","","Fog"
"-73.74","45.47","MONTREAL INTL A","7025251","2021-08-20 06:00","2021","08","20","06:00","20.5","","20.3","","99","","","","21","","5","","16.1","","100.81","","28","","","","NA"
"-73.74","45.47","MONTREAL INTL A","7025251","2021-08-20 07:00","2021","08","20","07:00","22.2","","21.8","","97","","","","21","","7","","24.1","","100.82","","31","","","","Mostly Cloudy"
"-73.74","45.47","MONTREAL INTL A","7025251","2021-08-20 08:00","2021","08","20","08:00","23.5","","21.7","","90","","","","21","","4","","48.3","","100.83","","33","","","","NA"
"-73.74","45.47","MONTREAL INTL A","7025251","2021-08-20 09:00","2021","08","20","09:00","25.5","","20.2","","72","","","","36","","9","","48.3","","100.83","","33","","","","NA"
"-73.74","45.47","MONTREAL INTL A","7025251","2021-08-20 10:00","2021","08","20","10:00","27.1","","19.9","","64","","","","1","","10","","48.3","","100.85","","35","","","","Mainly Clear"
"-73.74","45.47","MONTREAL INTL A","7025251","2021-08-20 11:00","2021","08","20","11:00","28.6","","19.8","","58","","","","28","","9","","24.1","","100.82","","36","","","","NA"
"-73.74","45.47","MONTREAL INTL A","7025251","2021-08-20 12:00","2021","08","20","12:00","29.5","","21.5","","61","","","","21","","12","","24.1","","100.79","","38","","","","NA"
"-73.74","45.47","MONTREAL INTL A","7025251","2021-08-20 13:00","2021","08","20","13:00","30.7","","21.3","","57","","","","21","","13","","24.1","","100.78","","39","","","","Clear"
"-73.74","45.47","MONTREAL INTL A","7025251","2021-08-20 14:00","2021","08","20","14:00","30.8","","20.8","","55","","","","22","","16","","24.1","","100.73","","39","","","","NA"
"-73.74","45.47","MONTREAL INTL A","7025251","2021-08-20 15:00","2021","08","20","15:00","31.3","","20.2","","51","","","","22","","16","","24.1","","100.72","","39","","","","NA"
"-73.74","45.47","MONTREAL INTL A","7025251","2021-08-20 16:00","2021","08","20","16:00","31.3","","19.2","","48","","","","21","","15","","24.1","","100.70","","38","","","","Clear"
"-73.74","45.47","MONTREAL INTL A","7025251","2021-08-20 17:00","2021","08","20","17:00","30.4","","21.6","","59","","","","23","","17","","24.1","","100.70","","39","","","","NA"
"-73.74","45.47","MONTREAL INTL A","7025251","2021-08-20 18:00","2021","08","20","18:00","29.2","","22.3","","66","","","","23","","11","","24.1","","100.67","","39","","","","NA"
"-73.74","45.47","MONTREAL INTL A","7025251","2021-08-20 19:00","2021","08","20","19:00","28.3","","22.3","","69","","","","23","","11","","24.1","","100.73","","38","","","","Clear"
"-73.74","45.47","MONTREAL INTL A","7025251","2021-08-20 20:00","2021","08","20","20:00","27.4","","21.8","","71","","","","24","","7","","24.1","","100.77","","37","","","","NA"
"-73.74","45.47","MONTREAL INTL A","7025251","2021-08-20 21:00","2021","08","20","21:00","26.4","","21.9","","76","","","","29","","5","","24.1","","100.78","","36","","","","NA"
"-73.74","45.47","MONTREAL INTL A","7025251","2021-08-20 22:00","2021","08","20","22:00","26.1","","21.9","","78","","","","25","","5","","24.1","","100.80","","35","","","","Clear"
"-73.74","45.47","MONTREAL INTL A","7025251","2021-08-20 23:00","2021","08","20","23:00","25.2","","21.9","","82","","","","22","","10","","24.1","","100.84","","34","","","","NA"
"-73.74","45.47","MONTREAL INTL A","7025251","2021-08-21 00:00","2021","08","21","00:00","24.1","","21.6","","86","","","","24","","5","","24.1","","100.84","","33","","","","NA"
"-73.74","45.47","MONTREAL INTL A","7025251","2021-08-21 01:00","2021","08","21","01:00","23.6","","21.9","","91","","","","27","","3","","24.1","","100.82","","33","","","","Clear"
"-73.74","45.47","MONTREAL INTL A","7025251","2021-08-21 02:00","2021","08","21","02:00","22.9","","21.6","","92","","","","36","","3","","24.1","","100.82","","32","","","","NA"
"-73.74","45.47","MONTREAL INTL A","7025251","2021-08-21 03:00","2021","08","21","03:00","22.6","","21.8","","95","","","","27","","3","","24.1","","100.85","","32","","","","NA"
"-73.74","45.47","MONTREAL INTL A","7025251","2021-08-21 04:00","2021","08","21","04:00","21.8","","21.0","","95","","","","33","","4","","24.1","","100.87","","30","","","","Clear"
"-73.74","45.47","MONTREAL INTL A","7025251","2021-08-21 05:00","2021","08","21","05:00","22.2","","20.2","","89","","","","1","","10","","24.1","","100.92","","30","","","","NA"
"-73.74","45.47","MONTREAL INTL A","7025251","2021-08-21 06:00","2021","08","21","06:00","22.7","","20.6","","88","","","","1","","13","","24.1","","100.97","","31","","","","NA"
"-73.74","45.47","MONTREAL INTL A","7025251","2021-08-21 07:00","2021","08","21","07:00","23.4","","21.1","","87","","","","2","","13","","24.1","","101.01","","32","","","","Mostly Cloudy"
"-73.74","45.47","MONTREAL INTL A","7025251","2021-08-21 08:00","2021","08","21","08:00","25.0","","21.1","","78","","","","3","","11","","24.1","","101.00","","34","","","","NA"
"-73.74","45.47","MONTREAL INTL A","7025251","2021-08-21 09:00","2021","08","21","09:00","26.6","","20.8","","70","","","","2","","10","","24.1","","100.98","","35","","","","NA"
"-73.74","45.47","MONTREAL INTL A","7025251","2021-08-21 10:00","2021","08","21","10:00","28.8","","21.4","","64","","","","2","","7","","24.1","","100.99","","38","","","","Mainly Clear"
"-73.74","45.47","MONTREAL INTL A","7025251","2021-08-21 11:00","2021","08","21","11:00","30.5","","22.1","","60","","","","19","","6","","24.1","","100.96","","40","","","","NA"
"-73.74","45.47","MONTREAL INTL A","7025251","2021-08-21 12:00","2021","08","21","12:00","31.9","","21.5","","54","","","","16","","12","","24.1","","100.90","","41","","","","NA"
"-73.74","45.47","MONTREAL INTL A","7025251","2021-08-21 13:00","2021","08","21","13:00","32.7","","21.6","","51","","","","14","","12","","24.1","","100.86","","42","","","","Mainly Clear"
"-73.74","45.47","MONTREAL INTL A","7025251","2021-08-21 14:00","2021","08","21","14:00","33.3","","20.8","","47","","","","15","","12","","24.1","","100.80","","42","","","","NA"
"-73.74","45.47","MONTREAL INTL A","7025251","2021-08-21 15:00","2021","08","21","15:00","33.5","","20.6","","46","","","","16","","17","","24.1","","100.77","","42","","","","NA"
"-73.74","45.47","MONTREAL INTL A","7025251","2021-08-21 16:00","2021","08","21","16:00","33.3","","20.2","","45","","","","16","","16","","24.1","","100.74","","41","","","","Cloudy"
"-73.74","45.47","MONTREAL INTL A","7025251","2021-08-21 17:00","2021","08","21","17:00","31.9","","20.5","","50","","","","14","","15","","24.1","","100.72","","40","","","","NA"
"-73.74","45.47","MONTREAL INTL A","7025251","2021-08-21 18:00","2021","08","21","18:00","31.3","","21.1","","54","","","","11","","11","","24.1","","100.73","","40","","","","NA"
"-73.74","45.47","MONTREAL INTL A","7025251","2021-08-21 19:00","2021","08","21","19:00","29.7","","20.9","","59","","","","11","","9","","24.1","","100.77","","38","","","","Mostly Cloudy"
"-73.74","45.47","MONTREAL INTL A","7025251","2021-08-21 20:00","2021","08","21","20:00","28.6","","21.7","","66","","","","12","","20","","24.1","","100.81","","38","","","","NA"
"-73.74","45.47","MONTREAL INTL A","7025251","2021-08-21 21:00","2021","08","21","21:00","27.4","","21.5","","70","","","","14","","10","","24.1","","100.84","","36","","","","NA"
"-73.74","45.47","MONTREAL INTL A","7025251","2021-08-21 22:00","2021","08","21","22:00","26.9","","20.9","","69","","","","14","","12","","24.1","","100.85","","35","","","","Mostly Cloudy"
"-73.74","45.47","MONTREAL INTL A","7025251","2021-08-21 23:00","2021","08","21","23:00","25.8","","20.6","","72","","","","14","","14","","24.1","","100.85","","34","","","","NA"
"-73.74","45.47","MONTREAL INTL A","7025251","2021-08-22 00:00","2021","08","22","00:00","25.2","","21.0","","77","","","","14","","10","","24.1","","100.86","","34","","","","NA"
"-73.74","45.47","MONTREAL INTL A","7025251","2021-08-22 01:00","2021","08","22","01:00","25.3","","21.6","","80","","","","14","","15","","24.1","","100.86","","34","","","","Mostly Cloudy"
"-73.74","45.47","MONTREAL INTL A","7025251","2021-08-22 02:00","2021","08","22","02:00","24.8","","21.7","","83","","","","14","","11","","24.1","","100.82","","34","","","","NA"
"-73.74","45.47","MONTREAL INTL A","7025251","2021-08-22 03:00","2021","08","22","03:00","24.4","","21.8","","85","","","","15","","9","","24.1","","100.83","","34","","","","NA"
"-73.74","45.47","MONTREAL INTL A","7025251","2021-08-22 04:00","2021","08","22","04:00","24.2","","21.6","","85","","","","11","","7","","24.1","","100.84","","33","","","","Mainly Clear"
"-73.74","45.47","MONTREAL INTL A","7025251","2021-08-22 05:00","2021","08","22","05:00","24.0","","21.8","","87","","","","11","","7","","24.1","","100.87","","33","","","","NA"
"-73.74","45.47","MONTREAL INTL A","7025251","2021-08-22 06:00","2021","08","22","06:00","24.5","","21.9","","85","","","","11","","7","","24.1","","100.92","","34","","","","NA"
"-73.74","45.47","MONTREAL INTL A","7025251","2021-08-22 07:00","2021","08","22","07:00","24.9","","21.8","","83","","","","10","","4","","24.1","","100.95","","34","","","","Mostly Cloudy"
"-73.74","45.47","MONTREAL INTL A","7025251","2021-08-22 08:00","2021","08","22","08:00","26.0","","22.1","","79","","","","9","","7","","24.1","","100.96","","35","","","","NA"
"-73.74","45.47","MONTREAL INTL A","7025251","2021-08-22 09:00","2021","08","22","09:00","26.6","","22.2","","76","","","","11","","9","","48.3","","100.96","","36","","","","NA"
"-73.74","45.47","MONTREAL INTL A","7025251","2021-08-22 10:00","2021","08","22","10:00","27.7","","22.1","","71","","","","8","","8","","48.3","","100.93","","37","","","","Mostly Cloudy"
"-73.74","45.47","MONTREAL INTL A","7025251","2021-08-22 11:00","2021","08","22","11:00","29.4","","21.4","","62","","","","5","","11","","48.3","","100.90","","38","","","","NA"
"-73.74","45.47","MONTREAL INTL A","7025251","2021-08-22 12:00","2021","08","22","12:00","30.8","","22.1","","59","","","","9","","12","","48.3","","100.83","","40","","","","NA"
"-73.74","45.47","MONTREAL INTL A","7025251","2021-08-22 13:00","2021","08","22","13:00","30.8","","21.4","","57","","","","7","","14","","48.3","","100.79","","40","","","","Mostly Cloudy"
"-73.74","45.47","MONTREAL INTL A","7025251","2021-08-22 14:00","2021","08","22","14:00","31.5","","21.0","","53","","","","9","","14","","24.1","","100.73","","40","","","","NA"
"-73.74","45.47","MONTREAL INTL A","7025251","2021-08-22 15:00","2021","08","22","15:00","31.0","","20.9","","54","","","","7","","21","","48.3","","100.71","","39","","","","NA"
"-73.74","45.47","MONTREAL INTL A","7025251","2021-08-22 16:00","2021","08","22","16:00","31.5","","20.6","","52","","","","8","","18","","48.3","","100.67","","40","","","","Mainly Clear"
"-73.74","45.47","MONTREAL INTL A","7025251","2021-08-22 17:00","2021","08","22","17:00","30.9","","19.6","","51","","","","6","","19","","48.3","","100.68","","38","","","","NA"
"-73.74","45.47","MONTREAL INTL A","7025251","2021-08-22 18:00","2021","08","22","18:00","29.8","","19.8","","55","","","","9","","21","","48.3","","100.69","","37","","","","NA"
"-73.74","45.47","MONTREAL INTL A","7025251","2021-08-22 19:00","2021","08","22","19:00","28.7","","18.9","","55","","","","8","","23","","48.3","","100.70","","35","","","","Mainly Clear"
"-73.74","45.47","MONTREAL INTL A","7025251","2021-08-22 20:00","2021","08","22","20:00","27.4","","19.7","","62","","","","8","","21","","24.1","","100.74","","35","","","","NA"
"-73.74","45.47","MONTREAL INTL A","7025251","2021-08-22 21:00","2021","08","22","21:00","26.1","","19.2","","65","","","","10","","25","","24.1","","100.73","","33","","","","NA"
"-73.74","45.47","MONTREAL INTL A","7025251","2021-08-22 22:00","2021","08","22","22:00","25.3","","19.1","","68","","","","8","","20","","24.1","","100.69","","32","","","","Clear"
"-73.74","45.47","MONTREAL INTL A","7025251","2021-08-22 23:00","2021","08","22","23:00","25.0","","18.9","","69","","","","8","","26","","24.1","","100.68","","32","","","","NA"
"-73.74","45.47","MONTREAL INTL A","7025251","2021-08-23 00:00","2021","08","23","00:00","24.9","","19.0","","69","","","","7","","16","","24.1","","100.70","","32","","","","NA"
"-73.74","45.47","MONTREAL INTL A","7025251","2021-08-23 01:00","2021","08","23","01:00","24.3","","19.2","","73","","","","5","","18","","24.1","","100.68","","31","","","","Mostly Cloudy"
"-73.74","45.47","MONTREAL INTL A","7025251","2021-08-23 02:00","2021","08","23","02:00","23.2","","19.0","","77","","","","7","","16","","24.1","","100.66","","30","","","","NA"
"-73.74","45.47","MONTREAL INTL A","7025251","2021-08-23 03:00","2021","08","23","03:00","23.0","","19.0","","78","","","","6","","14","","24.1","","100.66","","30","","","","NA"
"-73.74","45.47","MONTREAL INTL A","7025251","2021-08-23 04:00","2021","08","23","04:00","21.9","","18.9","","83","","","","5","","16","","24.1","","100.66","","29","","","","Clear"
"-73.74","45.47","MONTREAL INTL A","7025251","2021-08-23 05:00","2021","08","23","05:00","22.0","","19.1","","84","","","","5","","17","","24.1","","100.68","","29","","","","NA"
"-73.74","45.47","MONTREAL INTL A","7025251","2021-08-23 06:00","2021","08","23","06:00","22.3","","19.3","","83","","","","5","","15","","24.1","","100.72","","29","","","","NA"
"-73.74","45.47","MONTREAL INTL A","7025251","2021-08-23 07:00","2021","08","23","07:00","23.4","","19.3","","77","","","","9","","13","","24.1","","100.74","","30","","","","Mostly Cloudy"
"-73.74","45.47","MONTREAL INTL A","7025251","2021-08-23 08:00","2021","08","23","08:00","24.5","","19.6","","74","","","","10","","14","","24.1","","100.72","","32","","","","NA"
"-73.74","45.47","MONTREAL INTL A","7025251","2021-08-23 09:00","2021","08","23","09:00","25.9","","19.6","","68","","","","11","","14","","48.3","","100.72","","33","","","","NA"
"-73.74","45.47","MONTREAL INTL A","7025251","2021-08-23 10:00","2021","08","23","10:00","27.5","","19.1","","60","","","","17","","14","","48.3","","100.70","","34","","","","Mostly Cloudy"
"-73.74","45.47","MONTREAL INTL A","7025251","2021-08-23 11:00","2021","08","23","11:00","28.0","","18.9","","57","","","","14","","24","","48.3","","100.68","","35","","","","NA"
"-73.74","45.47","MONTREAL INTL A","7025251","2021-08-23 12:00","2021","08","23","12:00","28.1","","19.5","","59","","","","15","","10","","48.3","","100.63","","35","","","","NA"
"-73.74","45.47","MONTREAL INTL A","7025251","2021-08-23 13:00","2021","08","23","13:00","29.3","","19.7","","56","","","","16","","16","","48.3","","100.58","","37","","","","Mostly Cloudy"
"-73.74","45.47","MONTREAL INTL A","7025251","2021-08-23 14:00","2021","08","23","14:00","30.6","","19.9","","52","","","","15","","12","","48.3","","100.55","","38","","","","NA"
"-73.74","45.47","MONTREAL INTL A","7025251","2021-08-23 15:00","2021","08","23","15:00","29.3","","19.5","","55","","","","14","","13","","48.3","","100.52","","36","","","","NA"
"-73.74","45.47","MONTREAL INTL A","7025251","2021-08-23 16:00","2021","08","23","16:00","29.3","","19.5","","55","","","","16","","14","","48.3","","100.50","","36","","","","Mostly Cloudy"
"-73.74","45.47","MONTREAL INTL A","7025251","2021-08-23 17:00","2021","08","23","17:00","28.9","","19.2","","55","","","","15","","13","","48.3","","100.49","","36","","","","NA"
"-73.74","45.47","MONTREAL INTL A","7025251","2021-08-23 18:00","2021","08","23","18:00","28.4","","19.2","","57","","","","15","","14","","48.3","","100.48","","35","","","","NA"
"-73.74","45.47","MONTREAL INTL A","7025251","2021-08-23 19:00","2021","08","23","19:00","27.7","","19.7","","61","","","","16","","14","","48.3","","100.51","","35","","","","Mostly Cloudy"
"-73.74","45.47","MONTREAL INTL A","7025251","2021-08-23 20:00","2021","08","23","20:00","26.7","","19.7","","65","","","","15","","14","","24.1","","100.51","","34","","","","NA"
"-73.74","45.47","MONTREAL INTL A","7025251","2021-08-23 21:00","2021","08","23","21:00","25.8","","19.9","","69","","","","17","","10","","24.1","","100.53","","33","","","","NA"
"-73.74","45.47","MONTREAL INTL A","7025251","2021-08-23 22:00","2021","08","23","22:00","25.0","","20.1","","73","","","","16","","11","","24.1","","100.49","","33","","","","Mainly Clear"
"-73.74","45.47","MONTREAL INTL A","7025251","2021-08-23 23:00","2021","08","23","23:00","24.0","","20.2","","79","","","","24","","5","","24.1","","100.49","","32","","","","NA"
"-73.74","45.47","MONTREAL INTL A","7025251","2021-08-24 00:00","2021","08","24","00:00","24.0","","21.1","","84","","","","21","","5","","24.1","","100.48","","33","","","","NA"
"-73.74","45.47","MONTREAL INTL A","7025251","2021-08-24 01:00","2021","08","24","01:00","23.5","","21.5","","89","","","","21","","8","","24.1","","100.48","","32","","","","Mainly Clear"
"-73.74","45.47","MONTREAL INTL A","7025251","2021-08-24 02:00","2021","08","24","02:00","22.8","","20.5","","87","","","","29","","9","","24.1","","100.50","","31","","","","NA"
"-73.74","45.47","MONTREAL INTL A","7025251","2021-08-24 03:00","2021","08","24","03:00","22.3","","20.3","","88","","","","27","","4","","24.1","","100.51","","30","","","","NA"
"-73.74","45.47","MONTREAL INTL A","7025251","2021-08-24 04:00","2021","08","24","04:00","23.0","","20.5","","85","","","","23","","4","","24.1","","100.52","","31","","","","Mainly Clear"
"-73.74","45.47","MONTREAL INTL A","7025251","2021-08-24 05:00","2021","08","24","05:00","23.0","","21.1","","89","","","","26","","7","","24.1","","100.55","","32","","","","NA"
"-73.74","45.47","MONTREAL INTL A","7025251","2021-08-24 06:00","2021","08","24","06:00","23.5","","21.0","","86","","","","25","","11","","24.1","","100.59","","32","","","","NA"
"-73.74","45.47","MONTREAL INTL A","7025251","2021-08-24 07:00","2021","08","24","07:00","24.3","","21.1","","82","","","","25","","14","","24.1","","100.63","","33","","","","Mostly Cloudy"
"-73.74","45.47","MONTREAL INTL A","7025251","2021-08-24 08:00","2021","08","24","08:00","26.1","","21.4","","75","","","","27","","11","","24.1","","100.66","","35","","","","NA"
"-73.74","45.47","MONTREAL INTL A","7025251","2021-08-24 09:00","2021","08","24","09:00","26.0","","21.1","","74","","","","31","","11","","24.1","","100.70","","35","","","","NA"
"-73.74","45.47","MONTREAL INTL A","7025251","2021-08-24 10:00","2021","08","24","10:00","28.6","","19.8","","58","","","","31","","13","","24.1","","100.72","","36","","","","Mainly Clear"
"-73.74","45.47","MONTREAL INTL A","7025251","2021-08-24 11:00","2021","08","24","11:00","29.9","","19.1","","52","","","","27","","17","","24.1","","100.70","","37","","","","NA"
"-73.74","45.47","MONTREAL INTL A","7025251","2021-08-24 12:00","2021","08","24","12:00","30.9","","17.9","","45","","","","28","","18","","24.1","","100.68","","37","","","","NA"
"-73.74","45.47","MONTREAL INTL A","7025251","2021-08-24 13:00","2021","08","24","13:00","31.9","","16.3","","39","","","","25","","25","","24.1","","100.69","","37","","","","Mainly Clear"
"-73.74","45.47","MONTREAL INTL A","7025251","2021-08-24 14:00","2021","08","24","14:00","32.6","","17.1","","39","","","","27","","21","","24.1","","100.70","","38","","","","NA"
"-73.74","45.47","MONTREAL INTL A","7025251","2021-08-24 15:00","2021","08","24","15:00","32.2","","17.0","","39","","","","26","","28","","24.1","","100.73","","37","","","","NA"
"-73.74","45.47","MONTREAL INTL A","7025251","2021-08-24 16:00","2021","08","24","16:00","32.0","","16.4","","39","","","","26","","25","","24.1","","100.75","","37","","","","Mainly Clear"
"-73.74","45.47","MONTREAL INTL A","7025251","2021-08-24 17:00","2021","08","24","17:00","31.2","","16.3","","40","","","","27","","26","","24.1","","100.76","","36","","","","NA"
"-73.74","45.47","MONTREAL INTL A","7025251","2021-08-24 18:00","2021","08","24","18:00","30.2","","14.3","","37","","","","27","","24","","24.1","","100.76","","34","","","","NA"
"-73.74","45.47","MONTREAL INTL A","7025251","2021-08-24 19:00","2021","08","24","19:00","28.3","","17.1","","50","","","","26","","18","","24.1","","100.86","","34","","","","Mainly Clear"
"-73.74","45.47","MONTREAL INTL A","7025251","2021-08-24 20:00","2021","08","24","20:00","27.1","","17.5","","55","","","","27","","16","","24.1","","100.94","","33","","","","NA"
"-73.74","45.47","MONTREAL INTL A","7025251","2021-08-24 21:00","2021","08","24","21:00","25.8","","17.8","","61","","","","27","","14","","24.1","","100.99","","32","","","","NA"
"-73.74","45.47","MONTREAL INTL A","7025251","2021-08-24 22:00","2021","08","24","22:00","24.4","","17.8","","66","","","","27","","9","","24.1","","101.02","","30","","","","Clear"
"-73.74","45.47","MONTREAL INTL A","7025251","2021-08-24 23:00","2021","08","24","23:00","23.6","","18.5","","73","","","","24","","12","","24.1","","101.09","","30","","","","NA"
"-73.74","45.47","MONTREAL INTL A","7025251","2021-08-25 00:00","2021","08","25","00:00","23.4","","19.8","","80","","","","23","","13","","24.1","","101.09","","31","","","","NA"
"-73.74","45.47","MONTREAL INTL A","7025251","2021-08-25 01:00","2021","08","25","01:00","22.9","","19.3","","80","","","","24","","14","","24.1","","101.15","","30","","","","Clear"
"-73.74","45.47","MONTREAL INTL A","7025251","2021-08-25 02:00","2021","08","25","02:00","22.1","","19.6","","85","","","","24","","10","","24.1","","101.16","","29","","","","NA"
"-73.74","45.47","MONTREAL INTL A","7025251","2021-08-25 03:00","2021","08","25","03:00","21.6","","18.8","","84","","","","24","","10","","24.1","","101.21","","28","","","","NA"
"-73.74","45.47","MONTREAL INTL A","7025251","2021-08-25 04:00","2021","08","25","04:00","21.2","","18.1","","82","","","","24","","12","","24.1","","101.27","","27","","","","Clear"
"-73.74","45.47","MONTREAL INTL A","7025251","2021-08-25 05:00","2021","08","25","05:00","20.9","","16.9","","78","","","","23","","12","","24.1","","101.28","","26","","","","NA"
"-73.74","45.47","MONTREAL INTL A","7025251","2021-08-25 06:00","2021","08","25","06:00","21.6","","17.3","","76","","","","24","","6","","24.1","","101.31","","27","","","","NA"
"-73.74","45.47","MONTREAL INTL A","7025251","2021-08-25 07:00","2021","08","25","07:00","23.5","","18.1","","71","","","","23","","14","","48.3","","101.34","","30","","","","Mainly Clear"
"-73.74","45.47","MONTREAL INTL A","7025251","2021-08-25 08:00","2021","08","25","08:00","25.3","","17.9","","63","","","","24","","17","","48.3","","101.37","","31","","","","NA"
"-73.74","45.47","MONTREAL INTL A","7025251","2021-08-25 09:00","2021","08","25","09:00","26.8","","18.6","","60","","","","21","","15","","24.1","","101.38","","33","","","","NA"
"-73.74","45.47","MONTREAL INTL A","7025251","2021-08-25 10:00","2021","08","25","10:00","27.7","","19.2","","59","","","","19","","13","","24.1","","101.38","","35","","","","Mainly Clear"
"-73.74","45.47","MONTREAL INTL A","7025251","2021-08-25 11:00","2021","08","25","11:00","29.9","","20.2","","55","","","","20","","16","","24.1","","101.34","","38","","","","NA"
"-73.74","45.47","MONTREAL INTL A","7025251","2021-08-25 12:00","2021","08","25","12:00","30.4","","19.3","","51","","","","23","","20","","24.1","","101.30","","37","","","","NA"
"-73.74","45.47","MONTREAL INTL A","7025251","2021-08-25 13:00","2021","08","25","13:00","31.1","","19.5","","49","","","","24","","19","","24.1","","101.27","","38","","","","Mostly Cloudy"
"-73.74","45.47","MONTREAL INTL A","7025251","2021-08-25 14:00","2021","08","25","14:00","30.6","","19.6","","51","","","","20","","17","","24.1","","101.23","","38","","","","NA"
"-73.74","45.47","MONTREAL INTL A","7025251","2021-08-25 15:00","2021","08","25","15:00","31.6","","19.6","","48","","","","21","","18","","24.1","","101.19","","39","","","","NA"
"-73.74","45.47","MONTREAL INTL A","7025251","2021-08-25 16:00","2021","08","25","16:00","31.9","","19.6","","48","","","","22","","22","","24.1","","101.16","","39","","","","Mostly Cloudy"
"-73.74","45.47","MONTREAL INTL A","7025251","2021-08-25 17:00","2021","08","25","17:00","31.4","","20.1","","50","","","","22","","22","","24.1","","101.14","","39","","","","NA"
"-73.74","45.47","MONTREAL INTL A","7025251","2021-08-25 18:00","2021","08","25","18:00","29.9","","20.7","","57","","","","22","","16","","24.1","","101.14","","38","","","","NA"
"-73.74","45.47","MONTREAL INTL A","7025251","2021-08-25 19:00","2021","08","25","19:00","29.0","","20.9","","61","","","","22","","13","","24.1","","101.12","","37","","","","Mostly Cloudy"
"-73.74","45.47","MONTREAL INTL A","7025251","2021-08-25 20:00","2021","08","25","20:00","28.1","","21.6","","67","","","","22","","10","","24.1","","101.17","","37","","","","NA"
"-73.74","45.47","MONTREAL INTL A","7025251","2021-08-25 21:00","2021","08","25","21:00","27.4","","21.8","","71","","","","21","","15","","24.1","","101.16","","37","","","","NA"
"-73.74","45.47","MONTREAL INTL A","7025251","2021-08-25 22:00","2021","08","25","22:00","26.7","","21.5","","73","","","","19","","14","","24.1","","101.18","","36","","","","Mainly Clear"
"-73.74","45.47","MONTREAL INTL A","7025251","2021-08-25 23:00","2021","08","25","23:00","26.0","","22.0","","78","","","","21","","10","","24.1","","101.21","","35","","","","NA"
"-73.74","45.47","MONTREAL INTL A","7025251","2021-08-26 00:00","2021","08","26","00:00","25.6","","22.1","","80","","","","21","","9","","24.1","","101.21","","35","","","","NA"
"-73.74","45.47","MONTREAL INTL A","7025251","2021-08-26 01:00","2021","08","26","01:00","25.5","","22.2","","82","","","","21","","11","","24.1","","101.21","","35","","","","Clear"
"-73.74","45.47","MONTREAL INTL A","7025251","2021-08-26 02:00","2021","08","26","02:00","25.3","","21.9","","81","","","","21","","13","","24.1","","101.20","","35","","","","NA"
"-73.74","45.47","MONTREAL INTL A","7025251","2021-08-26 03:00","2021","08","26","03:00","24.4","","21.7","","85","","","","23","","8","","24.1","","101.22","","33","","","","NA"
"-73.74","45.47","MONTREAL INTL A","7025251","2021-08-26 04:00","2021","08","26","04:00","24.6","","21.6","","83","","","","23","","11","","24.1","","101.23","","34","","","","Clear"
"-73.74","45.47","MONTREAL INTL A","7025251","2021-08-26 05:00","2021","08","26","05:00","24.5","","21.3","","82","","","","24","","16","","24.1","","101.27","","33","","","","NA"
"-73.74","45.47","MONTREAL INTL A","7025251","2021-08-26 06:00","2021","08","26","06:00","24.6","","21.4","","82","","","","24","","17","","24.1","","101.29","","33","","","","NA"
"-73.74","45.47","MONTREAL INTL A","7025251","2021-08-26 07:00","2021","08","26","07:00","25.6","","21.8","","79","","","","24","","21","","48.3","","101.29","","35","","","","Clear"
"-73.74","45.47","MONTREAL INTL A","7025251","2021-08-26 08:00","2021","08","26","08:00","26.8","","22.9","","79","","","","21","","21","","48.3","","101.28","","37","","","","NA"
"-73.74","45.47","MONTREAL INTL A","7025251","2021-08-26 09:00","2021","08","26","09:00","28.2","","21.9","","68","","","","25","","23","","24.1","","101.27","","37","","","","NA"
"-73.74","45.47","MONTREAL INTL A","7025251","2021-08-26 10:00","2021","08","26","10:00","29.8","","22.0","","63","","","","21","","25","","24.1","","101.26","","39","","","","Mainly Clear"
"-73.74","45.47","MONTREAL INTL A","7025251","2021-08-26 11:00","2021","08","26","11:00","29.8","","21.2","","59","","","","26","","22","","24.1","","101.24","","38","","","","NA"
"-73.74","45.47","MONTREAL INTL A","7025251","2021-08-26 12:00","2021","08","26","12:00","30.6","","20.8","","55","","","","27","","28","","24.1","","101.21","","39","","","","NA"
"-73.74","45.47","MONTREAL INTL A","7025251","2021-08-26 13:00","2021","08","26","13:00","31.9","","19.1","","46","","","","26","","31","","24.1","","101.20","","39","","","","Mainly Clear"
"-73.74","45.47","MONTREAL INTL A","7025251","2021-08-26 14:00","2021","08","26","14:00","32.3","","15.5","","36","","","","28","","27","","24.1","","101.16","","37","","","","NA"
"-73.74","45.47","MONTREAL INTL A","7025251","2021-08-26 15:00","2021","08","26","15:00","32.4","","14.2","","33","","","","27","","20","","24.1","","101.14","","36","","","","NA"
"-73.74","45.47","MONTREAL INTL A","7025251","2021-08-26 16:00","2021","08","26","16:00","32.3","","13.9","","32","","","","29","","26","","24.1","","101.13","","36","","","","Clear"
"-73.74","45.47","MONTREAL INTL A","7025251","2021-08-26 17:00","2021","08","26","17:00","31.4","","14.3","","35","","","","28","","19","","24.1","","101.14","","35","","","","NA"
"-73.74","45.47","MONTREAL INTL A","7025251","2021-08-26 18:00","2021","08","26","18:00","30.1","","15.1","","39","","","","27","","16","","24.1","","101.18","","34","","","","NA"
"-73.74","45.47","MONTREAL INTL A","7025251","2021-08-26 19:00","2021","08","26","19:00","28.5","","15.5","","45","","","","28","","11","","24.1","","101.19","","33","","","","Clear"
"-73.74","45.47","MONTREAL INTL A","7025251","2021-08-26 20:00","2021","08","26","20:00","27.4","","15.6","","48","","","","31","","13","","24.1","","101.20","","32","","","","NA"
"-73.74","45.47","MONTREAL INTL A","7025251","2021-08-26 21:00","2021","08","26","21:00","25.6","","15.6","","53","","","","31","","8","","24.1","","101.23","","30","","","","NA"
"-73.74","45.47","MONTREAL INTL A","7025251","2021-08-26 22:00","2021","08","26","22:00","24.9","","15.6","","56","","","","28","","7","","24.1","","101.25","","29","","","","Mainly Clear"
"-73.74","45.47","MONTREAL INTL A","7025251","2021-08-26 23:00","2021","08","26","23:00","24.0","","15.8","","60","","","","28","","7","","24.1","","101.31","","28","","","","NA"
"-73.74","45.47","MONTREAL INTL A","7025251","2021-08-27 00:00","2021","08","27","00:00","24.2","","14.7","","55","","","","36","","17","","24.1","","101.38","","28","","","","NA"
"-73.74","45.47","MONTREAL INTL A","7025251","2021-08-27 01:00","2021","08","27","01:00","23.7","","12.6","","49","","","","1","","23","","24.1","","101.45","","26","","","","Mostly Cloudy"
"-73.74","45.47","MONTREAL INTL A","7025251","2021-08-27 02:00","2021","08","27","02:00","22.4","","12.1","","52","","","","3","","16","","24.1","","101.48","","25","","","","NA"
"-73.74","45.47","MONTREAL INTL A","7025251","2021-08-27 03:00","2021","08","27","03:00","22.1","","11.6","","51","","","","36","","22","","24.1","","101.53","","","","","","NA"
"-73.74","45.47","MONTREAL INTL A","7025251","2021-08-27 04:00","2021","08","27","04:00","20.8","","12.0","","57","","","","1","","21","","24.1","","101.57","","","","","","Mainly Clear"
"-73.74","45.47","MONTREAL INTL A","7025251","2021-08-27 05:00","2021","08","27","05:00","19.9","","12.3","","61","","","","1","","18","","24.1","","101.69","","","","","","NA"
"-73.74","45.47","MONTREAL INTL A","7025251","2021-08-27 06:00","2021","08","27","06:00","19.2","","11.8","","62","","","","3","","19","","32.2","","101.74","","","","","","NA"
"-73.74","45.47","MONTREAL INTL A","7025251","2021-08-27 07:00","2021","08","27","07:00","18.7","","11.9","","64","","","","1","","16","","48.3","","101.75","","","","","","Mainly Clear"
"-73.74","45.47","MONTREAL INTL A","7025251","2021-08-27 08:00","2021","08","27","08:00","19.2","","11.9","","62","","","","2","","15","","48.3","","101.83","","","","","","NA"
"-73.74","45.47","MONTREAL INTL A","7025251","2021-08-27 09:00","2021","08","27","09:00","20.6","","11.6","","56","","","","36","","17","","48.3","","101.83","","","","","","NA"
"-73.74","45.47","MONTREAL INTL A","7025251","2021-08-27 10:00","2021","08","27","10:00","21.2","","11.1","","52","","","","36","","16","","48.3","","101.88","","","","","","Mainly Clear"
"-73.74","45.47","MONTREAL INTL A","7025251","2021-08-27 11:00","2021","08","27","11:00","21.0","","9.4","","47","","","","2","","13","","48.3","","101.92","","","","","","NA"
"-73.74","45.47","MONTREAL INTL A","7025251","2021-08-27 12:00","2021","08","27","12:00","21.9","","10.1","","46","","","","36","","18","","48.3","","101.95","","","","","","NA"
"-73.74","45.47","MONTREAL INTL A","7025251","2021-08-27 13:00","2021","08","27","13:00","22.3","","9.0","","42","","","","4","","11","","48.3","","101.94","","","","","","Cloudy"
"-73.74","45.47","MONTREAL INTL A","7025251","2021-08-27 14:00","2021","08","27","14:00","22.7","","8.5","","40","","","","2","","14","","48.3","","101.92","","","","","","NA"
"-73.74","45.47","MONTREAL INTL A","7025251","2021-08-27 15:00","2021","08","27","15:00","23.3","","9.4","","41","","","","1","","16","","48.3","","101.87","","","","","","NA"
"-73.74","45.47","MONTREAL INTL A","7025251","2021-08-27 16:00","2021","08","27","16:00","23.5","","9.9","","42","","","","4","","13","","48.3","","101.89","","25","","","","Mainly Clear"
"-73.74","45.47","MONTREAL INTL A","7025251","2021-08-27 17:00","2021","08","27","17:00","22.3","","9.3","","43","","","","4","","13","","48.3","","101.93","","","","","","NA"
"-73.74","45.47","MONTREAL INTL A","7025251","2021-08-27 18:00","2021","08","27","18:00","21.5","","8.7","","43","","","","4","","17","","48.3","","101.93","","","","","","NA"
"-73.74","45.47","MONTREAL INTL A","7025251","2021-08-27 19:00","2021","08","27","19:00","20.2","","9.4","","49","","","","5","","14","","48.3","","101.98","","","","","","Mostly Cloudy"
"-73.74","45.47","MONTREAL INTL A","7025251","2021-08-27 20:00","2021","08","27","20:00","20.4","","9.6","","49","","","","5","","9","","24.1","","102.05","","","","","","NA"
"-73.74","45.47","MONTREAL INTL A","7025251","2021-08-27 21:00","2021","08","27","21:00","20.8","","9.5","","48","","","","7","","13","","24.1","","102.04","","","","","","NA"
"-73.74","45.47","MONTREAL INTL A","7025251","2021-08-27 22:00","2021","08","27","22:00","20.4","","9.5","","49","","","","8","","13","","24.1","","102.09","","","","","","Mostly Cloudy"
"-73.74","45.47","MONTREAL INTL A","7025251","2021-08-27 23:00","2021","08","27","23:00","20.5","","9.6","","49","","","","8","","10","","24.1","","102.11","","","","","","NA"
"-73.74","45.47","MONTREAL INTL A","7025251","2021-08-28 00:00","2021","08","28","00:00","19.8","","8.0","","46","","","","6","","19","","24.1","","102.13","","","","","","NA"
"-73.74","45.47","MONTREAL INTL A","7025251","2021-08-28 01:00","2021","08","28","01:00","19.0","","7.6","","47","","","","6","","21","","24.1","","102.11","","","","","","Mostly Cloudy"
"-73.74","45.47","MONTREAL INTL A","7025251","2021-08-28 02:00","2021","08","28","02:00","17.6","","8.2","","54","","","","4","","18","","24.1","","102.12","","","","","","NA"
"-73.74","45.47","MONTREAL INTL A","7025251","2021-08-28 03:00","2021","08","28","03:00","17.0","","8.7","","58","","","","5","","16","","24.1","","102.12","","","","","","NA"
"-73.74","45.47","MONTREAL INTL A","7025251","2021-08-28 04:00","2021","08","28","04:00","16.8","","9.2","","61","","","","3","","13","","24.1","","102.13","","","","","","Cloudy"
"-73.74","45.47","MONTREAL INTL A","7025251","2021-08-28 05:00","2021","08","28","05:00","15.7","","11.4","","76","","","","3","","15","","24.1","","102.11","","","","","","Rain"
"-73.74","45.47","MONTREAL INTL A","7025251","2021-08-28 06:00","2021","08","28","06:00","16.1","","11.9","","76","","","","4","","14","","24.1","","102.14","","","","","","Rain"
"-73.74","45.47","MONTREAL INTL A","7025251","2021-08-28 07:00","2021","08","28","07:00","16.6","","11.5","","72","","","","4","","15","","24.1","","102.15","","","","","","Drizzle"
"-73.74","45.47","MONTREAL INTL A","7025251","2021-08-28 08:00","2021","08","28","08:00","16.9","","11.3","","69","","","","4","","16","","24.1","","102.12","","","","","","NA"
"-73.74","45.47","MONTREAL INTL A","7025251","2021-08-28 09:00","2021","08","28","09:00","17.7","","11.1","","65","","","","2","","17","","48.3","","102.18","","","","","","Rain"
"-73.74","45.47","MONTREAL INTL A","7025251","2021-08-28 10:00","2021","08","28","10:00","17.1","","12.2","","73","","","","3","","19","","48.3","","102.20","","","","","","Rain"
"-73.74","45.47","MONTREAL INTL A","7025251","2021-08-28 11:00","2021","08","28","11:00","17.1","","11.8","","71","","","","6","","19","","48.3","","102.15","","","","","","Rain"
"-73.74","45.47","MONTREAL INTL A","7025251","2021-08-28 12:00","2021","08","28","12:00","18.6","","12.6","","68","","","","6","","14","","24.1","","102.09","","","","","","NA"
"-73.74","45.47","MONTREAL INTL A","7025251","2021-08-28 13:00","2021","08","28","13:00","19.8","","12.5","","62","","","","7","","15","","24.1","","102.08","","","","","","Cloudy"
"-73.74","45.47","MONTREAL INTL A","7025251","2021-08-28 14:00","2021","08","28","14:00","19.9","","13.0","","64","","","","8","","10","","24.1","","102.07","","","","","","NA"
"-73.74","45.47","MONTREAL INTL A","7025251","2021-08-28 15:00","2021","08","28","15:00","18.4","","15.3","","82","","","","6","","15","","24.1","","102.05","","","","","","NA"
"-73.74","45.47","MONTREAL INTL A","7025251","2021-08-28 16:00","2021","08","28","16:00","18.0","","15.7","","86","","","","6","","17","","24.1","","102.00","","","","","","Rain"
"-73.74","45.47","MONTREAL INTL A","7025251","2021-08-28 17:00","2021","08","28","17:00","18.1","","15.1","","82","","","","9","","18","","24.1","","101.93","","","","","","Rain"
"-73.74","45.47","MONTREAL INTL A","7025251","2021-08-28 18:00","2021","08","28","18:00","18.4","","14.4","","78","","","","11","","18","","48.3","","101.89","","","","","","NA"
"-73.74","45.47","MONTREAL INTL A","7025251","2021-08-28 19:00","2021","08","28","19:00","18.3","","14.6","","78","","","","8","","11","","24.1","","101.90","","","","","","Cloudy"
"-73.74","45.47","MONTREAL INTL A","7025251","2021-08-28 20:00","2021","08","28","20:00","18.5","","14.0","","75","","","","9","","12","","24.1","","101.90","","","","","","NA"
"-73.74","45.47","MONTREAL INTL A","7025251","2021-08-28 21:00","2021","08","28","21:00","18.3","","14.3","","77","","","","7","","10","","24.1","","101.86","","","","","","NA"
"-73.74","45.47","MONTREAL INTL A","7025251","2021-08-28 22:00","2021","08","28","22:00","18.1","","14.3","","78","","","","6","","14","","24.1","","101.82","","","","","","Cloudy"
"-73.74","45.47","MONTREAL INTL A","7025251","2021-08-28 23:00","2021","08","28","23:00","17.6","","14.5","","81","","","","4","","14","","24.1","","101.78","","","","","","NA"
"-73.74","45.47","MONTREAL INTL A","7025251","2021-08-29 00:00","2021","08","29","00:00","17.6","","14.8","","83","","","","5","","15","","24.1","","101.76","","","","","","NA"
"-73.74","45.47","MONTREAL INTL A","7025251","2021-08-29 01:00","2021","08","29","01:00","17.3","","15.1","","87","","","","3","","10","","24.1","","101.72","","","","","","Rain"
"-73.74","45.47","MONTREAL INTL A","7025251","2021-08-29 02:00","2021","08","29","02:00","17.4","","14.9","","85","","","","2","","10","","24.1","","101.70","","","","","","Rain"
"-73.74","45.47","MONTREAL INTL A","7025251","2021-08-29 03:00","2021","08","29","03:00","16.4","","15.4","","94","","","","2","","9","","24.1","","101.65","","","","","","Drizzle"
"-73.74","45.47","MONTREAL INTL A","7025251","2021-08-29 04:00","2021","08","29","04:00","16.4","","15.6","","95","","","","2","","9","","24.1","","101.63","","","","","","Drizzle"
"-73.74","45.47","MONTREAL INTL A","7025251","2021-08-29 05:00","2021","08","29","05:00","16.4","","15.9","","97","","","","2","","12","","24.1","","101.62","","","","","","Drizzle"
"-73.74","45.47","MONTREAL INTL A","7025251","2021-08-29 06:00","2021","08","29","06:00","16.6","","16.2","","97","","","","36","","11","","16.1","","101.66","","","","","","Drizzle"
"-73.74","45.47","MONTREAL INTL A","7025251","2021-08-29 07:00","2021","08","29","07:00","16.2","","15.7","","97","","","","3","","17","","16.1","","101.67","","","","","","Drizzle"
"-73.74","45.47","MONTREAL INTL A","7025251","2021-08-29 08:00","2021","08","29","08:00","17.1","","16.4","","96","","","","2","","12","","9.7","","101.64","","","","","","Fog"
"-73.74","45.47","MONTREAL INTL A","7025251","2021-08-29 09:00","2021","08","29","09:00","19.5","","17.8","","90","","","","7","","6","","24.1","","101.57","","","","","","NA"
"-73.74","45.47","MONTREAL INTL A","7025251","2021-08-29 10:00","2021","08","29","10:00","21.0","","18.8","","87","","","","16","","4","","24.1","","101.52","","28","","","","Cloudy"
"-73.74","45.47","MONTREAL INTL A","7025251","2021-08-29 11:00","2021","08","29","11:00","20.6","","18.1","","85","","","","2","","13","","24.1","","101.46","","27","","","","NA"
"-73.74","45.47","MONTREAL INTL A","7025251","2021-08-29 12:00","2021","08","29","12:00","20.5","","17.9","","85","","","","2","","11","","24.1","","101.42","","26","","","","NA"
"-73.74","45.47","MONTREAL INTL A","7025251","2021-08-29 13:00","2021","08","29","13:00","19.6","","18.6","","94","","","","4","","12","","2.4","","101.34","","","","","","Moderate Rain,Fog"
"-73.74","45.47","MONTREAL INTL A","7025251","2021-08-29 14:00","2021","08","29","14:00","21.9","","20.7","","92","","","","13","","16","","24.1","","101.22","","30","","","","NA"
"-73.74","45.47","MONTREAL INTL A","7025251","2021-08-29 15:00","2021","08","29","15:00","22.1","","20.0","","88","","","","15","","16","","24.1","","101.15","","30","","","","NA"
"-73.74","45.47","MONTREAL INTL A","7025251","2021-08-29 16:00","2021","08","29","16:00","21.9","","20.5","","92","","","","14","","16","","24.1","","101.05","","30","","","","Rain"
"-73.74","45.47","MONTREAL INTL A","7025251","2021-08-29 17:00","2021","08","29","17:00","21.6","","20.6","","94","","","","14","","9","","24.1","","100.98","","30","","","","NA"
"-73.74","45.47","MONTREAL INTL A","7025251","2021-08-29 18:00","2021","08","29","18:00","21.9","","20.6","","92","","","","14","","9","","24.1","","100.96","","30","","","","NA"
"-73.74","45.47","MONTREAL INTL A","7025251","2021-08-29 19:00","2021","08","29","19:00","21.6","","20.6","","94","","","","13","","9","","24.1","","100.89","","30","","","","Mostly Cloudy"
"-73.74","45.47","MONTREAL INTL A","7025251","2021-08-29 20:00","2021","08","29","20:00","21.3","","20.3","","94","","","","15","","9","","24.1","","100.92","","29","","","","NA"
"-73.74","45.47","MONTREAL INTL A","7025251","2021-08-29 21:00","2021","08","29","21:00","21.2","","20.2","","94","","","","16","","13","","24.1","","100.85","","29","","","","NA"
"-73.74","45.47","MONTREAL INTL A","7025251","2021-08-29 22:00","2021","08","29","22:00","21.0","","20.1","","95","","","","13","","8","","24.1","","100.75","","29","","","","Mostly Cloudy"
"-73.74","45.47","MONTREAL INTL A","7025251","2021-08-29 23:00","2021","08","29","23:00","21.1","","20.2","","94","","","","15","","13","","24.1","","100.72","","29","","","","NA"
"-73.74","45.47","MONTREAL INTL A","7025251","2021-08-30 00:00","2021","08","30","00:00","21.2","","20.1","","94","","","","15","","12","","24.1","","100.67","","29","","","","NA"
"-73.74","45.47","MONTREAL INTL A","7025251","2021-08-30 01:00","2021","08","30","01:00","21.2","","20.2","","93","","","","15","","16","","24.1","","100.56","","29","","","","Mainly Clear"
"-73.74","45.47","MONTREAL INTL A","7025251","2021-08-30 02:00","2021","08","30","02:00","21.5","","20.2","","92","","","","16","","22","","24.1","","100.46","","29","","","","NA"
"-73.74","45.47","MONTREAL INTL A","7025251","2021-08-30 03:00","2021","08","30","03:00","21.7","","20.4","","92","","","","16","","18","","24.1","","100.43","","30","","","","NA"
"-73.74","45.47","MONTREAL INTL A","7025251","2021-08-30 04:00","2021","08","30","04:00","21.9","","20.6","","92","","","","18","","11","","24.1","","100.39","","30","","","","Mostly Cloudy"
"-73.74","45.47","MONTREAL INTL A","7025251","2021-08-30 05:00","2021","08","30","05:00","21.8","","21.0","","96","","","","14","","13","","24.1","","100.35","","30","","","","NA"
"-73.74","45.47","MONTREAL INTL A","7025251","2021-08-30 06:00","2021","08","30","06:00","22.1","","21.1","","94","","","","17","","16","","24.1","","100.34","","31","","","","Rain Showers"
"-73.74","45.47","MONTREAL INTL A","7025251","2021-08-30 07:00","2021","08","30","07:00","22.7","","21.6","","94","","","","22","","23","","24.1","","100.26","","32","","","","Rain Showers"
"-73.74","45.47","MONTREAL INTL A","7025251","2021-08-30 08:00","2021","08","30","08:00","22.9","","22.0","","95","","","","24","","21","","24.1","","100.26","","32","","","","Rain Showers"
"-73.74","45.47","MONTREAL INTL A","7025251","2021-08-30 09:00","2021","08","30","09:00","24.1","","22.2","","89","","","","24","","22","","24.1","","100.26","","34","","","","NA"
"-73.74","45.47","MONTREAL INTL A","7025251","2021-08-30 10:00","2021","08","30","10:00","26.2","","21.2","","74","","","","25","","28","","24.1","","100.22","","35","","","","Mostly Cloudy"
"-73.74","45.47","MONTREAL INTL A","7025251","2021-08-30 11:00","2021","08","30","11:00","27.3","","17.8","","55","","","","26","","28","","24.1","","100.19","","33","","","","NA"
"-73.74","45.47","MONTREAL INTL A","7025251","2021-08-30 12:00","2021","08","30","12:00","28.1","","15.1","","45","","","","26","","30","","48.3","","100.16","","32","","","","NA"
"-73.74","45.47","MONTREAL INTL A","7025251","2021-08-30 13:00","2021","08","30","13:00","27.7","","13.7","","41","","","","27","","34","","48.3","","100.14","","31","","","","Mostly Cloudy"
"-73.74","45.47","MONTREAL INTL A","7025251","2021-08-30 14:00","2021","08","30","14:00","28.8","","14.1","","40","","","","26","","32","","48.3","","100.09","","32","","","","NA"
"-73.74","45.47","MONTREAL INTL A","7025251","2021-08-30 15:00","2021","08","30","15:00","28.4","","11.5","","35","","","","26","","39","","48.3","","100.08","","30","","","","NA"
"-73.74","45.47","MONTREAL INTL A","7025251","2021-08-30 16:00","2021","08","30","16:00","27.8","","13.6","","41","","","","27","","30","","48.3","","100.09","","31","","","","Mainly Clear"
"-73.74","45.47","MONTREAL INTL A","7025251","2021-08-30 17:00","2021","08","30","17:00","27.3","","13.8","","43","","","","28","","24","","48.3","","100.08","","31","","","","NA"
"-73.74","45.47","MONTREAL INTL A","7025251","2021-08-30 18:00","2021","08","30","18:00","26.3","","14.4","","47","","","","27","","21","","48.3","","100.06","","30","","","","NA"
"-73.74","45.47","MONTREAL INTL A","7025251","2021-08-30 19:00","2021","08","30","19:00","24.0","","14.6","","55","","","","25","","13","","48.3","","100.10","","28","","","","Clear"
"-73.74","45.47","MONTREAL INTL A","7025251","2021-08-30 20:00","2021","08","30","20:00","22.9","","15.3","","62","","","","23","","12","","24.1","","100.14","","27","","","","NA"
"-73.74","45.47","MONTREAL INTL A","7025251","2021-08-30 21:00","2021","08","30","21:00","22.2","","16.1","","68","","","","23","","11","","24.1","","100.14","","27","","","","NA"
"-73.74","45.47","MONTREAL INTL A","7025251","2021-08-30 22:00","2021","08","30","22:00","22.3","","17.5","","74","","","","23","","13","","24.1","","100.14","","28","","","","Mainly Clear"
"-73.74","45.47","MONTREAL INTL A","7025251","2021-08-30 23:00","2021","08","30","23:00","21.7","","16.9","","74","","","","26","","14","","24.1","","100.13","","27","","","","NA"
"-73.74","45.47","MONTREAL INTL A","7025251","2021-08-31 00:00","2021","08","31","00:00","21.1","","16.4","","74","","","","25","","18","","24.1","","100.12","","26","","","","NA"
"-73.74","45.47","MONTREAL INTL A","7025251","2021-08-31 01:00","2021","08","31","01:00","20.6","","15.6","","73","","","","26","","21","","24.1","","100.10","","25","","","","Clear"
"-73.74","45.47","MONTREAL INTL A","7025251","2021-08-31 02:00","2021","08","31","02:00","19.9","","15.2","","74","","","","26","","16","","24.1","","100.08","","","","","","NA"
"-73.74","45.47","MONTREAL INTL A","7025251","2021-08-31 03:00","2021","08","31","03:00","18.9","","15.1","","78","","","","25","","15","","24.1","","100.10","","","","","","NA"
"-73.74","45.47","MONTREAL INTL A","7025251","2021-08-31 04:00","2021","08","31","04:00","18.3","","15.1","","81","","","","24","","18","","24.1","","100.14","","","","","","Clear"
"-73.74","45.47","MONTREAL INTL A","7025251","2021-08-31 05:00","2021","08","31","05:00","17.6","","14.9","","84","","","","24","","16","","24.1","","100.16","","","","","","NA"
"-73.74","45.47","MONTREAL INTL A","7025251","2021-08-31 06:00","2021","08","31","06:00","18.1","","15.1","","82","","","","26","","14","","24.1","","100.19","","","","","","NA"
"-73.74","45.47","MONTREAL INTL A","7025251","2021-08-31 07:00","2021","08","31","07:00","19.6","","16.1","","80","","","","24","","12","","24.1","","100.19","","","","","","Clear"
"-73.74","45.47","MONTREAL INTL A","7025251","2021-08-31 08:00","2021","08","31","08:00","20.9","","16.2","","74","","","","26","","18","","24.1","","100.18","","26","","","","NA"
"-73.74","45.47","MONTREAL INTL A","7025251","2021-08-31 09:00","2021","08","31","09:00","21.9","","15.5","","67","","","","27","","18","","24.1","","100.19","","26","","","","NA"
"-73.74","45.47","MONTREAL INTL A","7025251","2021-08-31 10:00","2021","08","31","10:00","23.1","","15.3","","61","","","","27","","23","","24.1","","100.19","","27","","","","Clear"
"-73.74","45.47","MONTREAL INTL A","7025251","2021-08-31 11:00","2021","08","31","11:00","24.1","","13.1","","50","","","","26","","29","","48.3","","100.18","","27","","","","NA"
"-73.74","45.47","MONTREAL INTL A","7025251","2021-08-31 12:00","2021","08","31","12:00","24.6","","13.7","","50","","","","27","","30","","48.3","","100.18","","28","","","","NA"
"-73.74","45.47","MONTREAL INTL A","7025251","2021-08-31 13:00","2021","08","31","13:00","25.7","","14.2","","48","","","","28","","21","","48.3","","100.16","","29","","","","Mainly Clear"
"-73.74","45.47","MONTREAL INTL A","7025251","2021-08-31 14:00","2021","08","31","14:00","25.2","","12.6","","45","","","","28","","29","","48.3","","100.12","","28","","","","NA"
"-73.74","45.47","MONTREAL INTL A","7025251","2021-08-31 15:00","2021","08","31","15:00","25.8","","12.3","","43","","","","25","","31","","48.3","","100.10","","28","","","","NA"
"-73.74","45.47","MONTREAL INTL A","7025251","2021-08-31 16:00","2021","08","31","16:00","25.6","","10.7","","39","","","","25","","32","","48.3","","100.12","","27","","","","Mainly Clear"
"-73.74","45.47","MONTREAL INTL A","7025251","2021-08-31 17:00","2021","08","31","17:00","25.1","","10.5","","39","","","","26","","29","","48.3","","100.14","","27","","","","NA"
"-73.74","45.47","MONTREAL INTL A","7025251","2021-08-31 18:00","2021","08","31","18:00","24.0","","10.2","","41","","","","28","","21","","48.3","","100.18","","25","","","","NA"
"-73.74","45.47","MONTREAL INTL A","7025251","2021-08-31 19:00","2021","08","31","19:00","22.4","","10.3","","46","","","","29","","14","","24.1","","100.23","","","","","","Mainly Clear"
"-73.74","45.47","MONTREAL INTL A","7025251","2021-08-31 20:00","2021","08","31","20:00","21.6","","10.9","","50","","","","31","","12","","24.1","","100.30","","","","","","NA"
"-73.74","45.47","MONTREAL INTL A","7025251","2021-08-31 21:00","2021","08","31","21:00","20.3","","11.2","","55","","","","30","","6","","24.1","","100.32","","","","","","NA"
"-73.74","45.47","MONTREAL INTL A","7025251","2021-08-31 22:00","2021","08","31","22:00","19.2","","11.7","","62","","","","29","","9","","24.1","","100.36","","","","","","Clear"
"-73.74","45.47","MONTREAL INTL A","7025251","2021-08-31 23:00","2021","08","31","23:00","18.6","","11.6","","64","","","","33","","10","","24.1","","100.40","","","","","","NA"
